####018000360####
SIUY20 SUMU 072100
AAXX 07214
86330 42998 01405 10314 20039 40102 57019=
86360 42897 41709 10302 20094 40118 57016 84075=
86460 NIL=
86490 NIL=
86530 42897 72208 10266 20065 40128 55013 82076=
86545 42597 71907 10242 20115 40142 51003 81206=
86565 42598 52109 10230 20137 40140 53001 81406=
86580 42997 51305 10214 20139 40145 57005 80005=
####018000443####
SIUY21 SUMU 072100
AAXX 07214
86315 42998 11808 10286 20088 40112 57020 80005=
86350 42998 01513 10297 20090 40112 56015=
86370 NIL=
86430 NIL=
86440 42998 11910 10302 20060 4xxxx 5xxxx 80009=
86450 41996 72507 10258 20112 40137 55006 70562 87070=
86500 NIL=
86560 NIL=
86575 42997 71804 10228 20105 40146 58005 80008=
86585 42897 72708 10226 20131 40140 57008 83076=
86586 42597 62010 10214 20158 40143 55000 84406=
####018000089####
SNPS40 AMMC 072000 RRF
AAXX 07204
93713 46/// /0905 10175 40173 22200 00151=


####018000762####
SIRA25 RUHB 072100
AAXX 07211
21432 NIL=
21824 NIL=
21921 42999 60000 11420 21461 30229 40280 50202 80001=
21931 NIL=
21946 42999 02702 11417 21437 30220 40312 53005=
21982 42980 22504 11324 21342 30161 40168 57002 82030 333 91106=
25123 42996 21404 11430 21449 30283 40322 52008 82030=
25173 42998 23104 11324 21348 30216 40221 52006 80001 333 91107=
25248 42999 00000 11502 21548 39813 40357 52008 333 91101=
25399 41443 83408 11269 21300 30110 40120 52018 78583 889// 333 91111=
25428 41920 00000 11497 21522 39940 40343 52004 71000 333 91100=
25551 42999 02501 11455 21489 30237 40274 52021 333 91102=
25563 42999 332// 11325 21336 30146 40235 52021 80001 333 911//=
25677 42998 03203 11266 21312 30219 40225 52017 333 91107=
####018000127####
SNVD17 KWNB 072000 RRL
BBXX
46238 07201 99334 71195 46/// ///// 1//// 92029 22200 00134 11206
21003 329// 41205 70030=
####018000127####
SIVD22 KWNB 072100 RRK
BBXX
46240 07211 99366 71219 46/// ///// 1//// 92115 22200 00129 11304
20902 336// 41303 70018=
####018000321####
SINZ20 NZKL 072100 RRA
AAXX 07214
93004 46/// /0709 10234 20165 40189 52008=
93305 NIL=
93800 46/// /0322 10179 20150 40142 52016=
93805 46/// /3538 10211 20153 40046 52001=
93947 46/// ///08 10111 20100 49937 57033=
93987 46/// /3007 10159 20111 40147 57004=
93994 46/// /1408 10237 20222 40139 52020=
####018000127####
SNVD22 KWNB 072000 RRX
BBXX
46235 07201 99326 71172 46/// ///// 1//// 92027 22200 00150 11103
21002 327// 41101 70013=
####018000222####
SIVD22 KWNB 072100 RRL
BBXX
46236 07211 99368 71219 46/// ///// 1//// 92033 22200 00131 11107
21004 329// 41106 70035=
46235 07211 99326 71172 46/// ///// 1//// 92057 22200 00150 11103
21002 327// 41102 70014=
####018000127####
SNVD22 KWNB 072000 RRX
BBXX
46235 07201 99326 71172 46/// ///// 1//// 91957 22200 00150 11003
21002 327// 41101 70013=
####018000109####
SIVD15 KWNB 072100 RRK
BBXX
42099 07211 99273 70842 46/// ///// 1//// 92105 22200 10502 20502
70011=
####018000115####
SIVD15 KWNB 072100 RRL
BBXX
41113 07211 99284 70805 46/// ///// 1//// 92051 22200 00167 11201
21001 70007=
####018001601####
SIAR20 OEJD 072100
AAXX 07214
40582 41858 41514 10179 20086 40155 50003 70511 84030
  333 00129 10220 20146 51000 55014 00595 10196 21106 43058 53474
61397 55300 00000 10181 20000 30000 41222 51405 60000 55407 40000
55507 50815 70013 84358 90401 91017 91119 91215 91313=
41150 41959 31608 10177 20165 40168 70500 83030 333 59009 83359=
41168 NIL=
41170 41958 21203 10179 20164 30167 40180 70500 333 59007 81362=
41176 NIL=
41184 41660 71602 10194 20183 40184 76066 83420 333 58011 83640
      85458=
41194 41760 60604 10199 20152 30184 40189 72122 8607/ 333 58010
      83356 84460=
41196 41958 70703 10181 20159 30152 40193 76162 8702/ 333 58009
      87458=
41198 42560 60000 10222 20165 40187 82530 333 58004 82630 84359=
41210 NIL=
41216 NIL=
41217 41960 50904 10193 20154 30156 40185 70282 85080 333 58012
      82360 85363=
41218 41958 60410 10190 20130 39881 40192 70522 8603/ 333 58009
      86362=
41240 NIL=
41244 NIL=
41246 32660 61903 10206 20156 30184 40188 82531
  333 58003 82630 83360=
41254 NIL=
41256 32960 32406 10219 20157 30170 40180 80001
  333 58003 83075=
41258 NIL=
41268 32560 21601 10189 20105 30172 40189 82500
  333 58005 82625=
41312 NIL=
41314 32960 50000 10176 20133 39656 40180 85030
  333 58008 85359=
41316 32560 50504 10229 20162 30145 40171 82530
  333 58010 82625 84359=
41404 42960 00000 10130 20014 37881 48538 333 58009=
41407 NIL=
41431 41958 01003 10226 20173 30115 48503 70544 333 58028=
41466 42960 01202 10148 20148 38579 48478 92112 333 58009=
41477 NIL=
41480 NIL=
####018000297####
SIME20 OEJD 072100
AAXX 07211
40007 41556 52402 10074 20060 40187 51007 71000 82550 333 82630
85360=
40022 42565 40701 10142 20127 40149 51008 84200 333 84830=
40080 42561 42703 10092 20059 39471 40185 52015 81101 333 81830
84070=
40100 NIL=
40270 NIL=
40272 NIL=
40340 NIL=
####018000127####
SIVD22 KWNB 072100 RRN
BBXX
46212 07211 99408 71243 46/// ///// 1//// 92100 22200 00099 11108
21006 330// 41106 70041=
####018000127####
SIVD22 KWNB 072100 RRM
BBXX
46229 07211 99438 71246 46/// ///// 1//// 92052 22200 00093 11708
21005 329// 41706 70040=
####018000317####
SIVD22 KWNB 072100 RRO
BBXX
46216 07211 99343 71198 46/// ///// 1//// 92056 22200 00134 11305
21003 327// 41304 70023=
46225 07211 99329 71174 46/// ///// 1//// 92050 22200 00151 11102
20902 326// 41101 70012=
46223 07211 99335 71178 46/// ///// 1//// 92053 22200 00150 11102
20902 326// 41101 70011=
####018000127####
SIVD22 KWNB 072100 RRP
BBXX
46213 07211 99403 71247 46/// ///// 1//// 92116 22200 00100 11710
21006 329// 41708 70049=
####018000222####
SIVD22 KWNB 072100 RRQ
BBXX
46222 07211 99336 71183 46/// ///// 1//// 92049 22200 00147 11103
21002 327// 41102 70013=
46215 07211 99352 71209 46/// ///// 1//// 92039 22200 00132 11407
21004 327// 41405 70033=
####018000100####
SIAA14 KARS 072100
AAXX 07214
89049 46/// /0000 4//// 5////=
89628 46/// /2726 4//// 5////=
####018000095####
SITA20 UTDD 072100 RRA
AAXX 07211
38847 ///// /2001 10041 21045 39420 40200 777   92054=
####018001168####
SITR20 UTAA 072100
AAXX 07211
38388 42998 00000 10008 21049 30093 40165 52004=
38392 42997 00000 10020 20001 30058 40162 58001=
38507 42996 83005 10100 20034 30040 40141 52005 8807/=
38511 42998 20000 10045 20014 30011 40153 52004 80001=
38545 42998 71603 10044 21045 39996 40173 52007 87070=
38647 42997 81105 10123 20002 30083 40125 57003 8807/=
38656 42998 70901 10090 20027 30042 40150 52002 87080=
38687 41996 61103 10069 20006 39938 40174 58001 70522 80002=
38750 42997 62302 10097 20085 30155 40127 54000 84031=
38763 42897 62302 10075 20045 30033 40137 57002 86050=
38774 42895 63303 10112 20023 39953 40145 58004 86030=
38799 42997 71401 10076 20034 39942 40173 52011 80007=
38806 42997 71404 10074 21009 39919 40180 54000 80002=
38880 42997 21801 10091 20038 39898 40151 50001 82030=
38886 42997 52701 10098 20045 39927 40153 53001 85030=
38895 42996 61301 10076 20034 39877 40166 57001 86070=
38911 42997 71404 10056 20022 39896 40193 52004 80002=
38915 42997 41203 10072 21007 39868 40195 53004 80001=
38974 42998 82502 10124 20025 39820 40148 52002 85078=
38987 42996 73002 10054 20025 39445 40194 58003 80001=
####018000553####
SIKZ30 UAAA 072100
AAXX 07211
28978 414// 80406 11112 21137 39621 40130 57004 77173 8802/=
28984 413// 83606 11133 21149 39635 40145 57002 77373 8572/=
34398 42998 33603 11150 21177 30181 40195 52012 80006=
34798 42997 80503 11030 21047 8805/=
35173 419// 81803 11042 21057 39737 40120 57010 77172 8802/=
35358 419// 82001 11023 21066 39943 40113 52003 70272 8802/=
35576 42998 71405 11063 21082 39710 40169 57011 80005=
35699 42998 73601 11097 21114 39461 40246 58010 80001=
36686 429// 80502 11123 21143 39801 40254 56006 86032=
####018000127####
SIVD22 KWNB 072100 RRR
BBXX
46214 07211 99379 71235 46/// ///// 1//// 92109 22200 00109 11309
21005 331// 41307 70045=
####018000071####
SIAL53 EUMS 072100 RRC
AAXX 07214
60650 36/// /2803 10143 20031=
####018000071####
SIAL53 EUMS 072100 RRB
AAXX 07214
60660 36/// /0000 10139 20039=
####018000071####
SIAL52 EUMS 072100 RRA
AAXX 07214
60633 36/// /2813 10161 20019=
####018000067####
SIAL58 EUMS 072100
AAXX 07214
60683 36/// /3010 10198 20003=
####018000071####
SIAL52 EUMS 072100 RRB
AAXX 07214
60661 36/// /2811 10155 20006=
####018000071####
SIAL51 EUMS 072100 RRC
AAXX 07214
60672 36/// /2213 10170 21064=
####018000071####
SIAL54 EUMS 072100 RRC
AAXX 07214
60677 36/// /1609 10168 21021=
####018000071####
SIAL54 EUMS 072100 RRB
AAXX 07214
60676 36/// /0000 10260 21107=
####018000086####
SIGH40 EUMS 072100
SATLINK DATA BUFFER EMPTY GHANA/AMMA TIME 2009/02/07 21:19:47=
####018001296####
SIRA26 RUHB 072100
AAXX 07211
25703 31996 50000 11490 21522 39994 40318 53002 77671 80001   333
47048=
25744 NIL=
25913 32999 60605 11215 21281 39960 40118 57001 82031   333 48013=
25954 /1597 83508 11202 21228 30155 40160 53005 78583 8597/=
25956 31699 70508 11175 21234 30177 40183 51002 73632 82531
333 91012 91112=
31088 32999 70104 11237 21276 30125 40133 58002 84041   333 48014=
31829 /1998 20102 11108 21114 30082 40116 58003 70271 80002=
31873 /2997 02902 11170 21176 30067 40203 51005   333 93503=
31909 32998 83109 11099 21178 30057 40138 52014 80008   333 91013
91117=
31960 32998 03604 11075 21159 39966 40209 52009=
32053 32997 22403 11313 21336 30064 40118 57002 80002=
32061 32999 01303 11251 21269 30092 40135 54000=
32098 32984 03402 11251 21269 30110 40121 57002=
32150 /1596 23603 11140 21160 30061 40092 52002 70281 82500=
32165 /1394 80806 11040 21055 39981 40042 56010 77572 8872/ 333  
91110=
32215 /1523 43009 11045 21072 39932 49961 57014 78583 84900 333  
91017 91117=
32389 /1496 82903 11152 21172 30005 40043 57005 78682 889//=
32411 32998 80702 11119 21154 39978 49985 58004 86071=
32583 /1594 83309 11063 21067 39907 49937 57022 77373 8802/   333
92983=
32618 32598 81401 11002 21035 39985 40007 57023 885//=
####018000115####
SINR20 DRRN 071800 RRA
AAXX 07184
61085 32960 20000 10290 20074 39/// 40/// 80001
  333 10400 5//// 82080=
####018000105####
SIBX20 EBBR 072100 RRA
AAXX 07211
06447 46/// /2603 10007 21014 39855 49981 51022 333 91107 91205=
####018000105####
SIBX22 EBBR 072100 RRA
AAXX 07211
06431 46/// /2703 10024 20005 39963 49975 50016 333 91105 91203=
####018000596####
SISG20 GOOY 072100
AAXX 07214
61600 42960 63606 10185 20142 30148 40153 80002
  333 59008 86073=
61612 NIL=
61627 42957 50406 10253 20036 3//// 4//// 80002
  333 5//// 95073=
61630 42958 70206 10257 20094 30111 40131
  333 59003 87073=
61641 41940 23614 10176 20134 30116 40149 70611 80002
  333 59018 82073=
61666 NIL=
61679 42957 43612 10265 20052 30133 40141 80002
  333 59013 84073=
61687 NIL=
61695 42960 63402 10260 20099 30098 40125 85082
  333 59010 85363=
61697 42958 43206 10195 20144 30131 40146 84030
  333 58003 84363=
61698 NIL=
61699 NIL=
####018001478####
SIPR20 SPIM 072100
AAXX 07214
84370 31960 03005 10295 20233 30050 40078 70200
333   59002=
84455 31560 40209 10350 20245 39770 40112 70122 84200
333   560// 59010 84825=
84534 31560 7//// 10265 20209 39360 40068 70222 8212/
333   5699/ 59030 82830 87460=
84452 31960 01815 10300 20215 30055 40085 70102
333   59011=
84531 31962 41915 10247 20193 30069 40086 70300 82041
333   56099 59004 82465 82074=
84444 31662 80306 10160 20110 37525 70122 8464/
333   5699/ 58000 84635 85465=
84542 31665 83412 10170 20108 37361 7020/ 8454/
333   5699/ 58007 84640 86465=
84472 31560 83004 10175 20124 37391 70330 8375/
333   560// 58001 83733 88643=
84782 31960 52309 10251 20142 39613 40109 70300 8502/
333   5600/ 59002 85458=
84390 31968 02710 10270 20199 30001 40102 70200
333   58004=
84377 31560 42803 10294 20248 39979 40082 70222 84100
333   560// 58011 84820=
84425 31550 50509 10322 20240 39899 40107 70222 852//
333   569// 59018 85824=
84474 31560 1//// 10333 20261 39745 70200 81001
333   56009 59006 81070=
84720 31960 61917 10292 20173 39475 40138 70300 8603/
333   5609/ 59017 86360=
84501 31960 31612 10238 20197 30076 40116 70300 80001
333   56000 59011 83073=
84691 31460 52316 10270 20213 30092 40009 70100 82601
333   56000 59006 82710 83073=
84686 31765 43411 10207 20040 36853 70120 84500
333   569// 58009 84650=
84401 31660 32309 10330 20229 30038 0103 0200 835//
333   5600/ 59016 83640=
####018004780####
SIMX01 MXBA 072100
AAXX 07211
76040 31760 80602 10143 20121 30097 40111 57001 60287 84360 
92050 333   31/// 56060 59026 84650 84374 98660=
76122 32580 72307 10276 21105 38506 40079 57021 81148 92050 
333   30/// 56999 59017 81830 82358 84270=
76220 32880 82606 10220 21036 38131 40176 57028 8802/ 92045 
333   30/// 5605/ 59020 88457=
76225 32760 82004 10276 21045 38607 40081 57028 8803/ 92045 
333   30/// 56050 59009 88356=
76243 32974 61403 10270 20171 39910 40198 57012 86006 57012 
86006 92038 333   30/// 56300 58026 86070=
76256 32980 62204 10226 20116 30128 40142 57006 80006 92050 
333   30/// 56//5 59011 86270=
76305 32670 73004 10235 20118 30140 40147 57011 81420 92036 
333   30/// 56550 59015 81650 86450=
76323 32970 31503 10271 21071 38259 40168 57040 80008 92055 
333   30/// 56005 59012 83268=
76342 32962 03602 10276 20088 39496 40203 57024 92050 333   
30/// 59007=
76382 32980 21104 10296 20101 38898 40139 57040 82002 92037 
333   30/// 56005 59019 82070=
76390 31968 40506 10237 20024 38246 40145 57017 70544 80004 
92035 333   30/// 56005 59010 84070=
76393 31630 71204 10257 20130 39605 40182 57029 70444 81504 
92055 333   30/// 56305 59008 81640 86070=
76402 31960 43202 10250 20142 30119 40179 57019 70544 83230 
92040 333   30/// 56650 59014 83833=
76405 32980 01801 10292 20158 30128 40150 57028 92050 333   
30/// 59012=
76423 32984 11603 10287 00263 38151 40095 57031 80004 92040 
333   30/// 56009 59022 81067=
76458 32970 01603 10262 20186 30152 40157 57014 92040 333   
30/// 58008=
76491 32960 31108 10274 20136 39810 40199 57021 80004 92045 
333   30/// 56009 59010 83075=
76525 32980 22005 10187 21113 37484 40114 57019 80008 92040 
333   30/// 56//5 59006 82080=
76556 32970 001804 10274 20227 39131 40151 57017 92035 333  
 30/// 58004=
76577 32570 50000 10240 20056 38049 40170 57024 85003 92040 
333   30/// 56005 59008 85081=
SIMX01 MXBA 072100 
AAXX 07211
76581 32970 10101 10230 20122 39084 40199 57018 81001 92050 
333   30/// 56005 59007 81171=
76593 32470 10507 10240 20196 30230 40232 56029 81200 92050 
333   30/// 56100 59019 81841 91012 91505=
76612 32862 42502 10260 21061 38474 40153 57033 82031 92055 
333   30/// 56022 59012 82358 82070=
76625 32950 50904 10254 21125 38150 40155 57020 80004 92030 
333   30/// 56002 59007 85068=
76634 32970 60505 10208 20082 37857 40199 57027 80006 92050 
333   30/// 56//5 59020 86077=
76644 32960 10903 10288 20111 30213 40225 57019 81100 92045 
333   30/// 561// 59028 81820 91007 91509=
76654 31956 02303 10306 20225 30141 40145 57041 70544 92050 
333   30/// 59001=
76665 31968 23602 10272 20080 38117 40143 57017 70100 92055 
333   30/// 56040 59014=
76680 31958 43202 10238 21005 37749 40118 57035 70544 84001 
92045 333   30/// 56005 59010 84070=
76683 32970 11501 10250 20111 37814 40137 57025 81001 92045 
333   30/// 56005 59010 81080=
76687 31566 40701 10190 20111 38718 40221 57020 70311 845// 
92045 333   30/// 563// 59011 84621=
76692 32565 41104 10250 20186 30201 40220 57028 8113/ 92045 
333   30/// 5631/ 59020 81828 83356=
76695 32960 00803 10298 20114 30202 40208 58034 92045 333   
30/// 59018 91006 91512=
76737 31480 51104 10190 20101 38815 40220 57020 70300 85400 
92040 333   30/// 56200 59008 82817 91108 91514=
76750 32560 20603 10290 20141 30220 40230 57016 82100 92050 
333   30/// 56800 59018 82820=
76762 31905 03603 10302 20160 38756 40073 56040 70500 92040 
333   30/// 59019=
76775 31970 02701 10266 21012 38404 40156 57038 70544 92045 
333   30/// 59005=
76805 32570 12503 10310 20239 30127 40132 57029 81100 92100 
333   30/// 566// 59003 81830=
76843 32965 00000 10266 20140 39517 40174 57025 92050 333   
30/// 59002=
76845 32960 01803 10196 20100 37937 40169 57016 92046 333   
30/// 59015=
SIMX01 MXBA 072100 
AAXX 07211
76848 32570 30204 10143 20083 38406 40158 55018 83100 92055 
333   30/// 56100 59002 83825=
76855 32980 02103 10300 20191 30081 40131 57017 92035 333   
30/// 58006 92002=
76903 31982 02207 10331 20192 30009 40143 57027 70000 92040 
333   30/// 59008=
76253 32882 30902 10208 20146 30054 40144 57014 83030 92050 
333   30/// 56060 59024 83457 92002=
76311 32580 22202 10325 20090 39857 40132 57025 82500 92045 
333   30/// 56500 59011 82625=
76548 32574 61207 10254 20170 30211 40242 57023 82106 92055 
333   30/// 56305 59008 82821=
76640 31458 31403 10244 20202 30209 40221 57027 70100 822/5 
92045 333   30/// 563/6 59017 82817=
76647 32565 40902 10277 20155 30204 40234 57030 84200 92045 
333   30/// 56200 59020 84831=
76675 31575 33201 10252 21072 37390 40157 57026 70544 80004 
92050 333   30/// 56//9 59002 98475=
76741 31472 33402 10238 20184 30195 40214 57026 70544 83200 
92035 333   30/// 561// 59010 83814=####018000095####
SIRA26 RUHB 072100 RRA
AAXX 07211
25744 32699 80902 11365 21400 30204 40265 52006 885//=
####018000095####
SMRA16 RUHB 071800 RRB
AAXX 07181
25744 42698 60000 11375 21411 30198 40258 52011 86500=
####018001728####
SIRS20 RUMS 072100
AAXX 07211
26997 41/07 91802 10009 20009 39871 40092 53007 74544=
27595 32997 81501 11187 21265 30042 40204 53010 88050=
27612 413// 81301 11037 21052 39906 40103 58004 71022 887//=
27707 41/05 92501 10005 20005 39798 40093 53005 74544=
27719 41296 81701 10012 20007 39859 40110 54000 71022 886// 333  
88705=
27786 42997 71401 11188 21237 30023 40197 58001 8703/=
27857 42497 81602 11025 21038 39981 40147 52003 8802/ 333 88514=
27906 41/08 91803 10008 20008 39864 40107 52002 74364=
27928 41218 81902 10007 21001 39917 40125 58001 71022 886//
333 88703=
27947 42497 71704 11007 21020 39985 40147 52007 875// 333
87612=
27962 41495 81802 11062 21089 40167 53001 77172 885// 333 88610=
28506 42997 40000 11216 21256 30079 40205 52005 80006=
28704 42998 80202 11224 21272 30096 40202 52005 80007=
28711 42397 20000 11216 21234 39792 40204 52006 82600=
28807 42997 03302 11210 21259 30146 40202 52010=
28995 NIL=
34009 41/92 92202 10008 20008 39816 40124 52007 75154   333 96045=
34110 41595 81402 10010 20005 39849 40129 52002 72842 886//   333
88708=
34123 42397 81802 10002 21012 39956 40142 52004 886//   333
88710=
34152 41258 81802 11030 21040 39981 40184 52012 71022 886//   333
88705=
34163 42998 60601 11104 21117 40189 52008 86030=
34172 42960 61802 11111 21131 39986 40191 52007 84031=
34186 41330 80101 11179 21205 30052 40202 52006 71022 886//   333
88708=
34247 41857 81601 11001 21004 30048 40164 52007 71022 8802/=
34336 42497 81701 10009 21002 30058 40163 52001 8632/=
34391 42997 03201 11180 21214 30163 40197 52013=
35011 42984 22701 11148 21168 40185 52013 82050=
35121 42998 81103 11110 21141 30025 40179 52021 8807/=
####018000102####
SICN01 CWAO 072100 RRA
AAXX 07214
71107 36/// /2038 10062 20060 39956 40068 57033 333 60001=

####018001314####
SINT50 KAWN 072100
AAXX 07214
04005 42489 50906 11009 21013 40044 57003 85500 555 3/206=
AAXX 07213
04013 42689 80918 11023 21032 40014 57007 81520 555 3//18=
AAXX 07214
04018 42584 51120 10011 21022 49984 57008 70272 83878 555 3//23
 81825 83650 85266=
04030 42689 51013 10002 21048 49998 57003 81531 555 3//14 81634
 83350=
04048 41560 71135 10020 21002 49985 57007 78388 878// 555 3/537=
04063 42888 11402 11114 21139 40055 57001 81500 555 3//04=
04077 42965 01410 11047 21079 40070 57011 555 3/415=
04082 42686 83404 11022 21062 40063 57011 8254/ 555 3//08 82633
 86456=
04097 42589 79900 11028 21048 40079 57007 87200 555 3/406=
04203 46/// /2720 11158 21162 39919 49933 52004=
04220 45/83 /1905 11038 21112 39846 49897 52025=
04231 42789 10610 11018 21144 39831 49903 52019 815// 333 81850
 91128=
04250 47157 82010 11018 21020 39784 49888 52026 76787 333 83/02
 87/04 88/06 91129 91221=
04260 45573 40109 11008 21028 39838 49882 52005 333 84/26=
04270 45/83 /2003 10018 21125 39786 49823 52005=
04272 26/// ///// 39759 52004 333 6///7=
04320 45/66 /0000 11296 21330 30100 40117 57004=
04360 266// 70419 10011 21040 39887 49956 52008 333 69967 81/34
 85/50 87/61 91034=
04390 27680 72803 11020 21023 39710 49802 57022 74187 333 69917
 85/35 87/72=
####018001314####
SINT04 KAWN 072100
AAXX 07214
04005 42489 50906 11009 21013 40044 57003 85500 555 3/206=
AAXX 07213
04013 42689 80918 11023 21032 40014 57007 81520 555 3//18=
AAXX 07214
04018 42584 51120 10011 21022 49984 57008 70272 83878 555 3//23
 81825 83650 85266=
04030 42689 51013 10002 21048 49998 57003 81531 555 3//14 81634
 83350=
04048 41560 71135 10020 21002 49985 57007 78388 878// 555 3/537=
04063 42888 11402 11114 21139 40055 57001 81500 555 3//04=
04077 42965 01410 11047 21079 40070 57011 555 3/415=
04082 42686 83404 11022 21062 40063 57011 8254/ 555 3//08 82633
 86456=
04097 42589 79900 11028 21048 40079 57007 87200 555 3/406=
04203 46/// /2720 11158 21162 39919 49933 52004=
04220 45/83 /1905 11038 21112 39846 49897 52025=
04231 42789 10610 11018 21144 39831 49903 52019 815// 333 81850
 91128=
04250 47157 82010 11018 21020 39784 49888 52026 76787 333 83/02
 87/04 88/06 91129 91221=
04260 45573 40109 11008 21028 39838 49882 52005 333 84/26=
04270 45/83 /2003 10018 21125 39786 49823 52005=
04272 26/// ///// 39759 52004 333 6///7=
04320 45/66 /0000 11296 21330 30100 40117 57004=
04360 266// 70419 10011 21040 39887 49956 52008 333 69967 81/34
 85/50 87/61 91034=
04390 27680 72803 11020 21023 39710 49802 57022 74187 333 69917
 85/35 87/72=
####018001479####
SIRS21 RUMS 072100
AAXX 07211
20107 42997 71101 11177 21227 30101 40205 57003 80004   333 91002=
22113 42965 31904 11263 21287 30063 40134 57004 81041   333 91005
93502=
22217 41957 83101 11204 21229 30087 40122 57003 77172 8802/   333
91001=
22235 42983 80000 11307 21336 39941 40163 58001 80007=
22349 41462 70806 11195 21228 30131 40144 52003 78582 87900   333
91007=
22408 41250 80802 11180 21206 39922 40083 57006 77172 8872/
333   88705=
22602 41257 80902 11148 21175 39820 40058 57004 77072 8872/
333   88706=
22721 41497 81401 11146 21166 39966 40073 57007 77172
8577/ 333 85710=
22802 41346 80902 11077 21087 30016 40040 54000 71022
886// 333 86707 =
22820 41376 80704 11086 21101 39913 40056 57004 77172
885// 333 88609=
26059 41396 81203 10005 21001 39966 49990 57009 71042 886//=
26063 41396 81402 10004 21007 30006 40014 58003 886//=
26094 42575 81401 11030 21040 39962 40040 54000 885// 333 88626=
26167 41259  81903 10002 21001 39900 40013 57003 71022 886// 333 88704  =
26258 42598 81803 10014 20000 49991 57001 886//=
26298 41496 81003 11029 21039 39827 40061 57004 71022 886//=
26359 42366 81803 10013 20005 40006 54000 889// 333 87708=
26702 41596 81102 10065 20039 39872 49898 57007 71022 885// 333 91004
91105=
26781 41/93 91605 10007 20007 39767 40061 54000 74554=
27208 41496 81402 11042 21054 39898 40078 54000 71072 886//=
27402 42297 81302 11036 21047 39903 40087 54000 886// 333   88706=
####018000731####
SIRS22 RUMS 072100
AAXX 07211
22127 42998 60000 11300 21317 39919 40147 57002 80001   333 91001=
22324 41580 80502 11207 21219 30075 40129 57003 78582 86931   333
91004=
22621 42482 70801 11177 21196 39929 40080 57005
84530=
22831 41497 80802 11108 21128 30013 40076 57003
70282 889// 333 88910 =
22892 41396 81502 11018 21026 39999 40015 58006 71022 886// 333 88709=
26275 42397 80000 10009 20001 39997 40028 57006
886// 333 88709=
26389 41396 81802 11006 21012 39783 40049 57005 71022 886//=
26499 41296 81503 11016 21024 39843 40075 57006 71022 886// 333  
88706=
26695 41293 81903 10006 20003 39769 40079 53003 74442 886// 333  
88703=
26882 41/08 91603 10008 20008 39797 40074 54000 74342=
####018000089####
SNPS40 AMMC 072000 RRG
AAXX 07204
91689 46/// /9901 10270 40150 22200 00288=


####018000616####
SIIN20 DEMS 072100
AAXX 07214
42027 NIL=
42071 NIL=
42101 32996 03203 10110 20081 40177 333 59002=
42111 NIL=
42131 NIL=
42165 NIL=
42182 31994 00000 10118 20090 40165 71000 333 59007 =
42189 31995 00000 10144 20110 40153 70500 333 58003=
42260 NIL=
42328 32996 03601 10122 20008 40179 333 59016=
42339 31995 03603 10174 20032 40163 70500 333 59016=
42348 31996 01104 10126 20086 40175 70500 333 59003=
42361 NIL=
42369 31995 02702 10142 20096 40163 71000 333 58015=
42379 31995 02701 10166 20115 40151 70500 333 58012=
42452 32996 00000 10170 20107 40163 333 59005=
42475 NIL=
####018000105####
SINR20 DRRN 072100
AAXX 07214
61085 42965 20806 10390 20014 39/// 40/// 80001
  333 5//// 82080=
####018000729####
SIRS22 RUMS 072100
AAXX 07211
22127 42998 60000 11300 21317 39919 40147 57002 80001   333 91001=
22324 41580 80502 11207 21219 30075 40129 57003 78582 86931   333
91004=
22621 42482 70801 11177 21196 39929 40080 57005
84530=
22831 41497 80802 11108 21128 30013 40076 57003
70282 889// 333 88910 =
22892 41396 81502 11018 21026 39999 40015 58006 71022 886// 333
88709=
26275 42397 80000 10009 20001 39997 40028 57006
886// 333 88709=
26389 41396 81802 11006 21012 39783 40049 57005 71022 886//=
26499 41296 81503 11016 21024 39843 40075 57006 71022 886// 333
88706=
26695 41293 81903 10006 20003 39769 40079 53003 74442 886// 333
88703=
26882 41/08 91603 10008 20008 39797 40074 54000 74342=
####018001728####
SIRS20 RUMS 072100
AAXX 07211
26997 41/07 91802 10009 20009 39871 40092 53007 74544=
27595 32997 81501 11187 21265 30042 40204 53010 88050=
27612 413// 81301 11037 21052 39906 40103 58004 71022 887//=
27707 41/05 92501 10005 20005 39798 40093 53005 74544=
27719 41296 81701 10012 20007 39859 40110 54000 71022 886// 333
88705=
27786 42997 71401 11188 21237 30023 40197 58001 8703/=
27857 42497 81602 11025 21038 39981 40147 52003 8802/ 333 88514=
27906 41/08 91803 10008 20008 39864 40107 52002 74364=
27928 41218 81902 10007 21001 39917 40125 58001 71022 886//
333 88703=
27947 42497 71704 11007 21020 39985 40147 52007 875// 333
87612=
27962 41495 81802 11062 21089 40167 53001 77172 885// 333 88610=
28506 42997 40000 11216 21256 30079 40205 52005 80006=
28704 42998 80202 11224 21272 30096 40202 52005 80007=
28711 42397 20000 11216 21234 39792 40204 52006 82600=
28807 42997 03302 11210 21259 30146 40202 52010=
28995 NIL=
34009 41/92 92202 10008 20008 39816 40124 52007 75154   333 96045=
34110 41595 81402 10010 20005 39849 40129 52002 72842 886//   333
88708=
34123 42397 81802 10002 21012 39956 40142 52004 886//   333
88710=
34152 41258 81802 11030 21040 39981 40184 52012 71022 886//   333
88705=
34163 42998 60601 11104 21117 40189 52008 86030=
34172 42960 61802 11111 21131 39986 40191 52007 84031=
34186 41330 80101 11179 21205 30052 40202 52006 71022 886//   333
88708=
34247 41857 81601 11001 21004 30048 40164 52007 71022 8802/=
34336 42497 81701 10009 21002 30058 40163 52001 8632/=
34391 42997 03201 11180 21214 30163 40197 52013=
35011 42984 22701 11148 21168 40185 52013 82050=
35121 42998 81103 11110 21141 30025 40179 52021 8807/=
####018001481####
SIRS21 RUMS 072100
AAXX 07211
20107 42997 71101 11177 21227 30101 40205 57003 80004   333 91002=
22113 42965 31904 11263 21287 30063 40134 57004 81041   333 91005
93502=
22217 41957 83101 11204 21229 30087 40122 57003 77172 8802/   333
91001=
22235 42983 80000 11307 21336 39941 40163 58001 80007=
22349 41462 70806 11195 21228 30131 40144 52003 78582 87900   333
91007=
22408 41250 80802 11180 21206 39922 40083 57006 77172 8872/
333   88705=
22602 41257 80902 11148 21175 39820 40058 57004 77072 8872/
333   88706=
22721 41497 81401 11146 21166 39966 40073 57007 77172
8577/ 333 85710=
22802 41346 80902 11077 21087 30016 40040 54000 71022
886// 333 86707 =
22820 41376 80704 11086 21101 39913 40056 57004 77172
885// 333 88609=
26059 41396 81203 10005 21001 39966 49990 57009 71042 886//=
26063 41396 81402 10004 21007 30006 40014 58003 886//=
26094 42575 81401 11030 21040 39962 40040 54000 885// 333 88626=
26167 41259  81903 10002 21001 39900 40013 57003 71022 886// 333
88704  =
26258 42598 81803 10014 20000 49991 57001 886//=
26298 41496 81003 11029 21039 39827 40061 57004 71022 886//=
26359 42366 81803 10013 20005 40006 54000 889// 333 87708=
26702 41596 81102 10065 20039 39872 49898 57007 71022 885// 333 91004
91105=
26781 41/93 91605 10007 20007 39767 40061 54000 74554=
27208 41496 81402 11042 21054 39898 40078 54000 71072 886//=
27402 42297 81302 11036 21047 39903 40087 54000 886// 333   88706=
####018000158####
SIRA25 RUHB 072100 RRA
AAXX 07211
21432 42970 82902 11332 21362 30284 40306 57010 80001=
21824 41998 80000 11395 21408 30277 40287 54000 77872 80007=
####018000683####
SIRA30 RUNW 072100
AAXX 07211
28216 42898 70201 11247 21265 39913 40226 54000 87010=
28428 42998 60502 11212 21252 39998 40200 52004 80001=
28451 42996 03102 11313 21336 30088 40270 52006=
28541 42984 00000 11287 21312 39713 40269 52006=
28655 32998 00202 11273 21298 30004 40253 52009=
28756 42997 00502 11246 21292 30062 40225 52007=
29557 41997 80000 11129 21142 39943 40223 57005 77187 8802/=
29625 42598 80503 11192 21233 30031 40223 57009 885// 
 333 88626=
29813 41997 80603 11138 21151 39975 40189 57015 77172 8802/=
29822 41596 83401 11104 21104 30027 40197 57011 77172 8802/ 
 333 88520=
29915 42999 81803 11074 21087 30024 40188 57014 80005=
####018000119####
SIRE15 FMEE 072100
AAXX 07214
61998 26/// /3214 10065 20040 40051
  333 59071 60007 90710 91123
  555 60005=
####018000346####
SIIN21 DEMS 072100
AAXX 07214
42309 NIL=
42314 NIL=
42398 NIL=
42410 NIL=
42415 NIL=
42492 NIL=
42587 NIL=
42591 NIL=
42623 NIL=
42701 NIL=
42706 NIL=
42724 NIL=
42798 NIL=
42809 31995 00000 10174 20143 40146 70500
        333 58016=
42886 NIL=
42895 NIL=
42971 NIL=
42977 NIL=
43333 NIL=
43368 NIL=
####018000099####
SIRE15 FMEE 072100
AAXX 07214
61997 26/// /2729 10070 20050 49986
  333 59182 69987 91141=
####018000524####
SIIN22 DEMS 072100
AAXX 07214
42559 32996 03601 10158 20108 40161 333 58011=
42571 32996 00000 10158 20105 40153 333 58007=
42667 32996 00000 10150 20103 39554 40157 333 59001=
42675 31996 00000 10160 20081 40163 70500 333 58008=
42754 32996 00508 10164 20043 39501 40149 333 59007=
42779 32996 00000 10160 20063 39445 40158 333 58005=
42867 31995 00000 10188 20089 40143 70500 333 58006=
42874 32996 00502 10234 20094 40129 333 58005=
42933 NIL=
43041 32996 00000 10198 20119 39516 40135 333 58005=
####018001834####
SIRA24 RUHB 072100
AAXX 07211
21802 42999 03602 11457 21488 30265 40294 52007=
24125 41998 80000 11472 21494 39944 40279 53002 77172 80007=
24136 41999 80000 11437 21468 30152 40270 57003 70272 80005=
24143 41998 80501 11406 21438 30222 40277 53007 77172 80007=
24266 41997 70000 11480 21505 30101 40313 53009 77177 80006=
24329 42998 80000 11481 21499 39932 40293 58004 80007=
24343 41997 80000 11447 21476 30136 40278 54000 77172 80007=
24639 42998 20102 11433 21468 30077 40257 57004 80001=
24641 41998 00801 11476 21517 30105 40276 54000 71200=
24652 42997 00901 11477 21505 30134 40282 57006=
24656 42999 00000 11507 21535 30166 40291 58004=
24661 NIL=
24671 42999 03303 11477 21499 39723 40332 51002=
24688 41999 20000 11509 21524 39274 40383 52006 77600 80001=
24724 41995 80503 11400 21433 39632 40244 53003 77172 8802/=
24738 42998 83601 11410 21438 30018 40222 57003 80001=
24768 42997 00000 11492 21526 30010 40293 58004=
24923 41998 83401 11370 21404 39838 40188 53007 77172 82037=
24944 42998 60602 11403 21420 39866 40204 57013 80001=
24951 42999 00601 11430 21461  30059 40256 57010=
24959 41992 81501 11422 21455 30125 40277 57003 74842 80001=
24962 41996 20000 11483 21505 30062 40287 57006 71000 80001 =
24966 42999 00000 11473 21494 30017 40277 58002=
24967 42999 00000 11460 21501 30038 40301 57003=
25206 41997 00000 11444 21469 30282 40315 53006 70400=
25400 41994 00000 11484 21505 30251 40319 53006 71000=
30054 42998 83404 11298 21321 39895 40162 52002 80007=
30089 42999 70000 11416 21443 39944 40204 57031 80001=
30393 42999 80000 11274 21285 39069 40207 57015 82031=
30493 42999 80000 11316 21345 39074 40236 57010 80007=
31004 42999 60000 11315 21345 39281 40208 57019 80001=
31137 41998 80000 11329 21357 39094 40249 52002 77172 80007=
