Savanna, Tri-Township Airport, IL, United States (KSFY) 42-02-45N 090-06-28W
Feb 08, 2009 - 04:05 PM EST / 2009.02.08 2105 UTC
Wind: from the S (190 degrees) at 3 MPH (3 KT):0
Visibility: 5 mile(s):0
Sky conditions: overcast
Weather: haze
Temperature: 33.6 F (0.9 C)
Dew Point: 27.3 F (-2.6 C)
Relative Humidity: 77%
Pressure (altimeter): 30.33 in. Hg (1027 hPa)
ob: KSFY 082105Z AUTO 19003KT 5SM HZ OVC012 01/M03 A3033 RMK AO2 T00091026
cycle: 21
