000
SAUS70 KWBC 060916
MTRDVP
METAR KDVP 060915Z AUTO 19005KT 10SM CLR M03/M05 A2989 RMK AO2
T10261050

000
SAUS70 KWBC 060900 RRC
MTRDVP
METAR KDVP 060855Z AUTO 21005KT 10SM CLR M02/M05 A2992 RMK AO2
T10231051

000
SAUS70 KWBC 060836 RRA
MTRDVP
METAR KDVP 060835Z AUTO 19005KT 10SM CLR M02/M05 A2992 RMK AO2
T10211050

000
SAUS70 KWBC 060816 RRA
MTRDVP
METAR KDVP 060815Z AUTO 19007KT 10SM CLR M02/M05 A2993 RMK AO2
T10201047

000
SAUS70 KWBC 060800 RRD
MTRDVP
METAR KDVP 060755Z AUTO 19009KT 10SM CLR M02/M04 A2993 RMK AO2
T10161045

000
SAUS70 KWBC 060738 RRA
MTRDVP
METAR KDVP 060735Z AUTO 18007KT 10SM CLR M02/M05 A2994 RMK AO2
T10231047

000
SAUS70 KWBC 060716 RRA
MTRDVP
METAR KDVP 060715Z AUTO 17006KT 10SM CLR M03/M05 A2994 RMK AO2
T10271050

000
SAUS70 KWBC 060700
MTRDVP
METAR KDVP 060656Z AUTO 18007KT 10SM CLR M02/M05 A2995 RMK AO2
T10251048

000
SAUS70 KWBC 060638
MTRDVP
METAR KDVP 060635Z AUTO 19009KT 10SM CLR M03/M05 A2995 RMK AO2
T10271050

000
SAUS70 KWBC 060616
MTRDVP
METAR KDVP 060615Z AUTO 19006KT 10SM CLR M02/M05 A2997 RMK AO2
T10241050

000
SAUS70 KWBC 060600 RRC
MTRDVP
METAR KDVP 060555Z AUTO 20008KT 10SM CLR M03/M05 A2997 RMK AO2 T10301051
10024 21033 400511071

000
SAUS70 KWBC 060538
MTRDVP
METAR KDVP 060535Z AUTO 16006KT 10SM CLR M03/M05 A2997 RMK AO2
T10281054

000
SAUS70 KWBC 060516 RRA
MTRDVP
METAR KDVP 060515Z AUTO 20009KT 10SM CLR M03/M05 A2997 RMK AO2
T10261046

000
SAUS70 KWBC 060500 RRD
MTRDVP
METAR KDVP 060455Z AUTO 18005KT 10SM CLR M03/M05 A2997 RMK AO2
T10281050

000
SAUS70 KWBC 060436 RRA
MTRDVP
METAR KDVP 060435Z AUTO 19008KT 10SM CLR M02/M04 A2998 RMK AO2
T10201042

000
SAUS70 KWBC 060418 RRA
MTRDVP
METAR KDVP 060416Z AUTO 19006KT 10SM CLR M02/M04 A2998 RMK AO2
T10251043

000
SAUS70 KWBC 060400 RRA
MTRDVP
METAR KDVP 060355Z AUTO 18007KT 10SM CLR M02/M04 A2999 RMK AO2
T10251043

000
SAUS70 KWBC 060338
MTRDVP
METAR KDVP 060335Z AUTO 19008KT 10SM CLR M03/M04 A3000 RMK AO2
T10261043

000
SAUS70 KWBC 060316
MTRDVP
METAR KDVP 060315Z AUTO 18005KT 10SM CLR M02/M04 A3000 RMK AO2
T10181036

000
SAUS70 KWBC 060300 RRO
MTRDVP
METAR KDVP 060255Z AUTO 18006KT 7SM CLR M03/M04 A3000 RMK AO2
T10291040

000
SAUS70 KWBC 060238
MTRDVP
METAR KDVP 060235Z AUTO 18004KT 7SM CLR M02/M03 A3001 RMK AO2
T10181031

000
SAUS70 KWBC 060216 RRA
MTRDVP
METAR KDVP 060215Z AUTO 19003KT 7SM CLR M02/M04 A3000 RMK AO2
T10221036

000
SAUS70 KWBC 060200
MTRDVP
METAR KDVP 060155Z AUTO 17004KT 10SM CLR M01/M03 A3000 RMK AO2
T10151028

000
SAUS70 KWBC 060136
MTRDVP
METAR KDVP 060135Z AUTO 14003KT 10SM CLR M01/M03 A3000 RMK AO2
T10091029

000
SAUS70 KWBC 060116
MTRDVP
METAR KDVP 060115Z AUTO 15004KT 10SM CLR 00/M03 A3001 RMK AO2
T00001026

000
SAUS70 KWBC 060100 RRH
MTRDVP
METAR KDVP 060055Z AUTO 15004KT 10SM CLR 00/M02 A3001 RMK AO2
T00011025

000
SAUS70 KWBC 060036 RRA
MTRDVP
METAR KDVP 060035Z AUTO 13004KT 10SM CLR 01/M02 A3002 RMK AO2
T00101022

000
SAUS70 KWBC 060018 RRA
MTRDVP
METAR KDVP 060015Z AUTO 00000KT 10SM CLR 01/M02 A3002 RMK AO2
T00141020

000
SAUS70 KWBC 060000 RRR
MTRDVP
METAR KDVP 052355Z AUTO 00000KT 10SM CLR 03/M02 A3001 RMK AO2 T00261024
10051 20024

000
SAUS70 KWBC 052336 RRA
MTRDVP
METAR KDVP 052335Z AUTO 00000KT 10SM CLR 03/M02 A3001 RMK AO2
T00291018

000
SAUS70 KWBC 052316
MTRDVP
METAR KDVP 052315Z AUTO 00000KT 10SM CLR 04/M02 A3000 RMK AO2
T00401025

000
SAUS70 KWBC 052300 RRN
MTRDVP
METAR KDVP 052255Z AUTO 16003KT 10SM CLR 04/M02 A3000 RMK AO2
T00411016

000
SAUS70 KWBC 052236
MTRDVP
METAR KDVP 052235Z AUTO 00000KT 10SM CLR 05/M03 A3000 RMK AO2
T00461026

000
SAUS70 KWBC 052200 RRJ
MTRDVP
METAR KDVP 052215Z AUTO 00000KT 10SM CLR 05/M03 A3000 RMK AO2
T00461027

000
SAUS70 KWBC 052200 RRN
MTRDVP
METAR KDVP 052155Z AUTO 00000KT 10SM CLR 05/M03 A3000 RMK AO2
T00471030

000
SAUS70 KWBC 052136
MTRDVP
METAR KDVP 052135Z AUTO 00000KT 10SM CLR 05/M03 A3000 RMK AO2
T00481033

000
SAUS70 KWBC 052118 RRA
MTRDVP
METAR KDVP 052115Z AUTO 00000KT 10SM CLR 05/M03 A2999 RMK AO2
T00451035

000
SAUS70 KWBC 052100 RRF
MTRDVP
METAR KDVP 052055Z AUTO 00000KT 10SM CLR 05/M03 A2999 RMK AO2
T00451034

000
SAUS70 KWBC 052036 RRA
MTRDVP
METAR KDVP 052035Z AUTO 00000KT 10SM CLR 04/M04 A2998 RMK AO2
T00421037

000
SAUS70 KWBC 052018 RRB
MTRDVP
METAR KDVP 052015Z AUTO 36004KT 10SM CLR 04/M03 A2998 RMK AO2
T00421035

000
SAUS70 KWBC 052000 RRJ
MTRDVP
METAR KDVP 051955Z AUTO 34004KT 10SM CLR 04/M04 A2998 RMK AO2
T00401037

000
SAUS70 KWBC 051938
MTRDVP
METAR KDVP 051935Z AUTO 34005KT 10SM CLR 04/M04 A2998 RMK AO2
T00361039

000
SAUS70 KWBC 051916
MTRDVP
METAR KDVP 051915Z AUTO 35005KT 10SM CLR 04/M04 A2998 RMK AO2
T00361040

000
SAUS70 KWBC 051900 RRK
MTRDVP
METAR KDVP 051855Z AUTO 32006KT 10SM CLR 03/M04 A2998 RMK AO2
T00341041

000
SAUS70 KWBC 051836 RRA
MTRDVP
METAR KDVP 051835Z AUTO 32006KT 10SM CLR 03/M04 A2999 RMK AO2
T00321045

000
SAUS70 KWBC 051816 RRA
MTRDVP
METAR KDVP 051815Z AUTO 32007KT 10SM CLR 03/M04 A2998 RMK AO2
T00261045

000
SAUS70 KWBC 051800 RRH
MTRDVP
METAR KDVP 051755Z AUTO 31006KT 10SM CLR 02/M05 A2999 RMK AO2 T00211049
10021 21071

000
SAUS70 KWBC 051736 RRB
MTRDVP
METAR KDVP 051735Z AUTO 30005KT 10SM CLR 02/M05 A2999 RMK AO2
T00151052

000
SAUS70 KWBC 051716 RRA
MTRDVP
METAR KDVP 051715Z AUTO 28007KT 10SM CLR 01/M05 A2999 RMK AO2
T00101055

000
SAUS70 KWBC 051700 RRF
MTRDVP
METAR KDVP 051655Z AUTO 27008KT 10SM CLR 00/M06 A2999 RMK AO2
T00001062

000
SAUS70 KWBC 051638
MTRDVP
METAR KDVP 051635Z AUTO 28005KT 10SM CLR M01/M07 A2998 RMK AO2
T10091067

000
SAUS70 KWBC 051618
MTRDVP
METAR KDVP 051615Z AUTO 27004KT 10SM CLR M02/M07 A2998 RMK AO2
T10171072

000
SAUS70 KWBC 051600 RRM
MTRDVP
METAR KDVP 051555Z AUTO 27008KT 10SM CLR M02/M07 A2998 RMK AO2
T10201073

000
SAUS70 KWBC 051538 RRB
MTRDVP
METAR KDVP 051535Z AUTO 27006KT 10SM CLR M03/M08 A2998 RMK AO2
T10281076

000
SAUS70 KWBC 051500 RRJ
MTRDVP
METAR KDVP 051515Z AUTO 25006KT 10SM CLR M03/M08 A2998 RMK AO2
T10351081

000
SAUS70 KWBC 051500 RRP
MTRDVP
METAR KDVP 051455Z AUTO 25007KT 10SM CLR M04/M08 A2997 RMK AO2
T10421085

000
SAUS70 KWBC 051438
MTRDVP
METAR KDVP 051435Z AUTO 24007KT 10SM CLR M05/M09 A2997 RMK AO2
T10551091

000
SAUS70 KWBC 051400 RRI
MTRDVP
METAR KDVP 051415Z AUTO 23008KT 10SM CLR M06/M09 A2996 RMK AO2
T10581095

000
SAUS70 KWBC 051400 RRH
MTRDVP
METAR KDVP 051355Z AUTO 23009KT 10SM CLR M06/M10 A2996 RMK AO2
T10601096

000
SAUS70 KWBC 051336
MTRDVP
METAR KDVP 051335Z AUTO 22004KT 10SM CLR M07/M10 A2996 RMK AO2
T10671099

000
SAUS70 KWBC 051316 RRA
MTRDVP
METAR KDVP 051315Z AUTO 23006KT 10SM CLR M07/M10 A2996 RMK AO2
T10691102

000
SAUS70 KWBC 051300 RRF
MTRDVP
METAR KDVP 051255Z AUTO 22009KT 10SM CLR M07/M10 A2996 RMK AO2
T10691101

000
SAUS70 KWBC 051236 RRA
MTRDVP
METAR KDVP 051235Z AUTO 22008KT 10SM CLR M07/M10 A2996 RMK AO2
T10701102

000
SAUS70 KWBC 051216
MTRDVP
METAR KDVP 051215Z AUTO 22009KT 10SM CLR M07/M10 A2997 RMK AO2
T10671102

000
SAUS70 KWBC 051200 RRA
MTRDVP
METAR KDVP 051155Z AUTO 22012KT 10SM CLR M06/M10 A2997 RMK AO2 T10601100
11058 21070

000
SAUS70 KWBC 051138
MTRDVP
METAR KDVP 051136Z AUTO 34003KT 10SM CLR M06/M10 A2998 RMK AO2
T10621099

000
SAUS70 KWBC 051116 RRA
MTRDVP
METAR KDVP 051115Z AUTO 21020KT 10SM CLR M06/M10 A2993 RMK AO2
T10631100

000
SAUS70 KWBC 051100 RRC
MTRDVP
METAR KDVP 051055Z AUTO 20016KT 10SM CLR M06/M10 A2995 RMK AO2
T10621102

000
SAUS70 KWBC 051038
MTRDVP
METAR KDVP 051036Z AUTO 19010KT 10SM CLR M06/M10 A2996 RMK AO2
T10631105

000
SAUS70 KWBC 051018 RRC
MTRDVP
METAR KDVP 051015Z AUTO 16007KT 10SM CLR M06/M10 A2998 RMK AO2
T10651105

000
SAUS70 KWBC 051000 RRF
MTRDVP
METAR KDVP 050955Z AUTO 20014KT 10SM CLR M06/M11 A2997 RMK AO2
T10651106

000
SAUS70 KWBC 050938 RRA
MTRDVP
METAR KDVP 050935Z AUTO 20020G25KT 10SM CLR M06/M11 A2997 RMK AO2
T10651108

000
SAUS70 KWBC 050918 RRB
MTRDVP
METAR KDVP 050915Z AUTO 19018KT 10SM CLR M06/M11 A2997 RMK AO2
T10651110

000
SAUS70 KWBC 050900 RRB
MTRDVP
METAR KDVP 050856Z AUTO 20023KT 10SM CLR M07/M11 A2998 RMK AO2
T10661111

000
SAUS70 KWBC 050838 RRA
MTRDVP
METAR KDVP 050835Z AUTO 19017G23KT 10SM CLR M07/M11 A3000 RMK AO2
T10661112

000
SAUS70 KWBC 050818
MTRDVP
METAR KDVP 050815Z AUTO 18017G23KT 10SM CLR M07/M11 A3000 RMK AO2
T10661113

000
SAUS70 KWBC 050800 RRC
MTRDVP
METAR KDVP 050755Z AUTO 19020G28KT 10SM CLR M06/M11 A3000 RMK AO2
T10641114

000
SAUS70 KWBC 050738
MTRDVP
METAR KDVP 050735Z AUTO 20025G31KT 10SM CLR M06/M11 A3000 RMK AO2
T10651115

000
SAUS70 KWBC 050700 RRI
MTRDVP
METAR KDVP 050715Z AUTO 20026G29KT 10SM CLR M07/M12 A3001 RMK AO2
T10661117

000
SAUS70 KWBC 050700 RRA
MTRDVP
METAR KDVP 050656Z AUTO 19020G26KT 10SM CLR M07/M12 A3003 RMK AO2
T10681117

000
SAUS70 KWBC 050638
MTRDVP
METAR KDVP 050636Z AUTO 18018G23KT 10SM CLR M07/M12 A3006 RMK AO2
T10681117

000
SAUS70 KWBC 050618 RRC
MTRDVP
METAR KDVP 050616Z AUTO 18018G24KT 10SM CLR M07/M12 A3007 RMK AO2
T10701117

000
SAUS70 KWBC 050600
MTRDVP
METAR KDVP 050555Z AUTO 18017G22KT 10SM CLR M07/M12 A3009 RMK AO2
T10691118 11068 21090 410681211

000
SAUS70 KWBC 050536
MTRDVP
METAR KDVP 050535Z AUTO 17017G24KT 10SM CLR M07/M12 A3010 RMK AO2
T10691118

000
SAUS70 KWBC 050516 RRA
MTRDVP
METAR KDVP 050515Z AUTO 17016G21KT 10SM CLR M07/M12 A3010 RMK AO2
T10701120

000
SAUS70 KWBC 050500 RRA
MTRDVP
METAR KDVP 050455Z AUTO 18016G22KT 10SM CLR M07/M12 A3011 RMK AO2
T10711121

000
SAUS70 KWBC 050436 RRB
MTRDVP
METAR KDVP 050435Z AUTO 18015G21KT 10SM CLR M07/M12 A3012 RMK AO2
T10701122

000
SAUS70 KWBC 050418
MTRDVP
METAR KDVP 050416Z AUTO 17017G21KT 10SM CLR M07/M12 A3013 RMK AO2
T10701122

000
SAUS70 KWBC 050400 RRI
MTRDVP
METAR KDVP 050355Z AUTO 17015G21KT 10SM CLR M07/M12 A3014 RMK AO2
T10721121

000
SAUS70 KWBC 050336
MTRDVP
METAR KDVP 050335Z AUTO 18014G20KT 10SM CLR M07/M12 A3015 RMK AO2
T10751121

000
SAUS70 KWBC 050316
MTRDVP
METAR KDVP 050315Z AUTO 17014G21KT 10SM CLR M08/M12 A3016 RMK AO2
T10781122

000
SAUS70 KWBC 050300 RRF
MTRDVP
METAR KDVP 050255Z AUTO 17017KT 10SM CLR M08/M12 A3016 RMK AO2
T10781123

000
SAUS70 KWBC 050236
MTRDVP
METAR KDVP 050235Z AUTO 17017G21KT 10SM CLR M08/M12 A3017 RMK AO2
T10801124

000
SAUS70 KWBC 050216
MTRDVP
METAR KDVP 050215Z AUTO 17014KT 10SM CLR M08/M12 A3017 RMK AO2
T10851125

000
SAUS70 KWBC 050200 RRK
MTRDVP
METAR KDVP 050155Z AUTO 16017KT 10SM CLR M09/M12 A3019 RMK AO2
T10871125

000
SAUS70 KWBC 050138 RRC
MTRDVP
METAR KDVP 050135Z AUTO 16015KT 10SM CLR M09/M12 A3020 RMK AO2
T10881125

000
SAUS70 KWBC 050116 RRA
MTRDVP
METAR KDVP 050115Z AUTO 16013KT 10SM CLR M09/M13 A3022 RMK AO2
T10881126

000
SAUS70 KWBC 050100
MTRDVP
METAR KDVP 050055Z AUTO 16015KT 10SM CLR M09/M13 A3022 RMK AO2
T10891127

000
SAUS70 KWBC 050036
MTRDVP
METAR KDVP 050035Z AUTO 16013KT 10SM CLR M09/M13 A3024 RMK AO2
T10881130

000
SAUS70 KWBC 050018
MTRDVP
METAR KDVP 050015Z AUTO 16015KT 10SM CLR M09/M13 A3025 RMK AO2
T10861130

000
SAUS70 KWBC 050000 RRM
MTRDVP
METAR KDVP 042355Z AUTO 17013G18KT 10SM CLR M08/M13 A3026 RMK AO2
T10851131 11073 21101

000
SAUS70 KWBC 042338
MTRDVP
METAR KDVP 042335Z AUTO 16014KT 10SM CLR M08/M13 A3026 RMK AO2
T10831131

000
SAUS70 KWBC 042300 RRJ
MTRDVP
METAR KDVP 042315Z AUTO 17013KT 10SM CLR M08/M13 A3027 RMK AO2
T10801130

000
SAUS70 KWBC 042300 RRD
MTRDVP
METAR KDVP 042255Z AUTO 16015G21KT 10SM CLR M08/M13 A3027 RMK AO2
T10771135

000
SAUS70 KWBC 042238
MTRDVP
METAR KDVP 042235Z AUTO 16019KT 10SM CLR M07/M13 A3028 RMK AO2
T10751135

000
SAUS70 KWBC 042200 RRD
MTRDVP
METAR KDVP 042155Z AUTO 16016KT 10SM CLR M08/M13 A3028 RMK AO2
T10801135

000
SAUS70 KWBC 042136 RRB
MTRDVP
METAR KDVP 042135Z AUTO 15013KT 10SM CLR M08/M14 A3030 RMK AO2
T10771137

000
SAUS70 KWBC 042116
MTRDVP
METAR KDVP 042115Z AUTO 16016KT 10SM CLR M08/M14 A3031 RMK AO2
T10771139

000
SAUS70 KWBC 042100 RRL
MTRDVP
METAR KDVP 042055Z AUTO 16017KT 10SM CLR M08/M14 A3031 RMK AO2
T10801144

000
SAUS70 KWBC 042036 RRB
MTRDVP
METAR KDVP 042035Z AUTO 16016KT 10SM CLR M08/M14 A3032 RMK AO2
T10771143

000
SAUS70 KWBC 042016 RRA
MTRDVP
METAR KDVP 042015Z AUTO 17015KT 10SM CLR M08/M14 A3033 RMK AO2
T10761144

000
SAUS70 KWBC 042000 RRK
MTRDVP
METAR KDVP 041955Z AUTO 16015G18KT 10SM CLR M08/M15 A3034 RMK AO2
T10801152

000
SAUS70 KWBC 041938
MTRDVP
METAR KDVP 041935Z AUTO 17016G20KT 10SM CLR M08/M15 A3035 RMK AO2
T10821150

000
SAUS70 KWBC 041900 RRK
MTRDVP
METAR KDVP 041915Z AUTO 18012G17KT 10SM CLR M09/M16 A3036 RMK AO2
T10871158

000
SAUS70 KWBC 041900 RRD
MTRDVP
METAR KDVP 041855Z AUTO 16013KT 10SM CLR M09/M15 A3038 RMK AO2
T10871153

000
SAUS70 KWBC 041836
MTRDVP
METAR KDVP 041835Z AUTO 17015KT 10SM CLR M09/M16 A3039 RMK AO2
T10921159

000
SAUS70 KWBC 041816 RRB
MTRDVP
METAR KDVP 041815Z AUTO 18013G16KT 10SM CLR M09/M16 A3041 RMK AO2
T10941163

000
SAUS70 KWBC 041800
MTRDVP
METAR KDVP 041755Z AUTO 18011KT 10SM CLR M10/M16 A3042 RMK AO2 T11031164
11103 21211

000
SAUS70 KWBC 041738
MTRDVP
METAR KDVP 041735Z AUTO 17013KT 10SM CLR M11/M17 A3043 RMK AO2
T11111173

000
SAUS70 KWBC 041718
MTRDVP
METAR KDVP 041715Z AUTO 17012G16KT 10SM CLR M11/M17 A3044 RMK AO2
T11131170

000
SAUS70 KWBC 041700 RRC
MTRDVP
METAR KDVP 041655Z AUTO 17013KT 10SM CLR M12/M17 A3044 RMK AO2
T11171174

000
SAUS70 KWBC 041638 RRA
MTRDVP
METAR KDVP 041635Z AUTO 17012G15KT 10SM CLR M12/M18 A3044 RMK AO2
T11241179

000
SAUS70 KWBC 041616
MTRDVP
METAR KDVP 041615Z AUTO 18008KT 10SM CLR M13/M18 A3044 RMK AO2
T11311182

000
SAUS70 KWBC 041600 RRN
MTRDVP
METAR KDVP 041555Z AUTO 17012KT 10SM CLR M14/M19 A3045 RMK AO2
T11391186

000
SAUS70 KWBC 041538 RRB
MTRDVP
METAR KDVP 041535Z AUTO 17009KT 10SM CLR M15/M19 A3045 RMK AO2
T11471186

000
SAUS70 KWBC 041516
MTRDVP
METAR KDVP 041515Z AUTO 17009KT 10SM CLR M16/M19 A3045 RMK AO2
T11561193

000
SAUS70 KWBC 041500
MTRDVP
METAR KDVP 041455Z AUTO 17007KT 10SM CLR M17/M19 A3046 RMK AO2
T11661194

000
SAUS70 KWBC 041436
MTRDVP
METAR KDVP 041435Z AUTO 17006KT 10SM CLR M18/M20 A3045 RMK AO2
T11791204

000
SAUS70 KWBC 041416 RRA
MTRDVP
METAR KDVP 041415Z AUTO 16006KT 10SM CLR M19/M21 A3045 RMK AO2
T11871210

000
SAUS70 KWBC 041400
MTRDVP
METAR KDVP 041355Z AUTO 15005KT 10SM CLR M19/M21 A3045 RMK AO2
T11921215

000
SAUS70 KWBC 041338 RRA
MTRDVP
METAR KDVP 041335Z AUTO 16005KT 10SM CLR M20/M22 A3046 RMK AO2
T11961220

000
SAUS70 KWBC 041316 RRA
MTRDVP
METAR KDVP 041315Z AUTO 17005KT 10SM CLR M20/M22 A3046 RMK AO2
T11971220

000
SAUS70 KWBC 041300 RRK
MTRDVP
METAR KDVP 041255Z AUTO 18005KT 10SM CLR M20/M22 A3046 RMK AO2
T11981221

000
SAUS70 KWBC 041238 RRA
MTRDVP
METAR KDVP 041235Z AUTO 17005KT 10SM CLR M20/M22 A3046 RMK AO2
T12031225

000
SAUS70 KWBC 041216 RRB
MTRDVP
METAR KDVP 041215Z AUTO 16003KT 10SM CLR M21/M23 A3046 RMK AO2
T12081235

000
SAUS70 KWBC 041200 RRI
MTRDVP
METAR KDVP 041156Z AUTO 00000KT 10SM CLR M20/M23 A3047 RMK AO2 T12051230
11189 21210

000
SAUS70 KWBC 041138 RRC
MTRDVP
METAR KDVP 041135Z AUTO 00000KT 10SM CLR M20/M23 A3047 RMK AO2
T12011226

000
SAUS70 KWBC 041118 RRA
MTRDVP
METAR KDVP 041116Z AUTO 00000KT 10SM CLR M20/M23 A3046 RMK AO2
T12021226

000
SAUS70 KWBC 041100 RRN
MTRDVP
METAR KDVP 041055Z AUTO 00000KT 10SM CLR M20/M23 A3046 RMK AO2
T12051230

000
SAUS70 KWBC 041038
MTRDVP
METAR KDVP 041035Z AUTO 00000KT 10SM CLR M21/M23 A3046 RMK AO2
T12071232

000
SAUS70 KWBC 041016 RRA
MTRDVP
METAR KDVP 041015Z AUTO 00000KT 10SM CLR M20/M23 A3046 RMK AO2
T12031231

000
SAUS70 KWBC 041000 RRK
MTRDVP
METAR KDVP 040955Z AUTO 00000KT 10SM CLR M19/M22 A3047 RMK AO2
T11951221

000
SAUS70 KWBC 040938
MTRDVP
METAR KDVP 040936Z AUTO 00000KT 10SM CLR M20/M22 A3047 RMK AO2
T12001223

000
SAUS70 KWBC 040918
MTRDVP
METAR KDVP 040915Z AUTO 00000KT 10SM CLR M19/M22 A3047 RMK AO2
T11911218

000
SAUS70 KWBC 040900
MTRDVP
METAR KDVP 040856Z AUTO 00000KT 10SM CLR M19/M22 A3047 RMK AO2
T11931217

000
SAUS70 KWBC 040836 RRA
MTRDVP
METAR KDVP 040835Z AUTO 00000KT 10SM CLR M19/M21 A3046 RMK AO2
T11921215

000
SAUS70 KWBC 040816
MTRDVP
METAR KDVP 040815Z AUTO 00000KT 10SM CLR M20/M22 A3046 RMK AO2
T11961220

000
SAUS70 KWBC 040756
MTRDVP
METAR KDVP 040755Z AUTO 00000KT 10SM CLR M20/M22 A3046 RMK AO2
T11981223

000
SAUS70 KWBC 040738 RRB
MTRDVP
METAR KDVP 040735Z AUTO 00000KT 10SM CLR M20/M22 A3047 RMK AO2
T11971223

000
SAUS70 KWBC 040716
MTRDVP
METAR KDVP 040715Z AUTO 00000KT 10SM CLR M19/M22 A3046 RMK AO2
T11951218

000
SAUS70 KWBC 040700 RRB
MTRDVP
METAR KDVP 040655Z AUTO 30003KT 10SM CLR M19/M22 A3047 RMK AO2
T11951220

000
SAUS70 KWBC 040636 RRB
MTRDVP
METAR KDVP 040635Z AUTO 00000KT 10SM CLR M19/M22 A3046 RMK AO2
T11931217

000
SAUS70 KWBC 040616 RRB
MTRDVP
METAR KDVP 040615Z AUTO 31003KT 10SM CLR M19/M22 A3046 RMK AO2
T11911216

000
SAUS70 KWBC 040600 RRN
MTRDVP
METAR KDVP 040555Z AUTO 35003KT 10SM CLR M19/M21 A3046 RMK AO2 T11921215
11155 21192 411331225

000
SAUS70 KWBC 040538
MTRDVP
METAR KDVP 040535Z AUTO 32003KT 10SM CLR M19/M21 A3046 RMK AO2
T11901213

000
SAUS70 KWBC 040518 RRB
MTRDVP
METAR KDVP 040515Z AUTO 30003KT 10SM CLR M19/M21 A3046 RMK AO2
T11901215

000
SAUS70 KWBC 040500 RRO
MTRDVP
METAR KDVP 040455Z AUTO 30003KT 10SM CLR M19/M21 A3046 RMK AO2
T11871211

000
SAUS70 KWBC 040438 RRB
MTRDVP
METAR KDVP 040436Z AUTO 00000KT 10SM CLR M18/M21 A3046 RMK AO2
T11831207

000
SAUS70 KWBC 040418 RRD
MTRDVP
METAR KDVP 040415Z AUTO 29005KT 10SM CLR M18/M21 A3047 RMK AO2
T11831208

000
SAUS70 KWBC 040400 RRL
MTRDVP
METAR KDVP 040355Z AUTO 30005KT 10SM CLR M18/M21 A3047 RMK AO2
T11831207

000
SAUS70 KWBC 040336 RRA
MTRDVP
METAR KDVP 040335Z AUTO 29005KT 10SM CLR M18/M21 A3047 RMK AO2
T11831207

000
SAUS70 KWBC 040316
MTRDVP
METAR KDVP 040315Z AUTO 30006KT 10SM CLR M18/M21 A3047 RMK AO2
T11811206

000
SAUS70 KWBC 040300 RRB
MTRDVP
METAR KDVP 040255Z AUTO 31004KT 10SM CLR M18/M20 A3047 RMK AO2
T11781204

000
SAUS70 KWBC 040236 RRA
MTRDVP
METAR KDVP 040235Z AUTO 32004KT 10SM CLR M18/M20 A3048 RMK AO2
T11761200

000
SAUS70 KWBC 040216 RRB
MTRDVP
METAR KDVP 040215Z AUTO 31004KT 10SM CLR M17/M20 A3047 RMK AO2
T11751201

000
SAUS70 KWBC 040200 RRM
MTRDVP
METAR KDVP 040155Z AUTO 32003KT 10SM CLR M17/M20 A3048 RMK AO2
T11711199

000
SAUS70 KWBC 040136 RRA
MTRDVP
METAR KDVP 040135Z AUTO 34005KT 10SM CLR M17/M20 A3047 RMK AO2
T11701198

000
SAUS70 KWBC 040116 RRB
MTRDVP
METAR KDVP 040115Z AUTO 32006KT 10SM CLR M17/M20 A3048 RMK AO2
T11671196

000
SAUS70 KWBC 040056
MTRDVP
METAR KDVP 040055Z AUTO 32006KT 10SM CLR M16/M19 A3047 RMK AO2
T11651195

000
SAUS70 KWBC 040038 RRB
MTRDVP
METAR KDVP 040035Z AUTO 33006KT 10SM CLR M16/M19 A3047 RMK AO2
T11621192

000
SAUS70 KWBC 040018 RRB
MTRDVP
METAR KDVP 040015Z AUTO 33006KT 10SM CLR M16/M19 A3047 RMK AO2
T11591191

000
SAUS70 KWBC 040000 RRP
MTRDVP
METAR KDVP 032355Z AUTO 33008KT 10SM CLR M15/M19 A3046 RMK AO2 T11551192
11133 21156

000
SAUS70 KWBC 032336
MTRDVP
METAR KDVP 032336Z AUTO 32008KT 10SM CLR M15/M19 A3046 RMK AO2
T11501188

000
SAUS70 KWBC 032318 RRC
MTRDVP
METAR KDVP 032315Z AUTO 33006KT 10SM CLR M15/M19 A3046 RMK AO2
T11461188

000
SAUS70 KWBC 032300
MTRDVP
METAR KDVP 032255Z AUTO 34009KT 10SM CLR M14/M19 A3045 RMK AO2
T11411186

000
SAUS70 KWBC 032236
MTRDVP
METAR KDVP 032235Z AUTO 34008KT 10SM CLR M14/M19 A3045 RMK AO2
T11381186

000
SAUS70 KWBC 032216 RRA
MTRDVP
METAR KDVP 032215Z AUTO 34008KT 10SM CLR M14/M18 A3045 RMK AO2
T11361182

000
SAUS70 KWBC 032200 RRM
MTRDVP
METAR KDVP 032155Z AUTO 34009KT 10SM CLR M13/M18 A3044 RMK AO2
T11351181

000
SAUS70 KWBC 032136
MTRDVP
METAR KDVP 032135Z AUTO 35008KT 10SM CLR M13/M18 A3044 RMK AO2
T11341181

000
SAUS70 KWBC 032116
MTRDVP
METAR KDVP 032115Z AUTO 35009KT 10SM CLR M13/M18 A3043 RMK AO2
T11341183

000
SAUS70 KWBC 032100 RRL
MTRDVP
METAR KDVP 032055Z AUTO 33008KT 10SM CLR M13/M18 A3043 RMK AO2
T11351185

000
SAUS70 KWBC 032038 RRA
MTRDVP
METAR KDVP 032035Z AUTO 35009KT 10SM CLR M13/M18 A3043 RMK AO2
T11351184

000
SAUS70 KWBC 032018
MTRDVP
METAR KDVP 032015Z AUTO 34008KT 10SM CLR M14/M19 A3043 RMK AO2
T11371186

000
SAUS70 KWBC 032000 RRB
MTRDVP
METAR KDVP 031955Z AUTO 34008KT 10SM CLR M14/M18 A3043 RMK AO2
T11401185

000
SAUS70 KWBC 031936 RRA
MTRDVP
METAR KDVP 031935Z AUTO 34010KT 10SM CLR M14/M19 A3043 RMK AO2
T11401187

000
SAUS70 KWBC 031916
MTRDVP
METAR KDVP 031915Z AUTO 35008KT 10SM CLR M14/M19 A3044 RMK AO2
T11401187

000
SAUS70 KWBC 031900 RRK
MTRDVP
METAR KDVP 031855Z AUTO 34010KT 10SM CLR M15/M19 A3044 RMK AO2
T11461190

000
SAUS70 KWBC 031836 RRA
MTRDVP
METAR KDVP 031835Z AUTO 33010KT 10SM CLR M15/M19 A3044 RMK AO2
T11491191

000
SAUS70 KWBC 031800 RRI
MTRDVP
METAR KDVP 031815Z AUTO 33010KT 10SM CLR M15/M19 A3045 RMK AO2
T11531191

000
SAUS70 KWBC 031756
MTRDVP
METAR KDVP 031755Z AUTO 33009G14KT 10SM CLR M16/M19 A3045 RMK AO2
T11571194 11157 21225

000
SAUS70 KWBC 031738 RRA
MTRDVP
METAR KDVP 031735Z AUTO 33009KT 10SM CLR M16/M20 A3046 RMK AO2
T11611196

000
SAUS70 KWBC 031718
MTRDVP
METAR KDVP 031715Z AUTO 32010KT 10SM CLR M17/M20 A3046 RMK AO2
T11691201

000
SAUS70 KWBC 031700 RRK
MTRDVP
METAR KDVP 031655Z AUTO 34009KT 10SM CLR M18/M21 A3046 RMK AO2
T11761207

000
SAUS70 KWBC 031636 RRB
MTRDVP
METAR KDVP 031635Z AUTO 34010KT 10SM CLR M18/M21 A3045 RMK AO2
T11791207

000
SAUS70 KWBC 031618
MTRDVP
METAR KDVP 031616Z AUTO 33011KT 10SM CLR M19/M22 A3044 RMK AO2
T11911219

000
SAUS70 KWBC 031600 RRM
MTRDVP
METAR KDVP 031555Z AUTO 32011KT 10SM CLR M19/M22 A3045 RMK AO2
T11951222

000
SAUS70 KWBC 031536 RRA
MTRDVP
METAR KDVP 031535Z AUTO 32010KT 10SM CLR M20/M23 A3043 RMK AO2
T12021231

000
SAUS70 KWBC 031518 RRC
MTRDVP
METAR KDVP 031516Z AUTO 33010KT 10SM CLR M21/M23 A3042 RMK AO2
T12071235

000
SAUS70 KWBC 031500 RRG
MTRDVP
METAR KDVP 031455Z AUTO 32009KT 10SM CLR M21/M24 A3041 RMK AO2
T12141241

000
SAUS70 KWBC 031436 RRA
MTRDVP
METAR KDVP 031436Z AUTO 32007KT 10SM CLR M22/M25 A3041 RMK AO2
T12181246

000
SAUS70 KWBC 031418
MTRDVP
METAR KDVP 031415Z AUTO 32008KT 10SM CLR M22/M25 A3040 RMK AO2
T12221250

000
SAUS70 KWBC 031356
MTRDVP
METAR KDVP 031355Z AUTO 33007KT 10SM CLR M22/M25 A3038 RMK AO2
T12251252

000
SAUS70 KWBC 031336
MTRDVP
METAR KDVP 031335Z AUTO 33006KT 10SM CLR M22/M25 A3039 RMK AO2
T12251252

000
SAUS70 KWBC 031318 RRB
MTRDVP
METAR KDVP 031315Z AUTO 34006KT 10SM CLR M22/M25 A3038 RMK AO2
T12251251

000
SAUS70 KWBC 031300 RRO
MTRDVP
METAR KDVP 031255Z AUTO 34007KT 10SM CLR M22/M25 A3037 RMK AO2
T12241251

000
SAUS70 KWBC 031236
MTRDVP
METAR KDVP 031235Z AUTO 34006KT 10SM CLR M22/M25 A3036 RMK AO2
T12241250

000
SAUS70 KWBC 031216 RRA
MTRDVP
METAR KDVP 031215Z AUTO 35009KT 10SM CLR M22/M25 A3036 RMK AO2
T12221250

000
SAUS70 KWBC 031200 RRO
MTRDVP
METAR KDVP 031155Z AUTO 34010KT 10SM CLR M22/M25 A3036 RMK AO2 T12211250
11212 21221

000
SAUS70 KWBC 031136
MTRDVP
METAR KDVP 031135Z AUTO 34008KT 10SM CLR M22/M25 A3036 RMK AO2
T12211250

000
SAUS70 KWBC 031118
MTRDVP
METAR KDVP 031116Z AUTO 34007KT 10SM CLR M22/M25 A3036 RMK AO2
T12211250

000
SAUS70 KWBC 031100 RRA
MTRDVP
METAR KDVP 031055Z AUTO 33008KT 10SM CLR M22/M25 A3036 RMK AO2
T12211249

000
SAUS70 KWBC 031038
MTRDVP
METAR KDVP 031035Z AUTO 33009KT 10SM CLR M22/M25 A3036 RMK AO2
T12201248

000
SAUS70 KWBC 031018 RRB
MTRDVP
METAR KDVP 031015Z AUTO 32009KT 10SM CLR M22/M25 A3036 RMK AO2
T12201249

000
SAUS70 KWBC 031000 RRM
MTRDVP
METAR KDVP 030955Z AUTO 33009KT 10SM CLR M22/M25 A3036 RMK AO2
T12201248

000
SAUS70 KWBC 030936
MTRDVP
METAR KDVP 030935Z AUTO 33009KT 10SM CLR M22/M25 A3036 RMK AO2
T12181248

