000
SAUS70 KWBC 060900
MTRPRX
METAR KPRX 060855Z AUTO 16008KT 10SM OVC019 11/08 A3027 RMK AO1
57003

000
SAUS70 KWBC 060840 RRA
MTRPRX
METAR KPRX 060835Z AUTO 16007KT 10SM BKN021 09/07 A3027 RMK AO1

000
SAUS70 KWBC 060820
MTRPRX
METAR KPRX 060815Z AUTO 16008KT 10SM CLR 09/07 A3027 RMK AO1

000
SAUS70 KWBC 060800
MTRPRX
METAR KPRX 060755Z AUTO 16008KT 10SM CLR 10/07 A3027 RMK AO1

000
SAUS70 KWBC 060740
MTRPRX
METAR KPRX 060735Z AUTO 17009KT 10SM CLR 11/07 A3026 RMK AO1

000
SAUS70 KWBC 060720 RRA
MTRPRX
METAR KPRX 060715Z AUTO 17010KT 10SM CLR 11/07 A3027 RMK AO1

000
SAUS70 KWBC 060700
MTRPRX
METAR KPRX 060655Z AUTO 17010KT 10SM CLR 11/07 A3027 RMK AO1

000
SAUS70 KWBC 060640
MTRPRX
METAR KPRX 060635Z AUTO 16008KT 10SM CLR 09/06 A3027 RMK AO1

000
SAUS70 KWBC 060620
MTRPRX
METAR KPRX 060615Z AUTO 16008KT 10SM CLR 09/05 A3027 RMK AO1

000
SAUS70 KWBC 060600 RRB
MTRPRX
METAR KPRX 060555Z AUTO 15009KT 10SM CLR 09/05 A3028 RMK AO1 10160 20090
401901020 57003

000
SAUS70 KWBC 060540
MTRPRX
METAR KPRX 060535Z AUTO 15008KT 10SM CLR 09/04 A3028 RMK AO1

000
SAUS70 KWBC 060520
MTRPRX
METAR KPRX 060515Z AUTO 15008KT 10SM CLR 09/04 A3027 RMK AO1

000
SAUS70 KWBC 060500
MTRPRX
METAR KPRX 060455Z AUTO 15009KT 10SM CLR 09/04 A3028 RMK AO1

000
SAUS70 KWBC 060440 RRA
MTRPRX
METAR KPRX 060435Z AUTO 16009KT 10SM CLR 11/05 A3028 RMK AO1

000
SAUS70 KWBC 060420
MTRPRX
METAR KPRX 060415Z AUTO 15009KT 10SM CLR 11/05 A3028 RMK AO1

000
SAUS70 KWBC 060400 RRA
MTRPRX
METAR KPRX 060355Z AUTO 15009KT 10SM CLR 11/05 A3028 RMK AO1

000
SAUS70 KWBC 060340
MTRPRX
METAR KPRX 060335Z AUTO 15009KT 10SM CLR 11/06 A3028 RMK AO1

000
SAUS70 KWBC 060320
MTRPRX
METAR KPRX 060315Z AUTO 15009KT 10SM CLR 11/06 A3029 RMK AO1

000
SAUS70 KWBC 060300 RRB
MTRPRX
METAR KPRX 060255Z AUTO 15009KT 10SM CLR 10/06 A3029 RMK AO1 54000

000
SAUS70 KWBC 060240 RRA
MTRPRX
METAR KPRX 060235Z AUTO 15009KT 10SM CLR 11/06 A3029 RMK AO1

000
SAUS70 KWBC 060218 RRB
MTRPRX
METAR KPRX 060215Z AUTO 15008KT 10SM CLR 11/06 A3028 RMK AO1

000
SAUS70 KWBC 060200
MTRPRX
METAR KPRX 060155Z AUTO 16009KT 10SM CLR 12/06 A3028 RMK AO1

000
SAUS70 KWBC 060138 RRB
MTRPRX
METAR KPRX 060135Z AUTO 16009KT 10SM CLR 13/07 A3029 RMK AO1

000
SAUS70 KWBC 060100 RRI
MTRPRX
METAR KPRX 060115Z AUTO 15009KT 10SM CLR 12/06 A3029 RMK AO1

000
SAUS70 KWBC 060100 RRC
MTRPRX
METAR KPRX 060055Z AUTO 16009KT 10SM CLR 13/06 A3029 RMK AO1

000
SAUS70 KWBC 060040
MTRPRX
METAR KPRX 060035Z AUTO 17009KT 10SM CLR 13/06 A3029 RMK AO1

000
SAUS70 KWBC 060020
MTRPRX
METAR KPRX 060015Z AUTO 17008KT 10SM CLR 14/06 A3029 RMK AO1

000
SAUS70 KWBC 060000
MTRPRX
METAR KPRX 052355Z AUTO 18010KT 10SM CLR 16/06 A3029 RMK AO1 10190 20090
57014

000
SAUS70 KWBC 052340
MTRPRX
METAR KPRX 052335Z AUTO 18013KT 10SM CLR 17/07 A3028 RMK AO1

000
SAUS70 KWBC 052320
MTRPRX
METAR KPRX 052315Z AUTO 18012KT 10SM CLR 18/07 A3028 RMK AO1

000
SAUS70 KWBC 052300
MTRPRX
METAR KPRX 052255Z AUTO 19011KT 10SM CLR 18/07 A3029 RMK AO1

000
SAUS70 KWBC 052240
MTRPRX
METAR KPRX 052235Z AUTO 20015KT 10SM CLR 18/07 A3029 RMK AO1

000
SAUS70 KWBC 052220 RRA
MTRPRX
METAR KPRX 052215Z AUTO 19015G20KT 10SM CLR 18/07 A3030 RMK AO1

000
SAUS70 KWBC 052200 RRA
MTRPRX
METAR KPRX 052155Z AUTO 21015KT 10SM CLR 18/07 A3030 RMK AO1

000
SAUS70 KWBC 052140
MTRPRX
METAR KPRX 052135Z AUTO 20012KT 10SM CLR 18/08 A3031 RMK AO1

000
SAUS70 KWBC 052120
MTRPRX
METAR KPRX 052115Z AUTO 20012G18KT 10SM CLR 18/07 A3032 RMK AO1

000
SAUS70 KWBC 052100 RRB
MTRPRX
METAR KPRX 052055Z AUTO 16011KT 10SM CLR 17/07 A3033 RMK AO1 57041

000
SAUS70 KWBC 052040 RRA
MTRPRX
METAR KPRX 052035Z AUTO 20006G17KT 10SM CLR 17/07 A3034 RMK AO1

000
SAUS70 KWBC 052020 RRA
MTRPRX
METAR KPRX 052015Z AUTO 18011KT 10SM CLR 16/07 A3035 RMK AO1

000
SAUS70 KWBC 052000 RRB
MTRPRX
METAR KPRX 051955Z AUTO 19012KT 10SM FEW023 15/07 A3037 RMK AO1

000
SAUS70 KWBC 051940
MTRPRX
METAR KPRX 051935Z AUTO 22008G15KT 10SM BKN021 14/07 A3038 RMK AO1

000
SAUS70 KWBC 051920
MTRPRX
METAR KPRX 051915Z AUTO 19012G15KT 10SM OVC019 12/06 A3039 RMK AO1

000
SAUS70 KWBC 051900
MTRPRX
METAR KPRX 051855Z AUTO 20008KT 10SM OVC017 11/05 A3040 RMK AO1

000
SAUS70 KWBC 051840
MTRPRX
METAR KPRX 051835Z AUTO 19011KT 10SM OVC017 11/04 A3042 RMK AO1

000
SAUS70 KWBC 051818 RRB
MTRPRX
METAR KPRX 051815Z AUTO 20009KT 10SM OVC017 10/04 A3044 RMK AO1

000
SAUS70 KWBC 051800
MTRPRX
METAR KPRX 051755Z AUTO 19009KT 10SM OVC017 09/03 A3045 RMK AO1 10090
21020 57014

000
SAUS70 KWBC 051740
MTRPRX
METAR KPRX 051735Z AUTO 20008KT 10SM OVC017 09/02 A3047 RMK AO1

000
SAUS70 KWBC 051720
MTRPRX
METAR KPRX 051715Z AUTO 19010KT 10SM OVC015 08/02 A3048 RMK AO1

000
SAUS70 KWBC 051700
MTRPRX
METAR KPRX 051655Z AUTO 17009KT 10SM OVC015 07/00 A3049 RMK AO1

000
SAUS70 KWBC 051640
MTRPRX
METAR KPRX 051635Z AUTO 17010KT 10SM OVC015 07/M01 A3049 RMK AO1

000
SAUS70 KWBC 051620
MTRPRX
METAR KPRX 051615Z AUTO 18010KT 10SM OVC015 06/M02 A3050 RMK AO1

000
SAUS70 KWBC 051600
MTRPRX
METAR KPRX 051555Z AUTO 16011KT 10SM OVC017 06/M02 A3049 RMK AO1

000
SAUS70 KWBC 051538 RRB
MTRPRX
METAR KPRX 051535Z AUTO 17012KT 10SM SCT020 05/M03 A3050 RMK AO1

000
SAUS70 KWBC 051520
MTRPRX
METAR KPRX 051515Z AUTO 15013KT 10SM CLR 04/M04 A3049 RMK AO1

000
SAUS70 KWBC 051500
MTRPRX
METAR KPRX 051455Z AUTO 13010KT 10SM CLR 02/M04 A3049 RMK AO1 52007

000
SAUS70 KWBC 051440
MTRPRX
METAR KPRX 051435Z AUTO 13011KT 10SM CLR 01/M06 A3049 RMK AO1

000
SAUS70 KWBC 051420
MTRPRX
METAR KPRX 051415Z AUTO 13009KT 10SM CLR 00/M06 A3049 RMK AO1

000
SAUS70 KWBC 051400 RRC
MTRPRX
METAR KPRX 051355Z AUTO 12010KT 10SM CLR M01/M07 A3048 RMK AO1

000
SAUS70 KWBC 051340
MTRPRX
METAR KPRX 051335Z AUTO 13008KT 10SM CLR M02/M07 A3048 RMK AO1

000
SAUS70 KWBC 051318 RRA
MTRPRX
METAR KPRX 051315Z AUTO 12008KT 10SM CLR M02/M07 A3048 RMK AO1

000
SAUS70 KWBC 051300
MTRPRX
METAR KPRX 051255Z AUTO 11009KT 10SM CLR M02/M07 A3048 RMK AO1

000
SAUS70 KWBC 051240 RRA
MTRPRX
METAR KPRX 051235Z AUTO 11010KT 10SM CLR M02/M07 A3047 RMK AO1

000
SAUS70 KWBC 051220
MTRPRX
METAR KPRX 051215Z AUTO 11009KT 10SM CLR M02/M07 A3047 RMK AO1

000
SAUS70 KWBC 051200
MTRPRX
METAR KPRX 051155Z AUTO 11009KT 10SM CLR M02/M07 A3047 RMK AO1 10010
21020 52003

000
SAUS70 KWBC 051140
MTRPRX
METAR KPRX 051135Z AUTO 11009KT 10SM CLR M02/M07 A3046 RMK AO1

000
SAUS70 KWBC 051120
MTRPRX
METAR KPRX 051115Z AUTO 11009KT 10SM CLR M02/M08 A3046 RMK AO1

000
SAUS70 KWBC 051100 RRH
MTRPRX
METAR KPRX 051055Z AUTO 11009KT 10SM CLR M02/M08 A3046 RMK AO1

000
SAUS70 KWBC 051040
MTRPRX
METAR KPRX 051035Z AUTO 11009KT 10SM CLR M02/M08 A3046 RMK AO1

000
SAUS70 KWBC 051020 RRA
MTRPRX
METAR KPRX 051015Z AUTO 11007KT 10SM CLR M02/M07 A3046 RMK AO1

000
SAUS70 KWBC 051000 RRA
MTRPRX
METAR KPRX 050955Z AUTO 10008KT 10SM CLR M02/M07 A3046 RMK AO1

000
SAUS70 KWBC 050940
MTRPRX
METAR KPRX 050935Z AUTO 11008KT 10SM CLR M02/M07 A3045 RMK AO1

000
SAUS70 KWBC 050918 RRB
MTRPRX
METAR KPRX 050915Z AUTO 11006KT 10SM CLR M02/M07 A3045 RMK AO1

000
SAUS70 KWBC 050900
MTRPRX
METAR KPRX 050855Z AUTO 11008KT 10SM CLR M02/M07 A3046 RMK AO1 57010

000
SAUS70 KWBC 050840
MTRPRX
METAR KPRX 050835Z AUTO 11008KT 10SM CLR M01/M07 A3045 RMK AO1

000
SAUS70 KWBC 050820
MTRPRX
METAR KPRX 050815Z AUTO 11009KT 10SM CLR M01/M07 A3046 RMK AO1

000
SAUS70 KWBC 050800
MTRPRX
METAR KPRX 050755Z AUTO 12008KT 10SM CLR M01/M07 A3047 RMK AO1

000
SAUS70 KWBC 050740
MTRPRX
METAR KPRX 050735Z AUTO 12010KT 10SM CLR M01/M07 A3047 RMK AO1

000
SAUS70 KWBC 050720 RRA
MTRPRX
METAR KPRX 050715Z AUTO 12009KT 10SM CLR M01/M07 A3048 RMK AO1

000
SAUS70 KWBC 050700
MTRPRX
METAR KPRX 050655Z AUTO 12008KT 10SM CLR M01/M07 A3048 RMK AO1

000
SAUS70 KWBC 050640
MTRPRX
METAR KPRX 050635Z AUTO 13008KT 10SM CLR 00/M07 A3049 RMK AO1

000
SAUS70 KWBC 050620
MTRPRX
METAR KPRX 050615Z AUTO 13008KT 10SM CLR 00/M07 A3049 RMK AO1

000
SAUS70 KWBC 050600 RRA
MTRPRX
METAR KPRX 050555Z AUTO 13008KT 10SM CLR 01/M07 A3049 RMK AO1 10070
20010 401001060 57003

000
SAUS70 KWBC 050540
MTRPRX
METAR KPRX 050535Z AUTO 13008KT 10SM CLR 01/M07 A3049 RMK AO1

000
SAUS70 KWBC 050520
MTRPRX
METAR KPRX 050515Z AUTO 13009KT 10SM CLR 01/M07 A3049 RMK AO1

000
SAUS70 KWBC 050500
MTRPRX
METAR KPRX 050455Z AUTO 13009KT 10SM CLR 01/M07 A3049 RMK AO1

000
SAUS70 KWBC 050440
MTRPRX
METAR KPRX 050435Z AUTO 13010KT 10SM CLR 01/M07 A3049 RMK AO1

000
SAUS70 KWBC 050420
MTRPRX
METAR KPRX 050415Z AUTO 12009KT 10SM CLR 01/M07 A3050 RMK AO1

000
SAUS70 KWBC 050400 RRA
MTRPRX
METAR KPRX 050355Z AUTO 12009KT 10SM CLR 01/M07 A3050 RMK AO1

000
SAUS70 KWBC 050340
MTRPRX
METAR KPRX 050335Z AUTO 11009KT 10SM CLR 01/M07 A3050 RMK AO1

000
SAUS70 KWBC 050320
MTRPRX
METAR KPRX 050315Z AUTO 12009KT 10SM CLR 02/M07 A3050 RMK AO1

000
SAUS70 KWBC 050258
MTRPRX
METAR KPRX 050255Z AUTO 12010KT 10SM CLR 02/M07 A3050 RMK AO1 54000

000
SAUS70 KWBC 050240 RRA
MTRPRX
METAR KPRX 050235Z AUTO 12008KT 10SM CLR 02/M06 A3050 RMK AO1

000
SAUS70 KWBC 050220
MTRPRX
METAR KPRX 050215Z AUTO 13008KT 10SM CLR 02/M07 A3050 RMK AO1

000
SAUS70 KWBC 050200
MTRPRX
METAR KPRX 050155Z AUTO 12009KT 10SM CLR 03/M07 A3050 RMK AO1

000
SAUS70 KWBC 050140
MTRPRX
METAR KPRX 050135Z AUTO 13007KT 10SM CLR 03/M07 A3051 RMK AO1

000
SAUS70 KWBC 050118 RRA
MTRPRX
METAR KPRX 050115Z AUTO 13006KT 10SM CLR 04/M07 A3051 RMK AO1

000
SAUS70 KWBC 050100 RRE
MTRPRX
METAR KPRX 050055Z AUTO 14007KT 10SM CLR 05/M07 A3051 RMK AO1

000
SAUS70 KWBC 050040
MTRPRX
METAR KPRX 050035Z AUTO 14006KT 10SM CLR 06/M07 A3051 RMK AO1

000
SAUS70 KWBC 050018 RRA
MTRPRX
METAR KPRX 050015Z AUTO 15005KT 10SM CLR 06/M07 A3051 RMK AO1

000
SAUS70 KWBC 050000 RRA
MTRPRX
METAR KPRX 042355Z AUTO 15006KT 10SM CLR 06/M07 A3050 RMK AO1 10100
20060 57010

000
SAUS70 KWBC 042340
MTRPRX
METAR KPRX 042335Z AUTO 15006KT 10SM CLR 08/M07 A3050 RMK AO1

000
SAUS70 KWBC 042320
MTRPRX
METAR KPRX 042315Z AUTO 14005KT 10SM CLR 09/M07 A3051 RMK AO1

000
SAUS70 KWBC 042300
MTRPRX
METAR KPRX 042255Z AUTO 15005KT 10SM CLR 09/M07 A3051 RMK AO1

000
SAUS70 KWBC 042240
MTRPRX
METAR KPRX 042235Z AUTO 16005KT 10SM CLR 09/M07 A3051 RMK AO1

000
SAUS70 KWBC 042220 RRA
MTRPRX
METAR KPRX 042215Z AUTO 00000KT 10SM CLR 09/M07 A3051 RMK AO1

000
SAUS70 KWBC 042200 RRH
MTRPRX
METAR KPRX 042155Z AUTO 16004KT 10SM CLR 09/M07 A3051 RMK AO1

000
SAUS70 KWBC 042140
MTRPRX
METAR KPRX 042135Z AUTO 13004KT 10SM CLR 09/M07 A3052 RMK AO1

000
SAUS70 KWBC 042120
MTRPRX
METAR KPRX 042115Z AUTO 15005KT 10SM CLR 09/M07 A3052 RMK AO1

000
SAUS70 KWBC 042100 RRD
MTRPRX
METAR KPRX 042055Z AUTO 00000KT 10SM CLR 09/M08 A3053 RMK AO1 57027

000
SAUS70 KWBC 042040
MTRPRX
METAR KPRX 042035Z AUTO 14006KT 10SM CLR 09/M08 A3053 RMK AO1

000
SAUS70 KWBC 042020
MTRPRX
METAR KPRX 042015Z AUTO 10003KT 10SM CLR 09/M08 A3054 RMK AO1

000
SAUS70 KWBC 042000 RRA
MTRPRX
METAR KPRX 041955Z AUTO 17004KT 10SM CLR 08/M09 A3055 RMK AO1

000
SAUS70 KWBC 041940
MTRPRX
METAR KPRX 041935Z AUTO 00000KT 10SM CLR 08/M09 A3056 RMK AO1

000
SAUS70 KWBC 041920
MTRPRX
METAR KPRX 041915Z AUTO 00000KT 10SM CLR 07/M09 A3057 RMK AO1

000
SAUS70 KWBC 041900 RRB
MTRPRX
METAR KPRX 041855Z AUTO 00000KT 10SM CLR 06/M10 A3058 RMK AO1

000
SAUS70 KWBC 041840 RRA
MTRPRX
METAR KPRX 041835Z AUTO 17007KT 10SM CLR 06/M10 A3059 RMK AO1

000
SAUS70 KWBC 041820
MTRPRX
METAR KPRX 041815Z AUTO 14004KT 10SM CLR 06/M11 A3060 RMK AO1

000
SAUS70 KWBC 041800 RRA
MTRPRX
METAR KPRX 041755Z AUTO 17005KT 10SM CLR 06/M11 A3061 RMK AO1 10060
21060 54000

000
SAUS70 KWBC 041740 RRA
MTRPRX
METAR KPRX 041735Z AUTO 15009KT 10SM CLR 06/M11 A3062 RMK AO1

000
SAUS70 KWBC 041720
MTRPRX
METAR KPRX 041715Z AUTO 11007KT 10SM CLR 04/M12 A3063 RMK AO1

000
SAUS70 KWBC 041700 RRB
MTRPRX
METAR KPRX 041655Z AUTO 15006KT 10SM CLR 04/M11 A3063 RMK AO1

000
SAUS70 KWBC 041640 RRA
MTRPRX
METAR KPRX 041635Z AUTO 13007KT 10SM CLR 04/M11 A3062 RMK AO1

000
SAUS70 KWBC 041620
MTRPRX
METAR KPRX 041615Z AUTO 12007KT 10SM CLR 03/M12 A3062 RMK AO1

000
SAUS70 KWBC 041600 RRB
MTRPRX
METAR KPRX 041555Z AUTO 14007KT 10SM CLR 03/M11 A3062 RMK AO1

000
SAUS70 KWBC 041540
MTRPRX
METAR KPRX 041535Z AUTO 11008KT 10SM CLR 02/M11 A3062 RMK AO1

000
SAUS70 KWBC 041520 RRA
MTRPRX
METAR KPRX 041515Z AUTO 09007KT 10SM CLR 02/M10 A3062 RMK AO1

000
SAUS70 KWBC 041500
MTRPRX
METAR KPRX 041455Z AUTO 08006KT 10SM CLR 01/M10 A3061 RMK AO1 52024

000
SAUS70 KWBC 041440
MTRPRX
METAR KPRX 041435Z AUTO 05005KT 10SM CLR M01/M10 A3060 RMK AO1

000
SAUS70 KWBC 041420
MTRPRX
METAR KPRX 041415Z AUTO 03003KT 10SM CLR M02/M10 A3059 RMK AO1

000
SAUS70 KWBC 041400 RRA
MTRPRX
METAR KPRX 041355Z AUTO 02003KT 10SM CLR M04/M10 A3058 RMK AO1

000
SAUS70 KWBC 041340
MTRPRX
METAR KPRX 041335Z AUTO 02005KT 10SM CLR M04/M11 A3057 RMK AO1

000
SAUS70 KWBC 041320
MTRPRX
METAR KPRX 041315Z AUTO 02004KT 10SM CLR M05/M11 A3057 RMK AO1

000
SAUS70 KWBC 041300 RRB
MTRPRX
METAR KPRX 041255Z AUTO 02007KT 10SM CLR M05/M11 A3055 RMK AO1

000
SAUS70 KWBC 041240
MTRPRX
METAR KPRX 041235Z AUTO 02007KT 10SM CLR M05/M10 A3055 RMK AO1

000
SAUS70 KWBC 041220
MTRPRX
METAR KPRX 041215Z AUTO 02007KT 10SM CLR M06/M10 A3054 RMK AO1

000
SAUS70 KWBC 041200
MTRPRX
METAR KPRX 041155Z AUTO 01006KT 10SM CLR M05/M10 A3054 RMK AO1 10000
21060 52017

000
SAUS70 KWBC 041140 RRA
MTRPRX
METAR KPRX 041135Z AUTO 01006KT 10SM CLR M05/M09 A3052 RMK AO1

000
SAUS70 KWBC 041120
MTRPRX
METAR KPRX 041115Z AUTO 36008KT 10SM CLR M05/M09 A3052 RMK AO1

000
SAUS70 KWBC 041100
MTRPRX
METAR KPRX 041055Z AUTO 34006KT 10SM CLR M05/M09 A3052 RMK AO1

000
SAUS70 KWBC 041040 RRA
MTRPRX
METAR KPRX 041035Z AUTO 01004KT 10SM CLR M04/M11 A3051 RMK AO1

000
SAUS70 KWBC 041020 RRA
MTRPRX
METAR KPRX 041015Z AUTO 02007KT 10SM CLR M04/M11 A3050 RMK AO1

000
SAUS70 KWBC 041000 RRA
MTRPRX
METAR KPRX 040955Z AUTO 01005KT 10SM CLR M04/M11 A3050 RMK AO1

000
SAUS70 KWBC 040940
MTRPRX
METAR KPRX 040935Z AUTO 02007KT 10SM CLR M04/M10 A3049 RMK AO1

000
SAUS70 KWBC 040918 RRB
MTRPRX
METAR KPRX 040915Z AUTO 01007KT 10SM CLR M04/M09 A3049 RMK AO1

000
SAUS70 KWBC 040900
MTRPRX
METAR KPRX 040855Z AUTO 01007KT 10SM CLR M04/M10 A3049 RMK AO1 52014

000
SAUS70 KWBC 040840
MTRPRX
METAR KPRX 040835Z AUTO 01009KT 10SM CLR M03/M09 A3049 RMK AO1

000
SAUS70 KWBC 040820
MTRPRX
METAR KPRX 040815Z AUTO 01006KT 10SM CLR M03/M09 A3050 RMK AO1

000
SAUS70 KWBC 040800 RRA
MTRPRX
METAR KPRX 040755Z AUTO 34004KT 10SM CLR M03/M09 A3049 RMK AO1

000
SAUS70 KWBC 040740
MTRPRX
METAR KPRX 040735Z AUTO 36005KT 10SM CLR M02/M09 A3048 RMK AO1

000
SAUS70 KWBC 040718 RRB
MTRPRX
METAR KPRX 040715Z AUTO 36007KT 10SM CLR M02/M09 A3048 RMK AO1

000
SAUS70 KWBC 040700
MTRPRX
METAR KPRX 040655Z AUTO 36008KT 10SM CLR M01/M10 A3047 RMK AO1

000
SAUS70 KWBC 040640
MTRPRX
METAR KPRX 040635Z AUTO 36010KT 10SM CLR M01/M09 A3047 RMK AO1

000
SAUS70 KWBC 040620
MTRPRX
METAR KPRX 040615Z AUTO 01009KT 10SM CLR M01/M09 A3047 RMK AO1

000
SAUS70 KWBC 040600 RRB
MTRPRX
METAR KPRX 040555Z AUTO 36009KT 10SM CLR 00/M09 A3045 RMK AO1 10090
20000 401601020 52014

000
SAUS70 KWBC 040540 RRA
MTRPRX
METAR KPRX 040535Z AUTO 36009KT 10SM CLR 01/M09 A3045 RMK AO1

000
SAUS70 KWBC 040518 RRB
MTRPRX
METAR KPRX 040515Z AUTO 36010KT 10SM CLR 01/M09 A3045 RMK AO1

000
SAUS70 KWBC 040500
MTRPRX
METAR KPRX 040455Z AUTO 36009KT 10SM CLR 01/M08 A3045 RMK AO1

000
SAUS70 KWBC 040440
MTRPRX
METAR KPRX 040435Z AUTO 36009KT 10SM CLR 02/M08 A3044 RMK AO1

000
SAUS70 KWBC 040420
MTRPRX
METAR KPRX 040415Z AUTO 36009KT 10SM CLR 02/M08 A3043 RMK AO1

000
SAUS70 KWBC 040400
MTRPRX
METAR KPRX 040355Z AUTO 36008KT 10SM CLR 03/M08 A3043 RMK AO1

000
SAUS70 KWBC 040340
MTRPRX
METAR KPRX 040335Z AUTO 36009KT 10SM CLR 03/M08 A3042 RMK AO1

000
SAUS70 KWBC 040320
MTRPRX
METAR KPRX 040315Z AUTO 36009KT 10SM CLR 04/M08 A3042 RMK AO1

000
SAUS70 KWBC 040300
MTRPRX
METAR KPRX 040255Z AUTO 36010KT 10SM CLR 04/M08 A3041 RMK AO1 52027

000
SAUS70 KWBC 040240 RRA
MTRPRX
METAR KPRX 040235Z AUTO 36010KT 10SM CLR 05/M08 A3040 RMK AO1

000
SAUS70 KWBC 040218 RRB
MTRPRX
METAR KPRX 040215Z AUTO 36012KT 10SM CLR 06/M08 A3040 RMK AO1

000
SAUS70 KWBC 040200 RRD
MTRPRX
METAR KPRX 040155Z AUTO 36011KT 10SM CLR 06/M07 A3038 RMK AO1

000
SAUS70 KWBC 040138 RRB
MTRPRX
METAR KPRX 040135Z AUTO 36011KT 10SM CLR 07/M06 A3038 RMK AO1

000
SAUS70 KWBC 040120
MTRPRX
METAR KPRX 040115Z AUTO 36010KT 10SM CLR 07/M05 A3037 RMK AO1

000
SAUS70 KWBC 040100 RRB
MTRPRX
METAR KPRX 040055Z AUTO 36009KT 10SM CLR 07/M05 A3036 RMK AO1

000
SAUS70 KWBC 040040
MTRPRX
METAR KPRX 040035Z AUTO 01009KT 10SM CLR 08/M05 A3035 RMK AO1

000
SAUS70 KWBC 040018 RRB
MTRPRX
METAR KPRX 040015Z AUTO 01008KT 10SM CLR 09/M05 A3034 RMK AO1

000
SAUS70 KWBC 040000
MTRPRX
METAR KPRX 032355Z AUTO 01008KT 10SM CLR 09/M05 A3033 RMK AO1 10160
20090 52027

000
SAUS70 KWBC 032340
MTRPRX
METAR KPRX 032335Z AUTO 01010KT 10SM CLR 11/M04 A3031 RMK AO1

000
SAUS70 KWBC 032320
MTRPRX
METAR KPRX 032315Z AUTO 01011KT 10SM CLR 12/M04 A3030 RMK AO1

000
SAUS70 KWBC 032300
MTRPRX
METAR KPRX 032255Z AUTO 02013KT 10SM CLR 13/M05 A3029 RMK AO1

000
SAUS70 KWBC 032240
MTRPRX
METAR KPRX 032235Z AUTO 35011G14KT 10SM CLR 14/M04 A3028 RMK AO1

000
SAUS70 KWBC 032218 RRB
MTRPRX
METAR KPRX 032215Z AUTO 34009KT 10SM CLR 15/M04 A3027 RMK AO1

000
SAUS70 KWBC 032200
MTRPRX
METAR KPRX 032155Z AUTO 33010KT 10SM CLR 16/M05 A3026 RMK AO1

000
SAUS70 KWBC 032140
MTRPRX
METAR KPRX 032135Z AUTO 01009KT 10SM CLR 16/M05 A3025 RMK AO1

000
SAUS70 KWBC 032120
MTRPRX
METAR KPRX 032115Z AUTO 33009KT 10SM CLR 16/M04 A3025 RMK AO1

000
SAUS70 KWBC 032100
MTRPRX
METAR KPRX 032055Z AUTO 03006KT 10SM CLR 15/M05 A3025 RMK AO1 57014

000
SAUS70 KWBC 032040
MTRPRX
METAR KPRX 032035Z AUTO 32004KT 10SM CLR 15/M05 A3025 RMK AO1

000
SAUS70 KWBC 032020
MTRPRX
METAR KPRX 032015Z AUTO 01010KT 10SM CLR 15/M05 A3025 RMK AO1

000
SAUS70 KWBC 032000 RRB
MTRPRX
METAR KPRX 031955Z AUTO 02010G15KT 10SM CLR 16/M04 A3026 RMK AO1

000
SAUS70 KWBC 031940
MTRPRX
METAR KPRX 031935Z AUTO 34007G16KT 10SM CLR 15/M05 A3026 RMK AO1

000
SAUS70 KWBC 031918 RRA
MTRPRX
METAR KPRX 031915Z AUTO 02012G18KT 10SM CLR 14/M06 A3027 RMK AO1

000
SAUS70 KWBC 031900
MTRPRX
METAR KPRX 031855Z AUTO 35008G15KT 10SM CLR 15/M05 A3027 RMK AO1

000
SAUS70 KWBC 031840
MTRPRX
METAR KPRX 031835Z AUTO 35015KT 10SM CLR 14/M06 A3027 RMK AO1

000
SAUS70 KWBC 031820
MTRPRX
METAR KPRX 031815Z AUTO 02007KT 10SM CLR 14/M05 A3028 RMK AO1

000
SAUS70 KWBC 031800 RRA
MTRPRX
METAR KPRX 031755Z AUTO 35007KT 10SM CLR 13/M06 A3029 RMK AO1 10130
21020 52010

000
SAUS70 KWBC 031740
MTRPRX
METAR KPRX 031735Z AUTO 01008KT 10SM CLR 13/M07 A3029 RMK AO1

000
SAUS70 KWBC 031720
MTRPRX
METAR KPRX 031715Z AUTO 02010KT 10SM CLR 13/M06 A3030 RMK AO1

000
SAUS70 KWBC 031700
MTRPRX
METAR KPRX 031655Z AUTO 02010KT 10SM CLR 12/M06 A3030 RMK AO1

000
SAUS70 KWBC 031640
MTRPRX
METAR KPRX 031635Z AUTO 02009KT 10SM CLR 12/M06 A3030 RMK AO1

000
SAUS70 KWBC 031620
MTRPRX
METAR KPRX 031615Z AUTO 35012G16KT 10SM CLR 12/M07 A3029 RMK AO1

000
SAUS70 KWBC 031600 RRB
MTRPRX
METAR KPRX 031555Z AUTO 33010KT 10SM CLR 11/M07 A3028 RMK AO1

000
SAUS70 KWBC 031540 RRA
MTRPRX
METAR KPRX 031535Z AUTO 30009KT 10SM CLR 09/M06 A3026 RMK AO1

000
SAUS70 KWBC 031520 RRA
MTRPRX
METAR KPRX 031515Z AUTO 33006KT 10SM CLR 08/M04 A3026 RMK AO1

000
SAUS70 KWBC 031500 RRA
MTRPRX
METAR KPRX 031455Z AUTO 30006KT 10SM CLR 06/M03 A3026 RMK AO1 52014

000
SAUS70 KWBC 031440
MTRPRX
METAR KPRX 031435Z AUTO 31004KT 10SM CLR 03/M03 A3025 RMK AO1

000
SAUS70 KWBC 031420
MTRPRX
METAR KPRX 031415Z AUTO 32003KT 10SM CLR 01/M04 A3025 RMK AO1

000
SAUS70 KWBC 031400 RRB
MTRPRX
METAR KPRX 031355Z AUTO 32004KT 10SM CLR M02/M06 A3025 RMK AO1

000
SAUS70 KWBC 031340 RRA
MTRPRX
METAR KPRX 031335Z AUTO 33004KT 10SM CLR M01/M07 A3024 RMK AO1

000
SAUS70 KWBC 031320
MTRPRX
METAR KPRX 031315Z AUTO 32004KT 10SM CLR M01/M07 A3023 RMK AO1

000
SAUS70 KWBC 031300 RRA
MTRPRX
METAR KPRX 031255Z AUTO 00000KT 10SM CLR M01/M07 A3022 RMK AO1

000
SAUS70 KWBC 031240
MTRPRX
METAR KPRX 031235Z AUTO 00000KT 10SM CLR M01/M08 A3021 RMK AO1

000
SAUS70 KWBC 031220 RRA
MTRPRX
METAR KPRX 031215Z AUTO 34004KT 10SM CLR M01/M07 A3022 RMK AO1

000
SAUS70 KWBC 031200 RRC
MTRPRX
METAR KPRX 031155Z AUTO 33007KT 10SM CLR 01/M08 A3022 RMK AO1 10020
21010 52007

000
SAUS70 KWBC 031140
MTRPRX
METAR KPRX 031135Z AUTO 29004KT 10SM CLR 01/M07 A3020 RMK AO1

000
SAUS70 KWBC 031120 RRA
MTRPRX
METAR KPRX 031115Z AUTO 29004KT 10SM CLR 01/M07 A3020 RMK AO1

000
SAUS70 KWBC 031100
MTRPRX
METAR KPRX 031055Z AUTO 28005KT 10SM CLR M01/M07 A3019 RMK AO1

000
SAUS70 KWBC 031040
MTRPRX
METAR KPRX 031035Z AUTO 24005KT 10SM CLR 00/M07 A3019 RMK AO1

000
SAUS70 KWBC 031020
MTRPRX
METAR KPRX 031015Z AUTO 00000KT 10SM CLR M01/M07 A3019 RMK AO1

000
SAUS70 KWBC 031000 RRD
MTRPRX
METAR KPRX 030955Z AUTO 24005KT 10SM CLR M01/M06 A3019 RMK AO1

000
SAUS70 KWBC 030940 RRA
MTRPRX
METAR KPRX 030935Z AUTO 23007KT 10SM CLR M01/M06 A3019 RMK AO1

