000
SAUS70 KWBC 060900
MTRBAX
METAR KBAX 060855Z AUTO 23007KT 10SM OVC025 M08/M13 A3015 RMK AO2

000
SAUS70 KWBC 060840 RRA
MTRBAX
METAR KBAX 060837Z AUTO 22006KT 10SM OVC025 M08/M13 A3015 RMK AO2

000
SAUS70 KWBC 060820
MTRBAX
METAR KBAX 060817Z AUTO 22007KT 10SM OVC027 M08/M13 A3015 RMK AO2

000
SAUS70 KWBC 060800
MTRBAX
METAR KBAX 060755Z AUTO 22006KT 10SM OVC027 M08/M13 A3016 RMK AO2

000
SAUS70 KWBC 060740
MTRBAX
METAR KBAX 060737Z AUTO 22006KT 10SM OVC027 M08/M13 A3016 RMK AO2

000
SAUS70 KWBC 060720 RRA
MTRBAX
METAR KBAX 060717Z AUTO 23006KT 10SM OVC027 M09/M14 A3017 RMK AO2

000
SAUS70 KWBC 060700
MTRBAX
METAR KBAX 060655Z AUTO 22008KT 10SM OVC027 M09/M14 A3017 RMK AO2

000
SAUS70 KWBC 060640
MTRBAX
METAR KBAX 060637Z AUTO 22007KT 10SM OVC025 M09/M14 A3017 RMK AO2

000
SAUS70 KWBC 060620
MTRBAX
METAR KBAX 060617Z AUTO 21007KT 10SM OVC025 M09/M14 A3017 RMK AO2

000
SAUS70 KWBC 060600 RRB
MTRBAX
METAR KBAX 060555Z AUTO 21008KT 10SM OVC023 M09/M14 A3018 RMK AO2

000
SAUS70 KWBC 060540
MTRBAX
METAR KBAX 060537Z AUTO 21008KT 10SM OVC023 M09/M14 A3018 RMK AO2

000
SAUS70 KWBC 060520
MTRBAX
METAR KBAX 060517Z AUTO 20007KT 10SM OVC025 M10/M14 A3020 RMK AO2

000
SAUS70 KWBC 060500
MTRBAX
METAR KBAX 060458Z AUTO 20006KT 10SM OVC025 M10/M14 A3021 RMK AO2

000
SAUS70 KWBC 060440 RRA
MTRBAX
METAR KBAX 060437Z AUTO 20007KT 10SM BKN025 M11/M15 A3020 RMK AO2

000
SAUS70 KWBC 060420
MTRBAX
METAR KBAX 060417Z AUTO 20006KT 10SM CLR M12/M16 A3019 RMK AO2

000
SAUS70 KWBC 060400 RRA
MTRBAX
METAR KBAX 060355Z AUTO 21007KT 10SM CLR M12/M16 A3020 RMK AO2

000
SAUS70 KWBC 060340
MTRBAX
METAR KBAX 060337Z AUTO 20006KT 10SM CLR M13/M17 A3020 RMK AO2

000
SAUS70 KWBC 060320
MTRBAX
METAR KBAX 060317Z AUTO 20003KT 10SM CLR M12/M16 A3021 RMK AO2

000
SAUS70 KWBC 060300 RRB
MTRBAX
METAR KBAX 060255Z AUTO 22004KT 10SM CLR M11/M16 A3021 RMK AO2

000
SAUS70 KWBC 060240 RRA
MTRBAX
METAR KBAX 060237Z AUTO 22006KT 10SM CLR M11/M16 A3020 RMK AO2

000
SAUS70 KWBC 060220 RRA
MTRBAX
METAR KBAX 060217Z AUTO 21007KT 10SM CLR M10/M15 A3019 RMK AO2

000
SAUS70 KWBC 060200
MTRBAX
METAR KBAX 060155Z AUTO 20009KT 10SM CLR M09/M14 A3018 RMK AO2

000
SAUS70 KWBC 060140
MTRBAX
METAR KBAX 060137Z AUTO 20010KT 10SM CLR M09/M14 A3017 RMK AO2

000
SAUS70 KWBC 060100 RRI
MTRBAX
METAR KBAX 060117Z AUTO 20008KT 10SM CLR M09/M14 A3017 RMK AO2

000
SAUS70 KWBC 060100 RRA
MTRBAX
METAR KBAX 060055Z AUTO 20011KT 10SM BKN050 M08/M14 A3017 RMK AO2

000
SAUS70 KWBC 060040
MTRBAX
METAR KBAX 060037Z AUTO 20010KT 10SM OVC050 M08/M13 A3017 RMK AO2

000
SAUS70 KWBC 060020
MTRBAX
METAR KBAX 060017Z AUTO 19009KT 10SM OVC050 M07/M13 A3018 RMK AO2

000
SAUS70 KWBC 060000
MTRBAX
METAR KBAX 052355Z AUTO 19010KT 10SM OVC050 M07/M13 A3018 RMK AO2

000
SAUS70 KWBC 052340
MTRBAX
METAR KBAX 052337Z AUTO 19012KT 10SM SCT048 OVC050 M07/M13 A3018 RMK
AO2

000
SAUS70 KWBC 052320
MTRBAX
METAR KBAX 052317Z AUTO 20012KT 10SM OVC050 M07/M13 A3018 RMK AO2

000
SAUS70 KWBC 052300
MTRBAX
METAR KBAX 052255Z AUTO 20010KT 10SM OVC050 M08/M13 A3019 RMK AO2

000
SAUS70 KWBC 052240
MTRBAX
METAR KBAX 052237Z AUTO 19010KT 10SM BKN050 OVC055 M08/M13 A3020 RMK
AO2

000
SAUS70 KWBC 052220 RRA
MTRBAX
METAR KBAX 052217Z AUTO 19010KT 10SM OVC050 M08/M13 A3021 RMK AO2

000
SAUS70 KWBC 052200 RRB
MTRBAX
METAR KBAX 052155Z AUTO 19009KT 10SM OVC050 M08/M13 A3022 RMK AO2

000
SAUS70 KWBC 052140
MTRBAX
METAR KBAX 052137Z AUTO 17009KT 10SM OVC050 M08/M14 A3022 RMK AO2

000
SAUS70 KWBC 052120
MTRBAX
METAR KBAX 052117Z AUTO 17010KT 10SM OVC050 M09/M14 A3023 RMK AO2

000
SAUS70 KWBC 052100 RRB
MTRBAX
METAR KBAX 052055Z AUTO 16010KT 10SM SCT055 BKN090 120 M08/M14 A3023 RMK
AO2

000
SAUS70 KWBC 052040 RRA
MTRBAX
METAR KBAX 052037Z AUTO 18010KT 10SM SCT100 120 M08/M14 A3025 RMK
AO2

000
SAUS70 KWBC 052020 RRA
MTRBAX
METAR KBAX 052017Z AUTO 17010KT 10SM OVC100 M09/M14 A3026 RMK AO2

000
SAUS70 KWBC 052000
MTRBAX
METAR KBAX 051955Z AUTO 19012G15KT 10SM BKN100 M09/M14 A3028 RMK AO2

000
SAUS70 KWBC 051940
MTRBAX
METAR KBAX 051937Z AUTO 18010KT 10SM OVC100 M09/M14 A3029 RMK AO2

000
SAUS70 KWBC 051920
MTRBAX
METAR KBAX 051917Z AUTO 19012KT 10SM OVC100 M09/M16 A3029 RMK AO2

000
SAUS70 KWBC 051900
MTRBAX
METAR KBAX 051855Z AUTO 18012KT 10SM OVC100 M10/M16 A3030 RMK AO2

000
SAUS70 KWBC 051840
MTRBAX
METAR KBAX 051837Z AUTO 18011KT 10SM SCT080 OVC090 M10/M16 A3031 RMK
AO2

000
SAUS70 KWBC 051820
MTRBAX
METAR KBAX 051817Z AUTO 18011KT 10SM OVC100 M10/M16 A3032 RMK AO2

000
SAUS70 KWBC 051800 RRB
MTRBAX
METAR KBAX 051758Z AUTO 19011KT 10SM OVC100 M11/M16 A3034 RMK AO2

000
SAUS70 KWBC 051740
MTRBAX
METAR KBAX 051737Z AUTO 19010KT 10SM BKN100 M11/M16 A3035 RMK AO2

000
SAUS70 KWBC 051720
MTRBAX
METAR KBAX 051717Z AUTO 20009KT 10SM BKN100 M11/M16 A3036 RMK AO2

000
SAUS70 KWBC 051700 RRA
MTRBAX
METAR KBAX 051655Z AUTO 20009KT 10SM BKN110 M12/M15 A3038 RMK AO2

000
SAUS70 KWBC 051640
MTRBAX
METAR KBAX 051637Z AUTO 21007KT 10SM CLR M13/M15 A3039 RMK AO2

000
SAUS70 KWBC 051620
MTRBAX
METAR KBAX 051617Z AUTO 20003KT 10SM CLR M14/M17 A3039 RMK AO2

000
SAUS70 KWBC 051600
MTRBAX
METAR KBAX 051555Z AUTO 17004KT 10SM CLR M16/M17 A3040 RMK AO2

000
SAUS70 KWBC 051540
MTRBAX
METAR KBAX 051537Z AUTO 17003KT 10SM CLR M17/M18 A3040 RMK AO2

000
SAUS70 KWBC 051520
MTRBAX
METAR KBAX 051517Z AUTO 00000KT 10SM CLR M18/M20 A3041 RMK AO2

000
SAUS70 KWBC 051500
MTRBAX
METAR KBAX 051457Z AUTO 19003KT 10SM CLR M18/M21 A3041 RMK AO2

000
SAUS70 KWBC 051440
MTRBAX
METAR KBAX 051437Z AUTO 00000KT 10SM CLR M19/M21 A3042 RMK AO2

000
SAUS70 KWBC 051420
MTRBAX
METAR KBAX 051417Z AUTO 18003KT 5SM BR CLR M21/M23 A3042 RMK AO2

000
SAUS70 KWBC 051400
MTRBAX
METAR KBAX 051355Z AUTO 00000KT 1 1/4SM BR VV007 M23/M25 A3043 RMK AO2
VIS 1/2V5

000
SAUS70 KWBC 051340
MTRBAX
METAR KBAX 051337Z AUTO 00000KT 10SM SCT032 M24/M27 A3043 RMK AO2

000
SAUS70 KWBC 051320
MTRBAX
METAR KBAX 051317Z AUTO 00000KT 10SM SCT032 M25/M27 A3044 RMK AO2

000
SAUS70 KWBC 051300
MTRBAX
METAR KBAX 051255Z AUTO 00000KT 10SM CLR M26/M28 A3044 RMK AO2

000
SAUS70 KWBC 051240 RRA
MTRBAX
METAR KBAX 051237Z AUTO 00000KT 10SM CLR M24/M27 A3043 RMK AO2

000
SAUS70 KWBC 051220
MTRBAX
METAR KBAX 051217Z AUTO 00000KT 10SM -SN CLR M22/M25 A3043 RMK AO2

000
SAUS70 KWBC 051200 RRA
MTRBAX
METAR KBAX 051155Z AUTO 00000KT 10SM CLR M22/M24 A3044 RMK AO2

000
SAUS70 KWBC 051140
MTRBAX
METAR KBAX 051137Z AUTO 00000KT 10SM CLR M23/M25 A3044 RMK AO2

000
SAUS70 KWBC 051120
MTRBAX
METAR KBAX 051117Z AUTO 00000KT 10SM CLR M23/M25 A3043 RMK AO2

000
SAUS70 KWBC 051100 RRA
MTRBAX
METAR KBAX 051055Z AUTO 00000KT 10SM CLR M24/M27 A3043 RMK AO2

000
SAUS70 KWBC 051040
MTRBAX
METAR KBAX 051037Z AUTO 26004KT 10SM CLR M27/M29 A3043 RMK AO2

000
SAUS70 KWBC 051020 RRA
MTRBAX
METAR KBAX 051017Z AUTO 25003KT 10SM CLR M31/M33 A3042 RMK AO2

000
SAUS70 KWBC 051000 RRC
MTRBAX
METAR KBAX 050955Z AUTO 00000KT 10SM CLR M30/M33 A3041 RMK AO2

000
SAUS70 KWBC 050940
MTRBAX
METAR KBAX 050937Z AUTO 00000KT 10SM CLR M30/M33 A3041 RMK AO2

000
SAUS70 KWBC 050920
MTRBAX
METAR KBAX 050917Z AUTO 00000KT 10SM CLR M29/M33 A3042 RMK AO2

000
SAUS70 KWBC 050900 RRA
MTRBAX
METAR KBAX 050855Z AUTO 00000KT 10SM CLR M28/M31 A3042 RMK AO2

000
SAUS70 KWBC 050840
MTRBAX
METAR KBAX 050837Z AUTO 00000KT 10SM CLR M31/M34 A3042 RMK AO2

000
SAUS70 KWBC 050820
MTRBAX
METAR KBAX 050817Z AUTO 00000KT 10SM CLR M30/M33 A3042 RMK AO2

000
SAUS70 KWBC 050800
MTRBAX
METAR KBAX 050755Z AUTO 00000KT 10SM CLR M30/M33 A3043 RMK AO2

000
SAUS70 KWBC 050740
MTRBAX
METAR KBAX 050737Z AUTO 00000KT 10SM CLR M30/M33 A3043 RMK AO2

000
SAUS70 KWBC 050720 RRA
MTRBAX
METAR KBAX 050717Z AUTO 00000KT 10SM CLR M30/M33 A3044 RMK AO2

000
SAUS70 KWBC 050700
MTRBAX
METAR KBAX 050655Z AUTO 00000KT 10SM CLR M29/M32 A3044 RMK AO2

000
SAUS70 KWBC 050640
MTRBAX
METAR KBAX 050637Z AUTO 00000KT 10SM CLR M30/M33 A3044 RMK AO2

000
SAUS70 KWBC 050620
MTRBAX
METAR KBAX 050617Z AUTO 00000KT 10SM CLR M29/M32 A3043 RMK AO2

000
SAUS70 KWBC 050600
MTRBAX
METAR KBAX 050555Z AUTO 00000KT 10SM CLR M28/M31 A3043 RMK AO2

000
SAUS70 KWBC 050540
MTRBAX
METAR KBAX 050537Z AUTO 00000KT 10SM CLR M29/M32 A3043 RMK AO2

000
SAUS70 KWBC 050520
MTRBAX
METAR KBAX 050517Z AUTO 00000KT 10SM CLR M29/M32 A3043 RMK AO2

000
SAUS70 KWBC 050500
MTRBAX
METAR KBAX 050455Z AUTO 00000KT 10SM CLR M28/M31 A3044 RMK AO2

000
SAUS70 KWBC 050440
MTRBAX
METAR KBAX 050437Z AUTO 00000KT 10SM CLR M28/M31 A3044 RMK AO2

000
SAUS70 KWBC 050420
MTRBAX
METAR KBAX 050417Z AUTO 00000KT 10SM CLR M28/M31 A3044 RMK AO2

000
SAUS70 KWBC 050400 RRA
MTRBAX
METAR KBAX 050355Z AUTO 00000KT 10SM CLR M28/M31 A3044 RMK AO2

000
SAUS70 KWBC 050340
MTRBAX
METAR KBAX 050338Z AUTO 00000KT 10SM CLR M27/M29 A3043 RMK AO2

000
SAUS70 KWBC 050320
MTRBAX
METAR KBAX 050317Z AUTO 00000KT 10SM CLR M25/M27 A3043 RMK AO2

000
SAUS70 KWBC 050258
MTRBAX
METAR KBAX 050255Z AUTO 00000KT 10SM CLR M26/M28 A3042 RMK AO2

000
SAUS70 KWBC 050240 RRA
MTRBAX
METAR KBAX 050237Z AUTO 00000KT 10SM CLR M26/M28 A3042 RMK AO2

000
SAUS70 KWBC 050220
MTRBAX
METAR KBAX 050217Z AUTO 00000KT 10SM CLR M25/M27 A3042 RMK AO2

000
SAUS70 KWBC 050200
MTRBAX
METAR KBAX 050155Z AUTO 00000KT 10SM CLR M25/M27 A3041 RMK AO2

000
SAUS70 KWBC 050140
MTRBAX
METAR KBAX 050137Z AUTO 00000KT 10SM CLR M26/M28 A3041 RMK AO2

000
SAUS70 KWBC 050120
MTRBAX
METAR KBAX 050117Z AUTO 00000KT 10SM SCT024 M24/M26 A3041 RMK AO2

000
SAUS70 KWBC 050100
MTRBAX
METAR KBAX 050055Z AUTO 00000KT 10SM SCT026 M23/M24 A3041 RMK AO2

000
SAUS70 KWBC 050040
MTRBAX
METAR KBAX 050037Z AUTO 00000KT 10SM SCT016 SCT024 BKN032 M22/M24 A3042
RMK AO2

000
SAUS70 KWBC 050020
MTRBAX
METAR KBAX 050017Z AUTO 00000KT 10SM SCT016 BKN024 BKN033 M20/M22 A3042
RMK AO2

000
SAUS70 KWBC 050000 RRA
MTRBAX
METAR KBAX 042355Z AUTO 00000KT 7SM SCT018 M21/M23 A3041 RMK AO2

000
SAUS70 KWBC 042340
MTRBAX
METAR KBAX 042337Z AUTO 00000KT 10SM CLR M20/M23 A3041 RMK AO2

000
SAUS70 KWBC 042320
MTRBAX
METAR KBAX 042317Z AUTO 30004KT 10SM CLR M18/M22 A3040 RMK AO2

000
SAUS70 KWBC 042300 RRD
MTRBAX
METAR KBAX 042255Z AUTO 30004KT 10SM CLR M17/M21 A3040 RMK AO2

000
SAUS70 KWBC 042238 RRA
MTRBAX
METAR KBAX 042236Z AUTO 30005KT 10SM CLR M14/M19 A3039 RMK AO2

000
SAUS70 KWBC 042200
MTRBAX
METAR KBAX 042155Z AUTO 32009KT 10SM CLR M14/M19 A3037 RMK AO2

000
SAUS70 KWBC 042140
MTRBAX
METAR KBAX 042137Z AUTO 32011KT 10SM CLR M14/M19 A3036 RMK AO2

000
SAUS70 KWBC 042120
MTRBAX
METAR KBAX 042117Z AUTO 33008KT 10SM CLR M13/M19 A3036 RMK AO2

000
SAUS70 KWBC 042100
MTRBAX
METAR KBAX 042055Z AUTO 34011G17KT 10SM SCT026 M13/M18 A3035 RMK AO2

000
SAUS70 KWBC 042040
MTRBAX
METAR KBAX 042037Z AUTO 34011G16KT 10SM BKN028 M13/M18 A3035 RMK AO2

000
SAUS70 KWBC 042020
MTRBAX
METAR KBAX 042017Z AUTO 32014KT 10SM OVC026 M13/M18 A3035 RMK AO2

000
SAUS70 KWBC 042000 RRA
MTRBAX
METAR KBAX 041955Z AUTO 33014KT 10SM BKN026 OVC031 M13/M18 A3034 RMK
AO2

000
SAUS70 KWBC 041940
MTRBAX
METAR KBAX 041937Z AUTO 32015G18KT 10SM OVC023 M13/M18 A3033 RMK AO2

000
SAUS70 KWBC 041920
MTRBAX
METAR KBAX 041917Z AUTO 32015G19KT 10SM OVC023 M13/M18 A3033 RMK AO2

000
SAUS70 KWBC 041900 RRB
MTRBAX
METAR KBAX 041855Z AUTO 31014KT 7SM BKN023 OVC029 M13/M18 A3033 RMK
AO2

000
SAUS70 KWBC 041840 RRA
MTRBAX
METAR KBAX 041837Z AUTO 32016KT 7SM OVC022 M13/M18 A3032 RMK AO2

000
SAUS70 KWBC 041820
MTRBAX
METAR KBAX 041818Z AUTO 33014G20KT 7SM BKN022 M13/M18 A3032 RMK AO2

000
SAUS70 KWBC 041800 RRA
MTRBAX
METAR KBAX 041755Z AUTO 32015G19KT 5SM HZ BKN024 OVC029 M13/M18 A3032
RMK AO2

000
SAUS70 KWBC 041740 RRA
MTRBAX
METAR KBAX 041737Z AUTO 32017G21KT 7SM BKN022 OVC027 M13/M17 A3032 RMK
AO2

000
SAUS70 KWBC 041720
MTRBAX
METAR KBAX 041717Z AUTO 33011G20KT 7SM BKN021 OVC027 M13/M17 A3031 RMK
AO2

000
SAUS70 KWBC 041700 RRA
MTRBAX
METAR KBAX 041655Z AUTO 33015G22KT 3SM HZ BKN019 OVC025 M14/M17 A3031
RMK AO2

000
SAUS70 KWBC 041640 RRA
MTRBAX
METAR KBAX 041637Z AUTO 32016G21KT 4SM HZ BKN019 OVC026 M14/M17 A3031
RMK AO2

000
SAUS70 KWBC 041620
MTRBAX
METAR KBAX 041617Z AUTO 33016G20KT 2 1/2SM HZ OVC022 M14/M17 A3031 RMK
AO2

000
SAUS70 KWBC 041600 RRA
MTRBAX
METAR KBAX 041555Z AUTO 33010KT 5SM HZ BKN020 OVC027 M14/M17 A3031 RMK
AO2

000
SAUS70 KWBC 041540
MTRBAX
METAR KBAX 041537Z AUTO 33012G17KT 4SM HZ OVC020 M14/M17 A3030 RMK
AO2

000
SAUS70 KWBC 041520 RRA
MTRBAX
METAR KBAX 041517Z AUTO 33012KT 7SM BKN018 OVC023 M14/M17 A3029 RMK
AO2

000
SAUS70 KWBC 041500 RRA
MTRBAX
METAR KBAX 041455Z AUTO 33014G17KT 4SM HZ BKN018 BKN023 OVC029 M14/M17
A3028 RMK AO2

000
SAUS70 KWBC 041440
MTRBAX
METAR KBAX 041437Z AUTO 33013G19KT 4SM BR BKN018 OVC023 M15/M17 A3028
RMK AO2

000
SAUS70 KWBC 041420
MTRBAX
METAR KBAX 041417Z AUTO 33010G17KT 3SM BR SCT018 OVC026 M15/M17 A3027
RMK AO2

000
SAUS70 KWBC 041400 RRA
MTRBAX
METAR KBAX 041355Z AUTO 33011KT 2SM -SN OVC018 M15/M17 A3027 RMK AO2

000
SAUS70 KWBC 041340
MTRBAX
METAR KBAX 041337Z AUTO 33012G16KT 1 1/4SM -SN BKN016 OVC023 M14/M17
A3026 RMK AO2

000
SAUS70 KWBC 041320
MTRBAX
METAR KBAX 041317Z AUTO 33010KT 3SM -SN SCT008 BKN019 OVC028 M14/M17
A3025 RMK AO2

000
SAUS70 KWBC 041300 RRB
MTRBAX
METAR KBAX 041255Z AUTO 33011KT 1/2SM -SN BKN003 OVC014 M13/M15 A3024
RMK AO2

000
SAUS70 KWBC 041240
MTRBAX
METAR KBAX 041237Z AUTO 33008KT 3/4SM SN BKN005 OVC015 M13/M14 A3024 RMK
AO2

000
SAUS70 KWBC 041220
MTRBAX
METAR KBAX 041217Z AUTO 34007KT 3SM -SN SCT024 BKN030 OVC070 M13/M15
A3023 RMK AO2

000
SAUS70 KWBC 041200
MTRBAX
METAR KBAX 041155Z AUTO 36008KT 10SM OVC070 M13/M15 A3022 RMK AO2

000
SAUS70 KWBC 041140 RRA
MTRBAX
METAR KBAX 041137Z AUTO 36007KT 5SM BR SCT022 SCT029 OVC070 M13/M14
A3021 RMK AO2

000
SAUS70 KWBC 041120
MTRBAX
METAR KBAX 041117Z AUTO 36009KT 7SM SCT020 BKN025 120 M13/M15 A3020 RMK
AO2

000
SAUS70 KWBC 041100
MTRBAX
METAR KBAX 041055Z AUTO 36007KT 4SM -SN BKN018 BKN025 OVC032 M13/M14
A3019 RMK AO2

000
SAUS70 KWBC 041040 RRA
MTRBAX
METAR KBAX 041037Z AUTO 36008KT 3SM -SN SCT018 BKN023 OVC044 M12/M14
A3018 RMK AO2

000
SAUS70 KWBC 041020 RRA
MTRBAX
METAR KBAX 041017Z AUTO 36010KT 3SM -SN SCT022 SCT035 OVC044 M12/M13
A3018 RMK AO2

000
SAUS70 KWBC 041000 RRA
MTRBAX
METAR KBAX 040955Z AUTO 36007KT 10SM BKN035 OVC044 M12/M14 A3017 RMK
AO2

000
SAUS70 KWBC 040940
MTRBAX
METAR KBAX 040937Z AUTO 35005KT 10SM BKN035 M14/M16 A3016 RMK AO2

000
SAUS70 KWBC 040920 RRA
MTRBAX
METAR KBAX 040917Z AUTO 36005KT 10SM CLR M14/M16 A3015 RMK AO2

000
SAUS70 KWBC 040900
MTRBAX
METAR KBAX 040855Z AUTO 36007KT M13/M14 A3015 RMK AO2 PWINO

000
SAUS70 KWBC 040840
MTRBAX
METAR KBAX 040837Z AUTO 36008KT M12/M13 A3014 RMK AO2 PWINO

000
SAUS70 KWBC 040820
MTRBAX
METAR KBAX 040817Z AUTO 36006KT M13/M14 A3014 RMK AO2 PWINO

000
SAUS70 KWBC 040800 RRA
MTRBAX
METAR KBAX 040755Z AUTO 35004KT M14/M16 A3013 RMK AO2 PWINO

000
SAUS70 KWBC 040740
MTRBAX
METAR KBAX 040737Z AUTO 32005KT M13/M14 A3013 RMK AO2 PWINO

000
SAUS70 KWBC 040718 RRB
MTRBAX
METAR KBAX 040717Z AUTO 32008KT M11/M13 A3012 RMK AO2 PWINO

000
SAUS70 KWBC 040700 RRA
MTRBAX
METAR KBAX 040655Z AUTO 33008KT M11/M12 A3012 RMK AO2 PWINO

000
SAUS70 KWBC 040640
MTRBAX
METAR KBAX 040636Z AUTO 33007KT M11/M12 A3011 RMK AO2 PWINO

000
SAUS70 KWBC 040600 RRB
MTRBAX
METAR KBAX 040557Z AUTO 32010KT A3011 RMK AO2 PWINO

000
SAUS70 KWBC 040540 RRA
MTRBAX
METAR KBAX 040537Z AUTO 33009KT A3011 RMK AO2 PWINO

000
SAUS70 KWBC 040520
MTRBAX
METAR KBAX 040517Z AUTO 33009KT A3011 RMK AO2 PWINO

000
SAUS70 KWBC 040500 RRA
MTRBAX
METAR KBAX 040455Z AUTO 33008KT A3011 RMK AO2 PWINO

000
SAUS70 KWBC 040440
MTRBAX
METAR KBAX 040437Z AUTO 34010KT M10/M12 A3010 RMK AO2 PWINO

000
SAUS70 KWBC 040420
MTRBAX
METAR KBAX 040417Z AUTO 34008KT M09/M11 A3010 RMK AO2 PWINO

000
SAUS70 KWBC 040400 RRA
MTRBAX
METAR KBAX 040355Z AUTO 36009KT M09/M10 A3010 RMK AO2 PWINO

000
SAUS70 KWBC 040340
MTRBAX
METAR KBAX 040337Z AUTO 36007KT BKN004 OVC013 M08/M10 A3010 RMK AO2
PWINO

000
SAUS70 KWBC 040320
MTRBAX
METAR KBAX 040317Z AUTO 36009KT M09/M10 A3009 RMK AO2 PWINO

000
SAUS70 KWBC 040300
MTRBAX
METAR KBAX 040255Z AUTO 01013G21KT M08/M11 A3009 RMK AO2 PWINO

000
SAUS70 KWBC 040240 RRA
MTRBAX
METAR KBAX 040237Z AUTO 01013KT M08/M10 A3008 RMK AO2 PWINO

000
SAUS70 KWBC 040218 RRB
MTRBAX
METAR KBAX 040217Z AUTO 36011KT BKN006 BKN009 OVC017 M08/M10 A3008 RMK
AO2 PWINO

000
SAUS70 KWBC 040200
MTRBAX
METAR KBAX 040155Z AUTO 36015G19KT M08/M09 A3007 RMK AO2 PWINO

000
SAUS70 KWBC 040140
MTRBAX
METAR KBAX 040137Z AUTO 36011G18KT M08/M09 A3006 RMK AO2 PWINO

000
SAUS70 KWBC 040120
MTRBAX
METAR KBAX 040117Z AUTO 36014KT M08/M09 A3006 RMK AO2 PWINO

000
SAUS70 KWBC 040100 RRB
MTRBAX
METAR KBAX 040055Z AUTO 36014G18KT M08/M09 A3006 RMK AO2 PWINO

000
SAUS70 KWBC 040038 RRB
MTRBAX
METAR KBAX 040036Z AUTO 36012G19KT M08/M10 A3005 RMK AO2 PWINO

000
SAUS70 KWBC 040000 RRA
MTRBAX
METAR KBAX 032355Z AUTO 01014G19KT M08/M09 A3004 RMK AO2 PWINO

000
SAUS70 KWBC 032340
MTRBAX
METAR KBAX 032337Z AUTO 01012KT A3004 RMK AO2 PWINO

000
SAUS70 KWBC 032320
MTRBAX
METAR KBAX 032317Z AUTO 36016KT A3003 RMK AO2 PWINO

000
SAUS70 KWBC 032300
MTRBAX
METAR KBAX 032255Z AUTO 01013KT A3002 RMK AO2 PWINO

000
SAUS70 KWBC 032240
MTRBAX
METAR KBAX 032237Z AUTO 36016G21KT M08/ A3001 RMK AO2 PWINO

000
SAUS70 KWBC 032220 RRA
MTRBAX
METAR KBAX 032217Z AUTO 36018G24KT 1SM -SN OVC025 M07/M09 A2999 RMK
AO2

000
SAUS70 KWBC 032200
MTRBAX
METAR KBAX 032155Z AUTO 36016G20KT 1SM -SN BKN013 BKN018 OVC025 M07/M09
A2998 RMK AO2

000
SAUS70 KWBC 032140
MTRBAX
METAR KBAX 032137Z AUTO 36017G22KT 3/4SM -SN OVC016 M07/M08 A2997 RMK
AO2

000
SAUS70 KWBC 032120
MTRBAX
METAR KBAX 032117Z AUTO 36015G19KT 1SM -SN OVC016 M07/M08 A2996 RMK
AO2

000
SAUS70 KWBC 032100
MTRBAX
METAR KBAX 032055Z AUTO 36012G18KT 1SM -SN BKN014 OVC019 M06/M08 A2995
RMK AO2

000
SAUS70 KWBC 032040
MTRBAX
METAR KBAX 032037Z AUTO 01014G19KT 1SM -SN OVC022 M06/M08 A2995 RMK
AO2

000
SAUS70 KWBC 032020 RRA
MTRBAX
METAR KBAX 032018Z AUTO 01017G25KT 1SM -SN BKN014 OVC020 M06/M08 A2993
RMK AO2

000
SAUS70 KWBC 032000 RRB
MTRBAX
METAR KBAX 031955Z AUTO 36016G21KT 1 1/4SM -SN BKN015 OVC022 M06/M08
A2992 RMK AO2

000
SAUS70 KWBC 031940
MTRBAX
METAR KBAX 031937Z AUTO 36015G22KT 1SM -SN OVC017 M06/M07 A2991 RMK
AO2

000
SAUS70 KWBC 031920 RRA
MTRBAX
METAR KBAX 031917Z AUTO 01018G23KT 3/4SM -SN OVC015 M06/M07 A2991 RMK
AO2

000
SAUS70 KWBC 031900 RRB
MTRBAX
METAR KBAX 031855Z AUTO 01017G23KT 1 1/4SM -SN OVC011 M05/M07 A2990 RMK
AO2

000
SAUS70 KWBC 031840
MTRBAX
METAR KBAX 031837Z AUTO 01017G22KT 3/4SM -SN OVC011 M05/M07 A2989 RMK
AO2

000
SAUS70 KWBC 031820
MTRBAX
METAR KBAX 031817Z AUTO 01013G20KT 1 1/2SM -SN OVC011 M04/M06 A2989 RMK
AO2

000
SAUS70 KWBC 031800 RRA
MTRBAX
METAR KBAX 031755Z AUTO 36005KT 1SM -SN BKN004 OVC013 M05/M06 A2989 RMK
AO2 VIS 3/4V3

000
SAUS70 KWBC 031740
MTRBAX
METAR KBAX 031737Z AUTO 35006KT 3/4SM -SN OVC004 M06/M07 A2989 RMK
AO2

000
SAUS70 KWBC 031720
MTRBAX
METAR KBAX 031717Z AUTO 00000KT 7SM SCT025 BKN040 OVC048 M04/M07 A2989
RMK AO2

000
SAUS70 KWBC 031700 RRB
MTRBAX
METAR KBAX 031655Z AUTO 00000KT 4SM -SN BKN032 BKN040 OVC049 M05/M08
A2989 RMK AO2

000
SAUS70 KWBC 031640
MTRBAX
METAR KBAX 031637Z AUTO 00000KT 5SM BR SCT032 BKN044 OVC049 M06/M08
A2990 RMK AO2

000
SAUS70 KWBC 031620
MTRBAX
METAR KBAX 031617Z AUTO 18003KT 1 1/2SM -SN BKN008 OVC032 M06/M08 A2990
RMK AO2

000
SAUS70 KWBC 031600 RRA
MTRBAX
METAR KBAX 031555Z AUTO 24007KT 1 1/2SM -SN BKN006 OVC009 M06/M08 A2989
RMK AO2

000
SAUS70 KWBC 031540 RRA
MTRBAX
METAR KBAX 031537Z AUTO 26007KT 1/2SM -SN OVC004 M07/M08 A2989 RMK
AO2

000
SAUS70 KWBC 031520 RRA
MTRBAX
METAR KBAX 031517Z AUTO 25005KT 10SM SCT048 BKN060 OVC075 M07/M09 A2990
RMK AO2

000
SAUS70 KWBC 031500 RRA
MTRBAX
METAR KBAX 031455Z AUTO 25006KT 10SM SCT045 SCT060 BKN070 M08/M11 A2990
RMK AO2

000
SAUS70 KWBC 031440 RRA
MTRBAX
METAR KBAX 031437Z AUTO 25005KT 10SM BKN047 BKN070 BKN095 M09/M11 A2990
RMK AO2

000
SAUS70 KWBC 031420
MTRBAX
METAR KBAX 031417Z AUTO 26004KT 10SM BKN050 OVC055 M09/M12 A2990 RMK
AO2

000
SAUS70 KWBC 031400 RRB
MTRBAX
METAR KBAX 031355Z AUTO 26004KT 10SM BKN065 OVC070 M11/M12 A2990 RMK
AO2

000
SAUS70 KWBC 031340 RRA
MTRBAX
METAR KBAX 031337Z AUTO 26005KT 10SM SCT050 OVC065 M11/M12 A2991 RMK
AO2

000
SAUS70 KWBC 031320
MTRBAX
METAR KBAX 031317Z AUTO 26003KT 10SM SCT048 OVC065 M11/M13 A2991 RMK
AO2

000
SAUS70 KWBC 031300 RRA
MTRBAX
METAR KBAX 031255Z AUTO 25003KT 10SM SCT050 OVC065 M11/M13 A2991 RMK
AO2

000
SAUS70 KWBC 031240
MTRBAX
METAR KBAX 031237Z AUTO 26003KT 10SM SCT050 BKN065 OVC075 M12/M13 A2990
RMK AO2

000
SAUS70 KWBC 031220 RRA
MTRBAX
METAR KBAX 031217Z AUTO 00000KT 10SM SCT050 BKN065 OVC100 M11/M13 A2990
RMK AO2

000
SAUS70 KWBC 031200 RRC
MTRBAX
METAR KBAX 031155Z AUTO 00000KT 10SM OVC100 M11/M13 A2990 RMK AO2

000
SAUS70 KWBC 031140
MTRBAX
METAR KBAX 031137Z AUTO 24003KT 10SM OVC100 M11/M13 A2990 RMK AO2

000
SAUS70 KWBC 031120 RRA
MTRBAX
METAR KBAX 031117Z AUTO 26003KT 10SM BKN100 M11/M12 A2989 RMK AO2

000
SAUS70 KWBC 031100 RRA
MTRBAX
METAR KBAX 031055Z AUTO 30003KT 10SM SCT100 M13/M14 A2989 RMK AO2

000
SAUS70 KWBC 031040
MTRBAX
METAR KBAX 031037Z AUTO 32003KT 10SM CLR M12/M13 A2990 RMK AO2

000
SAUS70 KWBC 031020
MTRBAX
METAR KBAX 031017Z AUTO 00000KT 10SM CLR M11/M13 A2990 RMK AO2

000
SAUS70 KWBC 031000
MTRBAX
METAR KBAX 030955Z AUTO 28004KT 10SM SCT100 M09/M12 A2990 RMK AO2

000
SAUS70 KWBC 030940 RRA
MTRBAX
METAR KBAX 030937Z AUTO 00000KT 10SM SCT100 M11/M12 A2991 RMK AO2

