000
SAUS80 KWBC 060918
MTRLYV
METAR KLYV 060915Z AUTO 00000KT 7SM CLR M06/M07 A2990 RMK AO2

000
SAUS80 KWBC 060900
MTRLYV
METAR KLYV 060855Z AUTO 00000KT 7SM CLR M06/M07 A2991 RMK AO2

000
SAUS80 KWBC 060836
MTRLYV
METAR KLYV 060835Z AUTO 00000KT 7SM CLR M06/M07 A2992 RMK AO2

000
SAUS80 KWBC 060816
MTRLYV
METAR KLYV 060815Z AUTO 00000KT 7SM CLR M06/M07 A2993 RMK AO2

000
SAUS80 KWBC 060800
MTRLYV
METAR KLYV 060755Z AUTO 00000KT 7SM CLR M05/M06 A2993 RMK AO2

000
SAUS80 KWBC 060738
MTRLYV
METAR KLYV 060735Z AUTO 00000KT 5SM BR CLR M05/M07 A2994 RMK AO2

000
SAUS80 KWBC 060716
MTRLYV
METAR KLYV 060715Z AUTO 00000KT 5SM BR CLR M05/M07 A2995 RMK AO2

000
SAUS80 KWBC 060700
MTRLYV
METAR KLYV 060655Z AUTO 00000KT 5SM BR CLR M06/M07 A2996 RMK AO2

000
SAUS80 KWBC 060638
MTRLYV
METAR KLYV 060635Z AUTO 00000KT 5SM BR CLR M05/M06 A2996 RMK AO2

000
SAUS80 KWBC 060616
MTRLYV
METAR KLYV 060615Z AUTO 00000KT 7SM CLR M05/M06 A2997 RMK AO2

000
SAUS80 KWBC 060600 CCA
MTRLYV
METAR KLYV 060555Z AUTO 00000KT 5SM BR CLR M05/M06 A2997 RMK AO2

000
SAUS80 KWBC 060538
MTRLYV
METAR KLYV 060535Z AUTO 00000KT 7SM CLR M03/M05 A2998 RMK AO2

000
SAUS80 KWBC 060516
MTRLYV
METAR KLYV 060515Z AUTO 00000KT 7SM CLR M04/M06 A2998 RMK AO2

000
SAUS80 KWBC 060500
MTRLYV
METAR KLYV 060455Z AUTO 00000KT 7SM CLR M03/M05 A2998 RMK AO2

000
SAUS80 KWBC 060436
MTRLYV
METAR KLYV 060435Z AUTO 15003KT 7SM CLR M03/M05 A2997 RMK AO2

000
SAUS80 KWBC 060418
MTRLYV
METAR KLYV 060415Z AUTO 00000KT 7SM CLR M03/M05 A2999 RMK AO2

000
SAUS80 KWBC 060400 CCA
MTRLYV
METAR KLYV 060355Z AUTO 00000KT 7SM CLR M03/M05 A2999 RMK AO2

000
SAUS80 KWBC 060338
MTRLYV
METAR KLYV 060335Z AUTO 00000KT 7SM CLR M03/M04 A2999 RMK AO2

000
SAUS80 KWBC 060316
MTRLYV
METAR KLYV 060315Z AUTO 00000KT 7SM CLR M02/M03 A3000 RMK AO2

000
SAUS80 KWBC 060300 RRC
MTRLYV
METAR KLYV 060255Z AUTO 00000KT 7SM CLR M02/M04 A3001 RMK AO2

000
SAUS80 KWBC 060238
MTRLYV
METAR KLYV 060235Z AUTO 16003KT 7SM CLR M02/M03 A3001 RMK AO2

000
SAUS80 KWBC 060218
MTRLYV
METAR KLYV 060215Z AUTO 00000KT 10SM CLR M01/M03 A3002 RMK AO2

000
SAUS80 KWBC 060200 RRA
MTRLYV
METAR KLYV 060155Z AUTO 19003KT 10SM CLR M01/M03 A3002 RMK AO2

000
SAUS80 KWBC 060136
MTRLYV
METAR KLYV 060135Z AUTO 19003KT 10SM CLR M01/M03 A3002 RMK AO2

000
SAUS80 KWBC 060118
MTRLYV
METAR KLYV 060115Z AUTO 16003KT 10SM CLR M01/M03 A3001 RMK AO2

000
SAUS80 KWBC 060100 RRC
MTRLYV
METAR KLYV 060055Z AUTO 00000KT 10SM CLR 00/M02 A3001 RMK AO2

000
SAUS80 KWBC 060038
MTRLYV
METAR KLYV 060035Z AUTO 00000KT 10SM CLR 00/M02 A3001 RMK AO2

000
SAUS80 KWBC 060018
MTRLYV
METAR KLYV 060015Z AUTO 00000KT 10SM CLR 00/M02 A3000 RMK AO2

000
SAUS80 KWBC 060000 RRC
MTRLYV
METAR KLYV 052355Z AUTO 00000KT 10SM CLR 01/M02 A3000 RMK AO2

000
SAUS80 KWBC 052318
MTRLYV
METAR KLYV 052315Z AUTO 00000KT 10SM CLR 03/M01 A3000 RMK AO2

000
SAUS80 KWBC 052300 CCA
MTRLYV
METAR KLYV 052255Z AUTO 13003KT 10SM CLR 04/M01 A3000 RMK AO2

000
SAUS80 KWBC 052238
MTRLYV
METAR KLYV 052235Z AUTO 12003KT 10SM CLR 05/M02 A3000 RMK AO2

000
SAUS80 KWBC 052216
MTRLYV
METAR KLYV 052215Z AUTO 00000KT 10SM CLR 05/M01 A2999 RMK AO2

000
SAUS80 KWBC 052200 RRB
MTRLYV
METAR KLYV 052155Z AUTO 00000KT 10SM CLR 06/M02 A2999 RMK AO2

000
SAUS80 KWBC 052138
MTRLYV
METAR KLYV 052135Z AUTO 00000KT 10SM CLR 06/M02 A2999 RMK AO2

000
SAUS80 KWBC 052118
MTRLYV
METAR KLYV 052115Z AUTO 00000KT 10SM CLR 06/M02 A2999 RMK AO2

000
SAUS80 KWBC 052100 RRC
MTRLYV
METAR KLYV 052055Z AUTO 00000KT 10SM CLR 06/M03 A2999 RMK AO2

000
SAUS80 KWBC 052036
MTRLYV
METAR KLYV 052035Z AUTO 26004KT 10SM CLR 05/M02 A2999 RMK AO2

000
SAUS80 KWBC 052018
MTRLYV
METAR KLYV 052015Z AUTO 00000KT 10SM CLR 05/M02 A2999 RMK AO2

000
SAUS80 KWBC 052000 RRB
MTRLYV
METAR KLYV 051955Z AUTO 33003KT 10SM CLR 05/M03 A2998 RMK AO2

000
SAUS80 KWBC 051938
MTRLYV
METAR KLYV 051935Z AUTO 00000KT 10SM CLR 04/M03 A2999 RMK AO2

000
SAUS80 KWBC 051918
MTRLYV
METAR KLYV 051915Z AUTO 00000KT 10SM CLR 03/M04 A2999 RMK AO2

000
SAUS80 KWBC 051900 RRC
MTRLYV
METAR KLYV 051855Z AUTO 33003KT 10SM CLR 02/M05 A2999 RMK AO2

000
SAUS80 KWBC 051836
MTRLYV
METAR KLYV 051835Z AUTO 33004KT 10SM CLR 02/M05 A2999 RMK AO2

000
SAUS80 KWBC 051818
MTRLYV
METAR KLYV 051815Z AUTO 00000KT 10SM CLR 01/M05 A2999 RMK AO2

000
SAUS80 KWBC 051800 RRC
MTRLYV
METAR KLYV 051755Z AUTO 00000KT 10SM CLR 00/M06 A2999 RMK AO2

000
SAUS80 KWBC 051736
MTRLYV
METAR KLYV 051735Z AUTO 00000KT 10SM CLR 00/M06 A3000 RMK AO2

000
SAUS80 KWBC 051718
MTRLYV
METAR KLYV 051715Z AUTO 00000KT 10SM CLR M01/M07 A3001 RMK AO2

000
SAUS80 KWBC 051700
MTRLYV
METAR KLYV 051655Z AUTO 00000KT 10SM CLR M02/M07 A3000 RMK AO2

000
SAUS80 KWBC 051638
MTRLYV
METAR KLYV 051635Z AUTO 00000KT 10SM CLR M02/M07 A3000 RMK AO2

000
SAUS80 KWBC 051618
MTRLYV
METAR KLYV 051615Z AUTO 21004KT 10SM CLR M04/M08 A2999 RMK AO2

000
SAUS80 KWBC 051600 RRB
MTRLYV
METAR KLYV 051555Z AUTO 00000KT 10SM CLR M05/M09 A3000 RMK AO2

000
SAUS80 KWBC 051538
MTRLYV
METAR KLYV 051535Z AUTO 00000KT 10SM CLR M06/M09 A3000 RMK AO2

000
SAUS80 KWBC 051516
MTRLYV
METAR KLYV 051515Z AUTO 00000KT 10SM CLR M07/M10 A2999 RMK AO2

000
SAUS80 KWBC 051500 RRC
MTRLYV
METAR KLYV 051455Z AUTO 00000KT 10SM CLR M07/M10 A2998 RMK AO2

000
SAUS80 KWBC 051438
MTRLYV
METAR KLYV 051435Z AUTO 00000KT 10SM CLR M08/M11 A2999 RMK AO2

000
SAUS80 KWBC 051416
MTRLYV
METAR KLYV 051415Z AUTO 00000KT 10SM CLR M09/M11 A2998 RMK AO2

000
SAUS80 KWBC 051400 RRB
MTRLYV
METAR KLYV 051355Z AUTO 00000KT 7SM CLR M09/M11 A2998 RMK AO2

000
SAUS80 KWBC 051336
MTRLYV
METAR KLYV 051335Z AUTO 18004KT 10SM CLR M10/M11 A2998 RMK AO2

000
SAUS80 KWBC 051318
MTRLYV
METAR KLYV 051315Z AUTO 19005KT 10SM CLR M08/M11 A2997 RMK AO2

000
SAUS80 KWBC 051300 RRB
MTRLYV
METAR KLYV 051255Z AUTO 00000KT 10SM CLR M08/M11 A2999 RMK AO2

000
SAUS80 KWBC 051236
MTRLYV
METAR KLYV 051235Z AUTO 00000KT 10SM CLR M07/M10 A2998 RMK AO2

000
SAUS80 KWBC 051216
MTRLYV
METAR KLYV 051215Z AUTO 17003KT 10SM CLR M07/M10 A2997 RMK AO2

000
SAUS80 KWBC 051200
MTRLYV
METAR KLYV 051155Z AUTO 19007KT 10SM CLR M07/M10 A2996 RMK AO2

000
SAUS80 KWBC 051136
MTRLYV
METAR KLYV 051135Z AUTO 21007KT 10SM CLR M07/M10 A2997 RMK AO2

000
SAUS80 KWBC 051116
MTRLYV
METAR KLYV 051115Z AUTO 20007KT 10SM CLR M07/M10 A2997 RMK AO2

000
SAUS80 KWBC 051100
MTRLYV
METAR KLYV 051055Z AUTO 20008KT 10SM CLR M07/M10 A2998 RMK AO2

000
SAUS80 KWBC 051038
MTRLYV
METAR KLYV 051035Z AUTO 19007KT 10SM CLR M06/M10 A2998 RMK AO2

000
SAUS80 KWBC 051018
MTRLYV
METAR KLYV 051015Z AUTO 19009KT 10SM CLR M06/M10 A2998 RMK AO2

000
SAUS80 KWBC 051000 RRB
MTRLYV
METAR KLYV 050955Z AUTO 19010KT 10SM CLR M06/M10 A2998 RMK AO2

000
SAUS80 KWBC 050938
MTRLYV
METAR KLYV 050935Z AUTO 19011KT 10SM CLR M06/M10 A2999 RMK AO2

000
SAUS80 KWBC 050918
MTRLYV
METAR KLYV 050915Z AUTO 19009KT 10SM CLR M06/M10 A3000 RMK AO2

000
SAUS80 KWBC 050900
MTRLYV
METAR KLYV 050855Z AUTO 19012KT 10SM CLR M06/M10 A3001 RMK AO2

000
SAUS80 KWBC 050838
MTRLYV
METAR KLYV 050835Z AUTO 19009KT 10SM CLR M06/M10 A3002 RMK AO2

000
SAUS80 KWBC 050818
MTRLYV
METAR KLYV 050815Z AUTO 19009KT 10SM CLR M06/M10 A3003 RMK AO2

000
SAUS80 KWBC 050800
MTRLYV
METAR KLYV 050755Z AUTO 19010KT 10SM CLR M06/M10 A3005 RMK AO2

000
SAUS80 KWBC 050738
MTRLYV
METAR KLYV 050735Z AUTO 19010KT 10SM CLR M06/M10 A3005 RMK AO2

000
SAUS80 KWBC 050718
MTRLYV
METAR KLYV 050715Z AUTO 18009KT 10SM CLR M07/M11 A3007 RMK AO2

000
SAUS80 KWBC 050700
MTRLYV
METAR KLYV 050655Z AUTO 18008KT 10SM CLR M07/M11 A3007 RMK AO2

000
SAUS80 KWBC 050636
MTRLYV
METAR KLYV 050635Z AUTO 18008KT 10SM CLR M07/M11 A3009 RMK AO2

000
SAUS80 KWBC 050616
MTRLYV
METAR KLYV 050615Z AUTO 17006KT 10SM CLR M07/M11 A3010 RMK AO2

000
SAUS80 KWBC 050600
MTRLYV
METAR KLYV 050555Z AUTO 18007KT 10SM CLR M07/M11 A3011 RMK AO2

000
SAUS80 KWBC 050538
MTRLYV
METAR KLYV 050535Z AUTO 17008KT 10SM CLR M06/M11 A3012 RMK AO2

000
SAUS80 KWBC 050516
MTRLYV
METAR KLYV 050515Z AUTO 17009KT 10SM CLR M07/M11 A3012 RMK AO2

000
SAUS80 KWBC 050500
MTRLYV
METAR KLYV 050455Z AUTO 18008KT 10SM CLR M07/M11 A3013 RMK AO2

000
SAUS80 KWBC 050436
MTRLYV
METAR KLYV 050435Z AUTO 17008KT 10SM CLR M07/M11 A3014 RMK AO2

000
SAUS80 KWBC 050418
MTRLYV
METAR KLYV 050415Z AUTO 18008KT 10SM CLR M07/M11 A3014 RMK AO2

000
SAUS80 KWBC 050400 CCA
MTRLYV
METAR KLYV 050355Z AUTO 17009KT 10SM CLR M07/M11 A3015 RMK AO2

000
SAUS80 KWBC 050338
MTRLYV
METAR KLYV 050335Z AUTO 17008KT 10SM CLR M07/M11 A3016 RMK AO2

000
SAUS80 KWBC 050318
MTRLYV
METAR KLYV 050315Z AUTO 17009KT 10SM CLR M07/M11 A3017 RMK AO2

000
SAUS80 KWBC 050300 RRC
MTRLYV
METAR KLYV 050255Z AUTO 17009KT 10SM CLR M07/M11 A3017 RMK AO2

000
SAUS80 KWBC 050238
MTRLYV
METAR KLYV 050235Z AUTO 17009KT 10SM CLR M07/M11 A3019 RMK AO2

000
SAUS80 KWBC 050218
MTRLYV
METAR KLYV 050215Z AUTO 17008KT 10SM CLR M07/M11 A3020 RMK AO2

000
SAUS80 KWBC 050200 RRA
MTRLYV
METAR KLYV 050155Z AUTO 16008KT 10SM CLR M07/M11 A3021 RMK AO2

000
SAUS80 KWBC 050138
MTRLYV
METAR KLYV 050135Z AUTO 16009KT 10SM CLR M07/M11 A3022 RMK AO2

000
SAUS80 KWBC 050118
MTRLYV
METAR KLYV 050115Z AUTO 16009KT 10SM CLR M07/M11 A3023 RMK AO2

000
SAUS80 KWBC 050100
MTRLYV
METAR KLYV 050055Z AUTO 17008KT 10SM CLR M06/M11 A3024 RMK AO2

000
SAUS80 KWBC 050036
MTRLYV
METAR KLYV 050035Z AUTO 16009KT 10SM CLR M06/M11 A3025 RMK AO2

000
SAUS80 KWBC 050018
MTRLYV
METAR KLYV 050015Z AUTO 17009KT 10SM CLR M06/M11 A3025 RMK AO2

000
SAUS80 KWBC 050000 RRC
MTRLYV
METAR KLYV 042355Z AUTO 18010KT 10SM CLR M06/M11 A3026 RMK AO2

000
SAUS80 KWBC 042338
MTRLYV
METAR KLYV 042335Z AUTO 18012KT 10SM CLR M06/M11 A3026 RMK AO2

000
SAUS80 KWBC 042318
MTRLYV
METAR KLYV 042315Z AUTO 18014KT 10SM CLR M05/M11 A3027 RMK AO2

000
SAUS80 KWBC 042300 RRB
MTRLYV
METAR KLYV 042255Z AUTO 18013G19KT 10SM CLR M05/M11 A3028 RMK AO2

000
SAUS80 KWBC 042238
MTRLYV
METAR KLYV 042235Z AUTO 18013KT 10SM CLR M05/M11 A3029 RMK AO2

000
SAUS80 KWBC 042216
MTRLYV
METAR KLYV 042215Z AUTO 17015KT 10SM CLR M05/M11 A3029 RMK AO2

000
SAUS80 KWBC 042200
MTRLYV
METAR KLYV 042155Z AUTO 17015KT 10SM CLR M05/M11 A3030 RMK AO2

000
SAUS80 KWBC 042136
MTRLYV
METAR KLYV 042135Z AUTO 17013KT 10SM CLR M06/M11 A3030 RMK AO2

000
SAUS80 KWBC 042116
MTRLYV
METAR KLYV 042115Z AUTO 18015G18KT 10SM CLR M05/M11 A3031 RMK AO2

000
SAUS80 KWBC 042100 RRC
MTRLYV
METAR KLYV 042055Z AUTO 17015KT 10SM CLR M06/M12 A3032 RMK AO2

000
SAUS80 KWBC 042036
MTRLYV
METAR KLYV 042035Z AUTO 16013KT 10SM CLR M06/M12 A3033 RMK AO2

000
SAUS80 KWBC 042016
MTRLYV
METAR KLYV 042015Z AUTO 17012G16KT 10SM CLR M06/M12 A3033 RMK AO2

000
SAUS80 KWBC 042000
MTRLYV
METAR KLYV 041955Z AUTO 16013KT 10SM CLR M07/M12 A3034 RMK AO2

000
SAUS80 KWBC 041938
MTRLYV
METAR KLYV 041935Z AUTO 18013KT 10SM CLR M07/M13 A3035 RMK AO2

000
SAUS80 KWBC 041918
MTRLYV
METAR KLYV 041915Z AUTO 16012KT 10SM CLR M07/M13 A3036 RMK AO2

000
SAUS80 KWBC 041900 CCA
MTRLYV
METAR KLYV 041855Z AUTO 17012KT 10SM CLR M08/M13 A3038 RMK AO2

000
SAUS80 KWBC 041836
MTRLYV
METAR KLYV 041835Z AUTO 17011KT 10SM CLR M08/M14 A3040 RMK AO2

000
SAUS80 KWBC 041816
MTRLYV
METAR KLYV 041815Z AUTO 18013KT 10SM CLR M09/M14 A3042 RMK AO2

000
SAUS80 KWBC 041800
MTRLYV
METAR KLYV 041755Z AUTO 18011KT 10SM CLR M11/M15 A3043 RMK AO2

000
SAUS80 KWBC 041738
MTRLYV
METAR KLYV 041735Z AUTO 18009KT 10SM CLR M11/M15 A3044 RMK AO2

000
SAUS80 KWBC 041718
MTRLYV
METAR KLYV 041715Z AUTO 18010KT 10SM CLR M12/M16 A3045 RMK AO2

000
SAUS80 KWBC 041700
MTRLYV
METAR KLYV 041655Z AUTO 17008KT 10SM SCT024 M13/M16 A3046 RMK AO2

000
SAUS80 KWBC 041638
MTRLYV
METAR KLYV 041635Z AUTO 17008KT 10SM BKN024 M13/M17 A3046 RMK AO2

000
SAUS80 KWBC 041616
MTRLYV
METAR KLYV 041615Z AUTO 17009KT 10SM OVC024 M15/M17 A3047 RMK AO2

000
SAUS80 KWBC 041600 RRB
MTRLYV
METAR KLYV 041555Z AUTO 18008KT 10SM OVC024 M15/M18 A3047 RMK AO2

000
SAUS80 KWBC 041538
MTRLYV
METAR KLYV 041535Z AUTO 18008KT 10SM BKN024 M16/M18 A3048 RMK AO2

000
SAUS80 KWBC 041518
MTRLYV
METAR KLYV 041515Z AUTO 16007KT 10SM CLR M16/M19 A3047 RMK AO2

000
SAUS80 KWBC 041500
MTRLYV
METAR KLYV 041455Z AUTO 15006KT 10SM CLR M17/M20 A3047 RMK AO2

000
SAUS80 KWBC 041438
MTRLYV
METAR KLYV 041435Z AUTO 00000KT 10SM CLR M18/M20 A3047 RMK AO2

000
SAUS80 KWBC 041418
MTRLYV
METAR KLYV 041415Z AUTO 15004KT 10SM CLR M18/M21 A3046 RMK AO2

000
SAUS80 KWBC 041400
MTRLYV
METAR KLYV 041355Z AUTO 00000KT 10SM CLR M18/M21 A3047 RMK AO2

000
SAUS80 KWBC 041338
MTRLYV
METAR KLYV 041335Z AUTO 00000KT 10SM CLR M19/M21 A3047 RMK AO2

000
SAUS80 KWBC 041316
MTRLYV
METAR KLYV 041315Z AUTO 00000KT 10SM CLR M19/M22 A3047 RMK AO2

000
SAUS80 KWBC 041300 RRC
MTRLYV
METAR KLYV 041255Z AUTO 00000KT 10SM CLR M19/M22 A3048 RMK AO2

000
SAUS80 KWBC 041238
MTRLYV
METAR KLYV 041235Z AUTO 00000KT 10SM CLR M19/M22 A3048 RMK AO2

000
SAUS80 KWBC 041200 RRF
MTRLYV
METAR KLYV 041215Z AUTO 00000KT 10SM CLR M19/M22 A3048 RMK AO2

000
SAUS80 KWBC 041200
MTRLYV
METAR KLYV 041155Z AUTO 00000KT 10SM CLR M19/M22 A3048 RMK AO2

000
SAUS80 KWBC 041138
MTRLYV
METAR KLYV 041135Z AUTO 00000KT 10SM CLR M19/M22 A3048 RMK AO2

000
SAUS80 KWBC 041118
MTRLYV
METAR KLYV 041115Z AUTO 00000KT 10SM CLR M19/M21 A3048 RMK AO2

000
SAUS80 KWBC 041100
MTRLYV
METAR KLYV 041055Z AUTO 00000KT 10SM CLR M19/M22 A3048 RMK AO2

000
SAUS80 KWBC 041038
MTRLYV
METAR KLYV 041035Z AUTO 00000KT 10SM CLR M19/M22 A3048 RMK AO2

000
SAUS80 KWBC 041016
MTRLYV
METAR KLYV 041015Z AUTO 00000KT 10SM CLR M18/M21 A3048 RMK AO2

000
SAUS80 KWBC 041000 RRB
MTRLYV
METAR KLYV 040955Z AUTO 00000KT 10SM CLR M18/M21 A3048 RMK AO2

000
SAUS80 KWBC 040938
MTRLYV
METAR KLYV 040935Z AUTO 00000KT 10SM CLR M18/M21 A3048 RMK AO2

000
SAUS80 KWBC 040918
MTRLYV
METAR KLYV 040915Z AUTO 00000KT 10SM CLR M18/M21 A3048 RMK AO2

000
SAUS80 KWBC 040900 RRC
MTRLYV
METAR KLYV 040855Z AUTO 00000KT 10SM CLR M18/M21 A3048 RMK AO2

000
SAUS80 KWBC 040836
MTRLYV
METAR KLYV 040835Z AUTO 09003KT 10SM CLR M18/M21 A3048 RMK AO2

000
SAUS80 KWBC 040818
MTRLYV
METAR KLYV 040815Z AUTO 00000KT 10SM CLR M18/M21 A3047 RMK AO2

000
SAUS80 KWBC 040800
MTRLYV
METAR KLYV 040755Z AUTO 00000KT 10SM CLR M18/M21 A3048 RMK AO2

000
SAUS80 KWBC 040738
MTRLYV
METAR KLYV 040735Z AUTO 00000KT 10SM CLR M18/M21 A3047 RMK AO2

000
SAUS80 KWBC 040716
MTRLYV
METAR KLYV 040715Z AUTO 00000KT 10SM CLR M18/M21 A3048 RMK AO2

000
SAUS80 KWBC 040700
MTRLYV
METAR KLYV 040655Z AUTO 00000KT 10SM CLR M18/M21 A3048 RMK AO2

000
SAUS80 KWBC 040636
MTRLYV
METAR KLYV 040635Z AUTO 00000KT 10SM CLR M18/M21 A3048 RMK AO2

000
SAUS80 KWBC 040618
MTRLYV
METAR KLYV 040615Z AUTO 00000KT 10SM CLR M18/M20 A3048 RMK AO2

000
SAUS80 KWBC 040600 RRC
MTRLYV
METAR KLYV 040555Z AUTO 00000KT 10SM CLR M17/M20 A3047 RMK AO2

000
SAUS80 KWBC 040536
MTRLYV
METAR KLYV 040535Z AUTO 00000KT 10SM CLR M17/M20 A3048 RMK AO2

000
SAUS80 KWBC 040518
MTRLYV
METAR KLYV 040515Z AUTO 00000KT 10SM CLR M17/M20 A3048 RMK AO2

000
SAUS80 KWBC 040500 RRB
MTRLYV
METAR KLYV 040455Z AUTO 00000KT 10SM CLR M16/M19 A3048 RMK AO2

000
SAUS80 KWBC 040438
MTRLYV
METAR KLYV 040435Z AUTO 04003KT 10SM CLR M16/M19 A3047 RMK AO2

000
SAUS80 KWBC 040418
MTRLYV
METAR KLYV 040415Z AUTO 00000KT 10SM CLR M17/M19 A3048 RMK AO2

000
SAUS80 KWBC 040400 RRB
MTRLYV
METAR KLYV 040355Z AUTO 00000KT 10SM CLR M16/M19 A3048 RMK AO2

000
SAUS80 KWBC 040338
MTRLYV
METAR KLYV 040335Z AUTO 01003KT 10SM CLR M17/M20 A3048 RMK AO2

000
SAUS80 KWBC 040316
MTRLYV
METAR KLYV 040315Z AUTO 35003KT 10SM CLR M16/M19 A3049 RMK AO2

000
SAUS80 KWBC 040300
MTRLYV
METAR KLYV 040255Z AUTO 00000KT 10SM CLR M16/M19 A3048 RMK AO2

000
SAUS80 KWBC 040236
MTRLYV
METAR KLYV 040235Z AUTO 00000KT 10SM CLR M15/M18 A3049 RMK AO2

000
SAUS80 KWBC 040216
MTRLYV
METAR KLYV 040215Z AUTO 34004KT 10SM CLR M15/M18 A3049 RMK AO2

000
SAUS80 KWBC 040200 RRC
MTRLYV
METAR KLYV 040155Z AUTO 34004KT 10SM CLR M15/M18 A3048 RMK AO2

000
SAUS80 KWBC 040138
MTRLYV
METAR KLYV 040135Z AUTO 34003KT 10SM CLR M15/M18 A3048 RMK AO2

000
SAUS80 KWBC 040116
MTRLYV
METAR KLYV 040115Z AUTO 34004KT 10SM CLR M14/M17 A3048 RMK AO2

000
SAUS80 KWBC 040100 RRC
MTRLYV
METAR KLYV 040055Z AUTO 34003KT 10SM CLR M13/M17 A3048 RMK AO2

000
SAUS80 KWBC 040038
MTRLYV
METAR KLYV 040035Z AUTO 33004KT 10SM CLR M13/M17 A3048 RMK AO2

000
SAUS80 KWBC 040000 RRE
MTRLYV
METAR KLYV 040015Z AUTO 32006KT 10SM CLR M13/M17 A3048 RMK AO2

000
SAUS80 KWBC 040000
MTRLYV
METAR KLYV 032355Z AUTO 33005KT 10SM CLR M13/M16 A3047 RMK AO2

000
SAUS80 KWBC 032336
MTRLYV
METAR KLYV 032335Z AUTO 32006KT 10SM CLR M12/M16 A3047 RMK AO2

000
SAUS80 KWBC 032318
MTRLYV
METAR KLYV 032315Z AUTO 33005KT 10SM CLR M11/M16 A3047 RMK AO2

000
SAUS80 KWBC 032300 RRA
MTRLYV
METAR KLYV 032255Z AUTO 35006KT 10SM CLR M11/M16 A3046 RMK AO2

000
SAUS80 KWBC 032236
MTRLYV
METAR KLYV 032235Z AUTO 35005KT 10SM CLR M11/M16 A3045 RMK AO2

000
SAUS80 KWBC 032216
MTRLYV
METAR KLYV 032215Z AUTO 36007KT 10SM CLR M10/M16 A3045 RMK AO2

000
SAUS80 KWBC 032200
MTRLYV
METAR KLYV 032155Z AUTO 02006KT 10SM CLR M11/M16 A3045 RMK AO2

000
SAUS80 KWBC 032138
MTRLYV
METAR KLYV 032135Z AUTO 35004KT 10SM CLR M11/M16 A3045 RMK AO2

000
SAUS80 KWBC 032118
MTRLYV
METAR KLYV 032115Z AUTO 35005KT 10SM CLR M10/M16 A3044 RMK AO2

000
SAUS80 KWBC 032100
MTRLYV
METAR KLYV 032055Z AUTO 34003KT 10SM CLR M11/M16 A3044 RMK AO2

000
SAUS80 KWBC 032038
MTRLYV
METAR KLYV 032035Z AUTO 36006KT 10SM CLR M11/M16 A3044 RMK AO2

000
SAUS80 KWBC 032018
MTRLYV
METAR KLYV 032015Z AUTO 32005KT 10SM CLR M11/M17 A3044 RMK AO2

000
SAUS80 KWBC 032000 RRB
MTRLYV
METAR KLYV 031955Z AUTO 33005KT 10SM CLR M11/M17 A3044 RMK AO2

000
SAUS80 KWBC 031936
MTRLYV
METAR KLYV 031935Z AUTO 34006KT 10SM CLR M12/M17 A3044 RMK AO2

000
SAUS80 KWBC 031918
MTRLYV
METAR KLYV 031915Z AUTO 36005KT 10SM CLR M12/M17 A3045 RMK AO2

000
SAUS80 KWBC 031900 RRA
MTRLYV
METAR KLYV 031855Z AUTO 01007KT 10SM CLR M12/M18 A3045 RMK AO2

000
SAUS80 KWBC 031836
MTRLYV
METAR KLYV 031835Z AUTO 36008KT 10SM CLR M13/M18 A3046 RMK AO2

000
SAUS80 KWBC 031816
MTRLYV
METAR KLYV 031815Z AUTO 34008KT 10SM CLR M13/M18 A3047 RMK AO2

000
SAUS80 KWBC 031800
MTRLYV
METAR KLYV 031755Z AUTO 35006KT 10SM CLR M14/M19 A3048 RMK AO2

000
SAUS80 KWBC 031738
MTRLYV
METAR KLYV 031735Z AUTO 33007KT 10SM CLR M15/M20 A3048 RMK AO2

000
SAUS80 KWBC 031718
MTRLYV
METAR KLYV 031715Z AUTO 33007KT 10SM CLR M16/M20 A3048 RMK AO2

000
SAUS80 KWBC 031700 RRB
MTRLYV
METAR KLYV 031655Z AUTO 33006KT 10SM CLR M16/M20 A3048 RMK AO2

000
SAUS80 KWBC 031636
MTRLYV
METAR KLYV 031635Z AUTO 35005KT 10SM CLR M17/M21 A3047 RMK AO2

000
SAUS80 KWBC 031618
MTRLYV
METAR KLYV 031615Z AUTO 35007KT 10SM CLR M17/M22 A3047 RMK AO2

000
SAUS80 KWBC 031600 RRA
MTRLYV
METAR KLYV 031555Z AUTO 35007KT 10SM CLR M18/M22 A3046 RMK AO2

000
SAUS80 KWBC 031536
MTRLYV
METAR KLYV 031535Z AUTO 36007KT 10SM CLR M19/M23 A3045 RMK AO2

000
SAUS80 KWBC 031518
MTRLYV
METAR KLYV 031515Z AUTO 35008KT 10SM CLR M20/M23 A3045 RMK AO2

000
SAUS80 KWBC 031500 RRC
MTRLYV
METAR KLYV 031455Z AUTO 33007KT 10SM CLR M20/M24 A3044 RMK AO2

000
SAUS80 KWBC 031436
MTRLYV
METAR KLYV 031435Z AUTO 34008KT 10SM CLR M21/M25 A3043 RMK AO2

000
SAUS80 KWBC 031418
MTRLYV
METAR KLYV 031415Z AUTO 33007KT 10SM CLR M21/M25 A3043 RMK AO2

000
SAUS80 KWBC 031400 RRB
MTRLYV
METAR KLYV 031355Z AUTO 32007KT 10SM CLR M22/M25 A3042 RMK AO2

000
SAUS80 KWBC 031338
MTRLYV
METAR KLYV 031335Z AUTO 32005KT 10SM CLR M22/M25 A3041 RMK AO2

000
SAUS80 KWBC 031318
MTRLYV
METAR KLYV 031315Z AUTO 31004KT 10SM CLR M22/M25 A3041 RMK AO2

000
SAUS80 KWBC 031300 RRB
MTRLYV
METAR KLYV 031255Z AUTO 31005KT 10SM CLR M21/M25 A3040 RMK AO2

000
SAUS80 KWBC 031236
MTRLYV
METAR KLYV 031235Z AUTO 35006KT 10SM CLR M21/M24 A3039 RMK AO2

000
SAUS80 KWBC 031218
MTRLYV
METAR KLYV 031215Z AUTO 36006KT 10SM CLR M21/M24 A3039 RMK AO2

000
SAUS80 KWBC 031200 CCA
MTRLYV
METAR KLYV 031155Z AUTO 34004KT 10SM CLR M21/M24 A3038 RMK AO2

000
SAUS80 KWBC 031136
MTRLYV
METAR KLYV 031135Z AUTO 34006KT 10SM CLR M21/M24 A3038 RMK AO2

000
SAUS80 KWBC 031116
MTRLYV
METAR KLYV 031115Z AUTO 35007KT 10SM CLR M21/M24 A3038 RMK AO2

000
SAUS80 KWBC 031100
MTRLYV
METAR KLYV 031055Z AUTO 35008KT 10SM CLR M21/M24 A3037 RMK AO2

000
SAUS80 KWBC 031038
MTRLYV
METAR KLYV 031035Z AUTO 36008KT 10SM CLR M20/M24 A3037 RMK AO2

000
SAUS80 KWBC 031018
MTRLYV
METAR KLYV 031015Z AUTO 35007KT 10SM CLR M20/M24 A3038 RMK AO2

000
SAUS80 KWBC 031000 RRA
MTRLYV
METAR KLYV 030955Z AUTO 33006KT 10SM CLR M20/M24 A3039 RMK AO2

000
SAUS80 KWBC 030938
MTRLYV
METAR KLYV 030935Z AUTO 32005KT 10SM CLR M20/M24 A3039 RMK AO2

