2008/09/12 08:00
TAF FKKN 120800Z 120918 36004KT 9999 SCT020 BKN300 
      BECMG 1417 BKN020 FEW026CB 
      TEMPO PROB30 4000 TSRA BKN020 FEW023CB
