####018000241####
SNHK22 VHHH 150815
AAXX 15081
45032 36/// /0804 10213 20197 30101 40118 57001=
45035 36/// /1406 10258 20207 30066 40107 54000=
45039 36/// /0803 10213 20199 30103 40117 57002=
45044 36/// /0905 10219 20208 30028 40120 54000=

####018000067####
SNAL56 EUMS 150800
AAXX 15084
60692 46/// /0000 10184 21158=
####018000071####
SNAL52 EUMS 150800 RRA
AAXX 15084
60633 46/// /1301 10140 21153=
####018000071####
SNAL54 EUMS 150800 RRB
AAXX 15084
60676 46/// /0926 10139 21063=
####018000067####
SNAL53 EUMS 150800
AAXX 15084
60662 46/// /1711 10143 21103=
####018000067####
SNAL58 EUMS 150800
AAXX 15084
60683 46/// /0705 10151 21180=
####018000067####
SNAL55 EUMS 150800
AAXX 15084
60617 46/// /0424 10115 21032=
####018000071####
SNAL54 EUMS 150800 RRC
AAXX 15084
60677 46/// /0000 10132 21087=
####018000067####
SNAL52 EUMS 150800
AAXX 15084
60667 46/// /1410 10156 21064=
####018000071####
SNAL53 EUMS 150800 RRA
AAXX 15084
60660 46/// /3403 10184 21075=
####018000071####
SNAL51 EUMS 150800 RRB
AAXX 15084
60664 46/// /2902 10136 21092=
####018000071####
SNAL52 EUMS 150800 RRB
AAXX 15084
60661 46/// /1605 10093 21114=
####018000071####
SNAL51 EUMS 150800 RRC
AAXX 15084
60672 46/// /3306 10120 21106=
####018000067####
SNAL57 EUMS 150800
AAXX 15084
60691 46/// /0603 10179 21180=
####018000215####
SIMG21 FMMI 150300 RRA
AAXX 15034
67020 33581 31402 10246 20209 30086 40113 55000 83802
  333 81820 83640
  555 81073=
67023 21465 62008 10246 20234 30112 40118 71522 86800
  333 60242 83817 84640=

####018001129####
SMET01 HAAB 150600
AAXX 15061
63330 31575 70804 10164 20087 37787 40254 7050/ 87500 333 20128 59006
87620=
63331 11558 10203 10200 20119 38074 40124 60034 7051/ 81100 333 20140
59011
81825=
63332 32880 31702 10214 20106 38211 40086 83030 333 20135 59013
83358=
63333 31565 20000 10194 20123 38159 40151 7051/ 81130 333 20130 59015
81825
82357=
63334 NIL=
63340 12580 71801 10154 20121 37934 40153 69974 83530 333 20146 59010
83625
87358=
63402 31965 00000 10160 20152 38356 4//// 7100/ 333 20110 59014=
63403 11570 70902 10136 20123 60114 710// 84570 333 20128 84624
87360=
63450 32980 01603 10180 20083 37730 40095 333 20120 59006=
63451 31970 00802 10199 20126 38141 40126 70500 333 20097 59011=
63453 31965 00000 10216 20160 39061 7050/ 333 20180 59023=
63460 11978 00000 10184 20129 60034 7051/ 333 20108=
63471 32980 01803 10260 20124 38845 40091 333 20208 59019=
63474 33580 10000 10162 20107 81100 333 20060 81821=
63478 32980 01206 10258 20174 39798 40177 333 20210 59012=
63500 32580 61702 10259 20138 84830 333 20195 82823 82630 83358=
63533 NIL=

       

####018001113####
SMET01 HAAB 150600
AAXX 15061
63330 31575 70804 10164 20087 37787 40254 7050/ 87500 333 20128 59006
87620=
63331 11558 10203 10200 20119 38074 40124 60034 7051/ 81100 333 20140
59011
81825=
63332 32880 31702 10214 20106 38211 40086 83030 333 20135 59013
83358=
63333 31565 20000 10194 20123 38159 40151 7051/ 81130 333 20130 59015
81825
82357=
63334 NIL=
63340 12580 71801 10154 20121 37934 40153 69974 83530 333 20146 59010
83625
87358=
63402 31965 00000 10160 20152 38356 4//// 7100/ 333 20110 59014=
63403 11570 70902 10136 20123 60114 710// 84570 333 20128 84624
87360=
63450 32980 01603 10180 20083 37730 40095 333 20120 59006=
63451 31970 00802 10199 20126 38141 40126 70500 333 20097 59011=
63453 31965 00000 10216 20160 39061 7050/ 333 20180 59023=
63460 11978 00000 10184 20129 60034 7051/ 333 20108=
63471 32980 01803 10260 20124 38845 40091 333 20208 59019=
63474 33580 10000 10162 20107 81100 333 20060 81821=
63478 32980 01206 10258 20174 39798 40177 333 20210 59012=
63500 32580 61702 10259 20138 84830 333 20195 82823 82630 83358=
63533 NIL=
####018000411####
SIET20 HAAB 150300 RTD
AAXX 15031
63332 43580 41802 10148 20115 38210 40132 84830 333 59002 82825 82626
82358=
63334 NIL=
63402 41935 00000 10114 20112 38350 4//// 710// 333 59005=
63403 NIL=
63460 41570 30000 10110 20110 710// 81101 333 81822 83070=
63471 42980 21806 10228 20111 38837 40085 80001 333 59011 82070=
63474 NIL=
63533 42880 40604 10170 20103 84030 333 84358=

      

####018000134####
SMET01 HAAB 150600 RRA
AAXX 15061
63334 NIL=
63533 32580 61404 10212 20115 85830 333 20170 83824 82626 83358=

       

####018000131####
SMET01 HAAB 150600 RRA
AAXX 15061
63334 NIL=
63533 32580 61404 10212 20115 85830 333 20170 83824 82626 83358=

       
####018000451####
SMZR01 FZAA 150600
AAXX 15064
64005 NIL=
64006 NIL=
64008 NIL=
64018 NIL=
64040 NIL=
64076 NIL=
64108 NIL=
64115 NIL=
64126 NIL=
64146 NIL=
64155 NIL=
64180 NIL=
64184 NIL=
64207 NIL=
64210 12459 60000 10238 20222 39730 40078 60014 82501
  333 20235 59003 82618 86080=
64220 NIL=
64222 NIL=
64228 NIL=
64235 NIL=
64247 NIL=
64276 NIL=
64282 NIL=
64285 NIL=
64315 NIL=
64328 NIL=
64360 NIL=

####018000448####
SMZR01 FZAA 150600
AAXX 15064
64005 NIL=
64006 NIL=
64008 NIL=
64018 NIL=
64040 NIL=
64076 NIL=
64108 NIL=
64115 NIL=
64126 NIL=
64146 NIL=
64155 NIL=
64180 NIL=
64184 NIL=
64207 NIL=
64210 12459 60000 10238 20222 39730 40078 60014 82501
  333 20235 59003 82618 86080=
64220 NIL=
64222 NIL=
64228 NIL=
64235 NIL=
64247 NIL=
64276 NIL=
64282 NIL=
64285 NIL=
64315 NIL=
64328 NIL=
64360 NIL=
####018000468####
SMGO01 FOOL 150600
AAXX 15064
64500 11256 80606 10244 20238 30059 40073 60174 71796 8592/
  333 02099 20245 5///1 55063 59008 83703 85608 81916 88460 94941
95831 95834=
64501 12360 70000 10260 20251 30065 40075 60074 875//
  333 0//29 20257 50124 55040 59013 83608 87640=
64503 NIL=
64510 12360 8//// 10214 20208 3//// 4//// 60064 885//
  333 0//67 20210 50104 55/// 5//// 88607=
64550 NIL=
64551 NIL=
64552 NIL=
64556 NIL=
64565 NIL=

####018000465####
SMGO01 FOOL 150600
AAXX 15064
64500 11256 80606 10244 20238 30059 40073 60174 71796 8592/
  333 02099 20245 5///1 55063 59008 83703 85608 81916 88460 94941
95831 95834=
64501 12360 70000 10260 20251 30065 40075 60074 875//
  333 0//29 20257 50124 55040 59013 83608 87640=
64503 NIL=
64510 12360 8//// 10214 20208 3//// 4//// 60064 885//
  333 0//67 20210 50104 55/// 5//// 88607=
64550 NIL=
64551 NIL=
64552 NIL=
64556 NIL=
64565 NIL=
####018000136####
SMTN01 HTDA 150600 RRA
AAXX 15064
63801 32580 10905 20168 39204 48525 81901
  333 20186 50751 55117 55310 59006 81822 81923=

####018000150####
SIMG20 FMMI 141500 RRA
AAXX 14154
67072 21475 62016 10/// 20/// 30/// 40/// 5//// 71522 86800
  333 10/// 60011 86817 92437
  555 81640=

####018000133####
SMTN01 HTDA 150600 RRA
AAXX 15064
63801 32580 10905 20168 39204 48525 81901
  333 20186 50751 55117 55310 59006 81822 81923=
####018000130####
SIMG20 FMMI 150300 RRB
AAXX 15034
67072 21470 72616 10/// 20/// 30/// 40/// 5//// 71522 872//
  333 60052 87817 92428=

####018000089####
SNPS40 AMMC 150700 RRE
AAXX 15074
92036 46/// /9901 10262 40065 22200 00309=


####018000127####
SNVD17 KWNB 150800 RRD
BBXX
46238 15081 99334 71195 46/// ///// 1//// 90759 22200 00129 11304
21002 329// 41303 70018=
####018000127####
SNVD22 KWNB 150800 RRJ
BBXX
46240 15081 99366 71219 46/// ///// 1//// 90815 22200 00123 11202
21001 335// 41201 70008=
####018000109####
SNVD15 KWNB 150800 RRM
BBXX
42099 15081 99273 70842 46/// ///// 1//// 90805 22200 10401 20401
70006=
####018000115####
SNVD15 KWNB 150800 RRN
BBXX
41113 15081 99284 70805 46/// ///// 1//// 90751 22200 00185 10901
20901 70003=
####018000317####
SNVD22 KWNB 150800 RRK
BBXX
46236 15081 99368 71219 46/// ///// 1//// 90733 22200 00122 11304
20703 328// 41302 70019=
46235 15081 99326 71172 46/// ///// 1//// 90757 22200 00139 11402
20802 327// 41402 70012=
46229 15081 99438 71246 46/// ///// 1//// 90752 22200 00088 11404
21003 329// 41403 70021=
####018000127####
SNVD22 KWNB 150800 RRL
BBXX
46212 15081 99408 71243 46/// ///// 1//// 90800 22200 00096 10904
20904 333// 41202 70022=
####018000127####
SNVD22 KWNB 150800 RRN
BBXX
46213 15081 99403 71247 46/// ///// 1//// 90816 22200 00098 10810
20809 317// 41104 70049=
####018000317####
SNVD22 KWNB 150800 RRM
BBXX
46216 15081 99343 71198 46/// ///// 1//// 90756 22200 00125 11202
21002 326// 41202 70012=
46225 15081 99329 71174 46/// ///// 1//// 90750 22200 00142 11303
20902 328// 41302 70013=
46223 15081 99335 71178 46/// ///// 1//// 90753 22200 00140 11302
21001 327// 41302 70011=
####018000222####
SNVD22 KWNB 150800 RRO
BBXX
46222 15081 99336 71183 46/// ///// 1//// 90749 22200 00137 11302
20902 327// 41302 70012=
46215 15081 99352 71209 46/// ///// 1//// 90739 22200 00123 11304
21003 328// 41303 70020=
