####018000127####
SNVD22 KWNB 150800 RRB
BBXX
46240 15081 99366 71219 46/// ///// 1//// 90745 22200 00123 11102
21001 335// 41101 70009=
####018000109####
SNVD15 KWNB 150800 RRC
BBXX
42099 15081 99273 70842 46/// ///// 1//// 90735 22200 10401 20401
70006=
####018000115####
SNVD15 KWNB 150700 RRW
BBXX
41113 15071 99284 70805 46/// ///// 1//// 90721 22200 00185 10901
20901 70003=
####018000127####
SNVE15 KWNB 150700 RRG
BBXX
51201 15071 99217 71581 46/// ///// 1//// 90720 22200 00236 10804
20704 304// 41101 70019=
####018000127####
SNVE15 KWNB 150700 RRH
BBXX
51201 15071 99217 71581 46/// ///// 1//// 90650 22200 00236 10704
20704 334// 41301 70020=
####018000697####
SNVD22 KWNB 150700 RRX
BBXX
46236 15071 99368 71219 46/// ///// 1//// 90703 22200 00122 11304
20703 329// 41302 70019=
46235 15071 99326 71172 46/// ///// 1//// 90727 22200 00139 11402
20802 327// 41402 70012=
46229 15071 99438 71246 46/// ///// 1//// 90722 22200 00088 11104
21003 330// 41103 70021=
46212 15071 99408 71243 46/// ///// 1//// 90730 22200 00095 11204
20903 331// 41202 70020=
46216 15071 99343 71198 46/// ///// 1//// 90726 22200 00124 11302
21002 327// 41302 70012=
46225 15071 99329 71174 46/// ///// 1//// 90720 22200 00141 11402
20902 328// 41402 70012=
46223 15071 99335 71178 46/// ///// 1//// 90723 22200 00140 11402
20901 327// 41402 70011=
####018000127####
SNVD22 KWNB 150800 RRC
BBXX
46213 15081 99403 71247 46/// ///// 1//// 90746 22200 00097 10910
20909 318// 41103 70050=
####018000222####
SNVD22 KWNB 150700 RRX
BBXX
46222 15071 99336 71183 46/// ///// 1//// 90719 22200 00137 11102
21002 328// 41102 70012=
46215 15071 99352 71209 46/// ///// 1//// 90709 22200 00124 11304
21003 328// 41303 70020=
####018000089####
SMPS40 AMMC 150600 RRH
AAXX 15064
91611 46/// /0819 10278 40058 22200 00282=


####018000127####
SNVE15 KWNB 150700 RRI
BBXX
51202 15071 99214 71577 46/// ///// 1//// 90713 22200 00238 11006
21006 307// 41102 70031=
####018000122####
SMCN33 CWAO 150600 RRI
AAXX 15064
71383 46/// ///// 11095 21112 39500 40116 54000 6///1 333 11067
21121 7////=

####018000169####
SMCN25 CWAO 150600 RRH
AAXX 15064
71521 46/// ///// 11076 21094 6///1 333 7////=
71540 16/// /1206 11156 21174 60001 333 11120 21182 70004 555 31320
40231=

####018000531####
SNVD17 KWNB 150800 RRA
BBXX
46239 15081 99363 71221 46/// ///// 1//// 90740 22200 00121 10706
20706 330// 41202 70032=
46071 15081 99512 11790 46/// /3610 10013 40029 51041 90750 22200
00037 11106 20704 300// 41105 70030 333 91212 555 11105 22111
30715 43513 60749 357100 352099 354099 350101 343090 349102 83511
90715=
46005 15081 99427 71261 46/// /0913 10069 40008 58032 90750 22200
00089 10807 20806 300// 41402 70033 333 91218 555 11141 22150
30749 40818 60749 087133 088131 087139 086135 089138 092140=
####018000195####
SMDL23 EDZW 141800 CCB
AAXX 14181
10929 01462 23001 11020 21020 39716 40274 53015 60032 72272 82800
  333 11003 21030 3/107 47005 55300 20001 30000 69967 81812 96278
      96471 96473=
####018000324####
SNVD15 KWNB 150800 RRD
BBXX
41114 15081 99276 70802 46/// ///// 1//// 90742 22200 00208 11201
20801 70005=
41043 15081 99210 70650 46/// /0805 10236 40172 56012 90750 22200
00248 11004 20501 300// 41003 70018 333 91207 555 11057 22059
30741 40807 60749 080055 071050 071052 072053 087052 081050 80806
90741=
####018000109####
SNVD15 KWNB 150700 RRX
BBXX
41194 15071 99112 70745 46/// ///// 1//// 90710 22200 00252 10705
70024=
####018000146####
SNVD15 KWNB 150800 RRE
BBXX
42362 15081 99278 70907 46/// ///07 1//// 90800=
42363 15081 99282 70892 46/// ///// 1//// 90800 22200 00210=
####018002517####
SNDL21 EDZW 150800
AAXX 15081
10004 46/60 /2511 10033 20020 30235 40235 56015
222// 00039
  333 55300 91115 91212=
10015 41370 82507 10029 20015 30225 40235 57013 75866 877//
  333 55300 20037 30036 87707 91113=
10020 47360 72506 10022 20015 30182 40219 58012 76266
  333 4/001 55300 20009 30009 86/07 87/13=
10035 41150 82502 10005 20000 30171 40232 57006 77177 877//
  333 55300 20066 30065 41129 87703=
10055 42265 82807 10010 20001 30214 40225 56005 8662/
  333 55300 20060 30060 85705=
10147 41559 82503 11001 21021 30227 40246 56008 77122 8553/
  333 55300 20052 30052 41093 83620 83640 87362=
10162 41660 72505 11013 21026 30151 40238 57008 72272 8652/
  333 55300 86645=
10184 41660 82504 11007 21026 30211 40219 58004 77877 885//
  333 55300 20110 30110 88641=
10200 41350 82304 10004 21005 30256 40254 56011 77172 875//
  333 55300 20021 30021 4//// 82709 87640=
10224 42575 72403 11007 21026 30253 40260 56011 84531
  333 55300 20102 30101 83626 83657 87075=
10270 42562 82502 11021 21034 30189 40247 57005 878//
  333 55300 83823 87633=
10338 42565 72403 11014 21039 30193 40269 56006 875//
  333 55300 20173 30172 87629=
10361 42570 82603 11007 21036 30158 40266 55001 885//
  333 55300 20108 30108 88626=
10393 42658 82404 11029 21044 30119 40252 58002 875//
  333 55300 20115 30111 87646=
10400 42559 62004 11018 21034 30247 40300 55003 81501
  333 55300 20126 30125 81625 86075=
10438 47547 81803 11076 21087 39998 40298 56003 71000
  333 4/004 55300 87/23 88/58=
10469 42572 72305 11028 21050 30106 40280 50001 878//
  333 55300 81820 87636=
10488 42464 72705 11038 21060 39979 40276 51003 875//
  333 55300 20136 30134 41039 87612=
10506 42962 72102 11073 21082 39696 40316 51001 80001
  333 55306 87068=
10548 42470 72203 11066 21078 39729 40306 53006 875//
  333 55300 20152 30150 87613=
10637 42260 52002 11051 21063 30165 40312 52007 82641
  333 55301 82704 85075=
10685 42458 62703 11104 21114 39586 40313 52006 85501
  333 55307 20273 30159 85613=
10738 42466 22603 11068 21092 39821 40323 51008 81501
  333 55304 81612=
10763 42475 72503 11048 21076 39906 40313 52008 875//
  333 55300 20154 30153 87618=
10788 41479 73002 11044 21088 39856 40309 52012 72222 878//
  333 55301 20197 30191 81810 87627 96270=
10852 42463 83603 11059 21080 39715 40317 51011 885//
  333 55300 20142 30142 88616=
10946 42260 11102 11096 21118 39434 40328 53009 81600
  333 55306 20331 30154 81705=
####018000197####
SNVE15 KWNB 150800 RRA
BBXX
51028 15081 99000 71539 46/// /0805 10255 40121 51018 90750 22200
00258 333 91206 555 11050 22052 30732 40806 60749 082048 080051
083050 084051 086049 090049=
####018002127####
SNDL22 EDZW 150800
AAXX 15081
10008 46/// /2510 10045 20033 30209 40213 56016
222// 00049
  333 553// 91113 91211=
10043 NIL=
10046 41214 82403 10003 2//// 30194 40233 56009 77177 877//
  333 87704=
10091 41475 83106 10009 21008 30155 40208 57006 78522 873//
  333 55300 20051 30050 87910=
10113 41240 82206 10006 21003 30226 40246 57012 77177 877//
  333 55300 20041 30040 87704=
10131 42667 82405 10007 21013 30225 40240 56011 875//
  333 55300 20054 30053 87646=
10170 41460 82808 10009 21002 30209 40225 57006 77077 877//
  333 55300 20090 30089 87710=
10264 42566 72505 11017 21033 30130 40241 56007 875//
  333 55300 20142 30142 87626=
10291 42760 72607 11022 21041 30164 40235 56006 875//
  333 55300 20154 30154 87650=
10315 42561 71902 11024 21035 30212 40280 56010 84501
  333 55300 20066 30065 84630 87073=
10379 41670 72504 11023 21040 30128 40256 56007 72072 875//
  333 55300 20156 30147 41021 87633 96277=
10384 46/// /2503 11019 21044 30190 40253 56006
  333 55300 20084 30084=
10427 41150 72708 11070 21076 39232 48499 56004 72022 8663/
  333 55301 20267 30256 86702 96277=
10430 NIL=
10439 42560 71001 11105 21112 30071 40310 53002 84531
  333 84626 84360=
10453 41/90 92712 11088 21099 38869 48480 58005 74944
  333 55300 91114 91212 96036=
10496 41657 82404 11026 21046 30167 40256 50000 72077 885//
  333 55300 20075 30075 88636=
10499 42460 82604 11040 21059 39962 40268 51006 885//
  333 55300 20198 30194 88611=
10501 42960 62103 11025 21053 30044 40306 55001 84011
  333 55301 84465 85080=
10513 42560 51102 11051 21062 30180 40309 53001 82501
  333 55301 82628 83075=
10532 47446 82303 11066 21075 30042 40308 53003 71000
  333 55305 20323 30157 88/19 88/59=
10544 41/04 93205 11079 21088 39155 48498 53004 74122
  333 55303=
10554 41570 72302 11071 21080 39884 40299 52002 72222 875//
  333 55300 20141 30141 87623=
10567 42566 62104 11063 21075 39892 40293 50001 85504
  333 55300 20174 30173 85620 83076=
10578 41/01 93009 11114 21124 38800 48480 51009 74944
  333 55300 20249 30204 91113 96036=
####018002136####
SNDL23 EDZW 150800
AAXX 15081
10609 41940 40000 11061 21061 39968 40320 52004 71000 80001
  333 55302 20224 30143 84076=
10616 41940 42702 11058 21064 39676 40313 51003 71000 80001
  333 55306 84071=
10641 47957 01501 11061 21077 30158 40315 53008 71000
  333 55305=
10655 41950 11401 11082 21092 39966 40320 53009 71000 81031
  333 55306 20439 30224 81360=
10675 46456 81901 11069 21080 30003 40316 52007
  333 4/004 553// 2//// 3//// 87/13 88/69=
10688 42468 82702 11068 21089 39752 40310 51010 885//
  333 55300 20139 30139 88615=
10708 42958 21401 11058 21064 39907 40318 53003 80001
  333 55308 20237 30117 82078=
10727 NIL=
10729 42965 21701 11060 21072 30188 40318 52007 80001
  333 55306 20220 30136 82076=
10731 42959 11701 11062 21068 30166 40320 53008 80001
  333 55305 20219 30137 81080=
10742 41556 72201 11055 21077 39964 40318 51006 71022 875//
  333 55300 20153 30151 87620=
10776 42580 62903 11049 21091 39843 40312 51011 86500
  333 55300 20133 30133 4//// 86621=
10791 41/20 23207 11132 21139 38550 48491 53010 72844 82501
  333 55306 826// 96241 98288
  444 66145=
10805 42961 21502 11041 21056 30115 40319 51008 80001
  333 55306 20250 30147 82076=
10815 42983 12102 11105 21115 39321 48502 51007 81041
  333 55310 20291 30100 81361=
10836 42259 72704 11079 21085 39390 40316 51007 876//
  333 55300 20277 30274 87705=
10870 41465 72603 11051 21079 39749 40314 53010 72222 878//
  333 55300 81810 87620=
10895 41564 72603 11063 21074 39698 40304 53012 77877 875//
  333 55300 20215 30206 87623=
10908 42989 10605 11112 21121 38525 48516 53006 80001
  333 55310 81073=
10929 42559 72901 11057 21068 39755 40324 53009 875//
  333 55300 20207 30206 87624=
10948 42986 11102 11150 21162 39318 48496 52010 80001
  333 55300 20094 30094 81075=
10961 41/15 30105 11207 21207 37010 47971 53011 74144 83502
  333 55309 836// 81066
  444 17079 16110 26206=
10962 42082 22504 11083 21091 39099 48510 53009 81631
  333 55307 81700 95121
  444 47083=
10980 41/01 92808 11141 21141 38142 48507 53007 77174
  333 55300 96049=
####018001210####
SNDL40 EDZW 150800
AAXX 15081
10015 41370 82507 10029 20015 30225 40235 57013 75866 877//
  333 55300 20037 30036 87707 91113=
10020 47360 72506 10022 20015 30182 40219 58012 76266
  333 4/001 55300 20009 30009 86/07 87/13=
10035 41150 82502 10005 20000 30171 40232 57006 77177 877//
  333 55300 20066 30065 41129 87703=
10113 41240 82206 10006 21003 30226 40246 57012 77177 877//
  333 55300 20041 30040 87704=
10129 4/560 82406 10004 21008 30235 40249 57011
  333 55300 20074 30074=
10131 42667 82405 10007 21013 30225 40240 56011 875//
  333 55300 20054 30053 87646=
10147 41559 82503 11001 21021 30227 40246 56008 77122 8553/
  333 55300 20052 30052 41093 83620 83640 87362=
10156 47448 72606 11001 21013 30218 40240 56006 77170
  333 4/004 55300 20101 30101 81/19 87/56 87/58=
10200 41350 82304 10004 21005 30256 40254 56011 77172 875//
  333 55300 20021 30021 4//// 82709 87640=
10224 42575 72403 11007 21026 30253 40260 56011 84531
  333 55300 20102 30101 83626 83657 87075=
10235 45568 52504 11014 21026 30163 40262 56007
  333 4/004 55300 20208 30202 81/26 85/57 85/58=
10253 45569 82504 11012 21028 30229 40252 56006
  333 55300 83/30 88/58 88/60=
####018001952####
SNDL44 EDZW 150800
AAXX 15081
10007 46/60 /2411 10026 20010 30231 40231 58012
222// 00037
  333 55300 91114 91211=
10022 47350 72302 10013 20008 30216 40226 58009 75866
  333 4/002 55300 20005 30005 87/08 87/16=
10028 41362 82608 10016 20010 30218 40232 56010 76165 875//
  333 55300 20047 30046 86707 87614 91113=
10033 41460 82404 10007 20002 30187 40229 57008 76822 875//
  333 81612 87640=
10037 41340 72203 10008 20002 30198 40230 57007 77177 877//
  333 87709=
10038 41450 772303 10012 21001 30209 40231 57009 76877 875//
  333 87612=
10042 47/59 /2503 10007 20000 30225 40229 58005 77176
  333 4/002 55300 8////=
10044 46/// /2506 10007 20000 30193 40226 56005
222// 00016
  333 55300=
10067 NIL=
10093 473// 72505 10000 21013 30163 40214 57005 7////
  333 4/010 55300 86/07 87/12 87/24=
10097 47468 82406 11002 21013 30196 40211 57006 72576
  222// 07001
  333 55300 81/15 88/43=
10124 46/// /2410 10011 2//// 30204 40244 56011
222// 00016
  333 55300 91113 91211=
10126 42665 72404 10003 21003 30234 40249 57011 8553/
  333 85640 87358=
10127 NIL=
10129 4/560 82406 10004 21008 30235 40249 57011
  333 55300 20074 30074=
10130 47457 62406 10008 20001 30233 40239 56009 75175
  333 4/005 55300 86/10 86/40 86/56=
10136 42459 82405 10003 21014 30203 40243 57011 85532
  333 81616 85650 87075=
10139 45672 82503 11003 21016 30232 40247 56010
  333 4/002 55300 20068 30068 88/43=
10142 41332 82303 10003 21004 30208 40241 56008 77177 875//
  333 55300 86707 87613 96277=
10146 47564 62502 10000 21016 30231 40249 56007 72140
  333 55300 81/26 86/38 86/50=
10150 47121 42503 11001 21001 30200 40236 56007 77277
  333 4/007 55300 20057 30056 82/03 83/19=
10152 47150 72703 10005 21003 30228 40231 56006 77775
  333 4/003 55300 83/03 87/50 87/58=
10156 47448 72606 11001 21013 30218 40240 56006 77170
  333 4/004 55300 20101 30101 81/19 87/56 87/58=
####018001786####
SNDL45 EDZW 150800
AAXX 15081
10161 41564 82607 10001 21013 30210 40230 56007 77822 8537/
  333 55300 20092 30092 85920 88459=
10168 474// 82704 11014 21029 30159 40234 57007 7////
  333 4/003 55300 85/10 88/50 88/60=
10172 41456 82404 11001 21021 30153 40228 57005 77122 875//
  333 87611=
10180 45381 72606 10011 21004 30211 40216 58008
  333 4/003 55300 85/09 87/39 87/50=
10193 47571 82703 11015 21034 30219 40222 56006 72470
  333 4/002 55300 20056 30056 81/23 87/39 88/48=
10215 42663 72302 11004 21022 30243 40257 57010 875//
  333 55300 87644=
10235 45568 52504 11014 21026 30163 40262 56007
  333 4/004 55300 20208 30202 81/26 85/57 85/58=
10238 42560 72202 11020 21030 30165 40265 56007 83531
  333 83630 84358 85075=
10246 NIL=
10249 45663 72504 11013 21028 30188 40247 58006
  333 4/004 55300 20199 30192 82/35 87/46 87/57=
10253 45569 82504 11012 21028 30229 40252 56006
  333 55300 83/30 88/58 88/60=
10261 42669 72606 11009 21030 30220 40250 58009 875//
  333 55300 20150 30147 87638=
10267 45565 82504 11013 21030 30194 40248 56009
  333 4/001 55300 84/25 88/31=
10268 46/// /2604 11013 21028 30141 40232 56006
  333 55300 8////=
10281 42462 72504 11014 21031 30110 40229 57005 875//
  333 82611 87626=
10282 47658 72605 11026 21041 30086 40235 58005 72470
  333 55300 87/39=
10289 45669 72406 11019 21039 30153 40227 57007
  333 4/001 55300 86/40 87/50=
10304 NIL=
10305 42570 72102 11014 21027 30241 40275 56010 81518
  333 55301 81620 87270=
10306 42570 72203 11014 21029 30216 40279 56009 85530
  333 85630 85359=
10309 47556 82302 11013 21024 30223 40281 56008 71000
  333 55300 20093 30093 83/23 88/59=
10317 46560 82303 11014 21034 30156 40280 56009
  333 55300 87/29 88/58=
####018000109####
SNVD17 KWNB 150700 RRI
BBXX
32487 15071 99035 70777 46/// ///// 1//// 90725 22200 00276 11301
70006=
####018002149####
SNDL46 EDZW 150800
AAXX 15081
10321 42575 72304 11014 21028 30214 40270 56009 86536
  333 55300 20038 30038 86623 87277=
10325 47556 82002 11045 21055 30109 40289 56004 71000
  333 4/006 55300 87/23 88/58=
10334 42570 72404 11018 21043 30182 40271 57008 875//
  333 87630=
10335 42565 72305 11020 21044 30179 40276 57006 8753/
   333 85628 87358=
10343 42665 72502 11021 21035 30199 40266 57005 85530
  333 85634 86359=
10348 45566 72404 11020 21043 30159 40271 57003
  333 55300 20076 30073 41018 87/26=
10356 45564 82505 11027 21046 30063 40271 58002
  333 4/001 55300 82/22 87/27 88/58=
10359 45665 82504 11012 21034 30204 40266 56005
  333 55300 20107 30106 88/34=
10365 45559 82402 11017 21033 30213 40262 56005
  333 55300 20093 30093 81/23 88/34 88/57=
10368 42660 72505 11030 21040 30025 40265 55002 875//
  333 55300 20077 30075 87634=
10376 47458 72503 11020 21039 30185 40259 58005 72470
  333 55300 82/15 87/43 87/50=
10381 41481 72504 11022 21042 30158 40250 58006 72022 875//
  333 55300 87615=
10382 42668 72704 11020 21041 30204 40252 56008 875//
  333 55300 85633 87650=
10385 41661 72506 11023 21041 30188 40252 57006 72222 875//
  333 55300 20077 30077 83642 87650=
10389 46/// /2814 11014 21046 30148 40253 56005
  333 91116 91215=
10396 46656 82304 11022 21038 30220 40237 58006
  333 55300 82/34 83/46 88/50=
10404 NIL=
10410 46/43 /2103 11022 21031 30109 40301 55003
  333 55301=
10418 41450 72602 11063 21070 39804 40305 55001 71022 875//
  333 55300 20114 30114 87615=
10424 45560 82204 11028 21048 30181 40292 56004
  333 4/001 55301 20161 30146 82/23 88/58 88/62=
10433 47847 81701 11061 21061 39956 40291 55004 71000
  333 4/007 55300 20188 30179 88/57=
10435 47757 72002 11091 21104 39990 40299 55003 71000
  333 4/004 55300 84/56 87/62=
10442 NIL=
10444 42564 71201 11048 21068 30074 40290 58002 81531
  333 55300 20141 30140 81625 86359=
10449 47557 82301 11050 21064 39839 40289 53001 71000
  333 4/010 55300 20180 30179 82/21 88/57=
10452 45265 82203 11058 21067 39517 40279 50000
  333 4/040 55300 86/06 88/10=
####018001587####
SNDL47 EDZW 150800
AAXX 15081
10454 45882 82606 11013 21054 39976 40280 57002
  333 4/006 55301 88/58=
10458 45880 82403 11062 21075 39768 40285 53001
  333 4/012 55301 20203 30192 88/57=
10460 41557 72503 11072 21082 30079 40295 53002 71022 82551
  333 55306 20313 30220 82630 85359=
10466 46/61 /2401 11034 21061 30155 40279 50000
  333 55300 20115 8////=
10471 41460 82203 11033 21056 30103 40280 50000 77822 875//
  333 55300 20075 30075 41040 87616=
10474 45658 82402 11027 21043 30132 40268 56002
  333 4/002 55300 20100 30100 88/34=
10476 NIL=
10480 47561 82305 11030 21050 30085 40278 50001 72576
  333 55300 20064 30064 88/25=
10490 47557 82303 11028 21048 30143 40269 58002 72470
  333 4/001 55300 20075 30075 88/32=
10502 NIL=
10514 NIL=
10515 46018 80000 11050 21050 30146 40313 52005
  333 55300 88/01 88/22=
10518 NIL=
10519 47550 82002 11035 21052 30100 40309 53002 71000
  333 55305 81/26 88/66 88/69=
10526 41218 82802 11053 21053 39606 40305 53002 77874 877//
  333 55300 85704 87707 96010 96249=
10534 47/// /2804 11079 21085 39375 40308 52003 7////
  333 4/050 55301 8////=
10535 46/59 /1901 11085 21091 39863 40316 51003
  333 55303=
10540 47450 82603 11056 21070 39898 40299 53002 71000
  333 4/010 55300 20218 30218 83/18 88/58=
10542 47544 82701 11089 21096 39962 40317 53005 71000
  333 4/004 55300 20105 30104 88/21=
10552 45980 22702 11090 21099 39137 48495 53005
  333 4/094 55303 82/58=
10557 42162 73403 11078 21085 39238 48493 53006 876//
  333 55302 20335 30318 87702 96210=
####018000327####
SNVD20 KWNB 150800 RRA
BBXX
44039 15081 99411 70727 46/// /3209 1//// 90745 22200 00014 10301
70004 555 11093 22098=
44022 15081 99409 70737 46/// /3305 10006 21102 40137 90745 22200
00014 555 11051 22057=
44040 15081 99410 70736 46/// /3407 10007 21108 40143 90745 22200
1//00 70001 333 91209 555 11077 22082=
####018001947####
SNDL48 EDZW 150800
AAXX 15081
10564 47149 72304 11089 21102 39663 40306 50005 71000
  333 4/004 55302 84/02 87/58=
10565 45559 72203 11048 21067 39977 40293 50001
  333 4/003 55301 87/26=
10569 45558 72003 11066 21087 39802 40300 50003
  333 4/003 55300 20143 30142 87/24=
10574 47250 82802 11092 21102 39179 48490 50004 77177
  333 4/057 55300 20016 87/05 88/14=
10577 41359 82305 11060 21074 39758 40289 51003 77177 885//
  333 55300 20131 30127 84709 83618 88625=
10579 47/56 /2303 11077 21090 39485 40292 51002 77177
  333 4/015 55300 8////=
10582 4/038 83004 11087 21096 39185 48478 51006 88///
  333 55300 20167 30167 88/00=
10591 47462 82804 11044 21065 39870 40275 51004 77774
  333 4/012 55300 88/10=
10613 NIL=
10615 47/44 /1601 11069 21075 39707 40321 50003 71000
  333 4/006 55301 20155 30128 8////=
10618 NIL=
10628 47946 02001 11049 21068 30169 40314 51006 71000
  333 55307=
10635 47256 53203 11070 21070 39279 48504 52003 71000
  333 4/021 55307 85/05=
10646 47/50 /1901 11119 21130 39877 40324 53007 71000
  333 4/015 55302 8////=
10648 42963 22302 11063 21074 39733 40312 53007 81031
  333 55306 20247 30141 81362=
10658 42260 70301 11100 21112 39949 40319 52009 81631
  333 55304 81705 85360=
10671 47357 80902 11093 21110 39861 40309 51007 71000
  333 4/009 55300 20235 30234 88/08=
10686 45361 82501 11092 21101 39518 40310 53008
  333 4/022 55301 88/07=
10704 46957 03201 11034 21059 39852 40313 53005
  333 55307=
10706 47936 01201 11063 21072 39822 40318 53004 71000
  333 4/003 55308=
10724 46960 02502 11064 21072 39606 40309 51005
  333 55310 2//// 3////=
10733 47/48 /1101 11080 21088 30009 40322 51007 71000
  333 4/004 55307 20235 30158 8////=
10736 47950 00000 11129 21144 30008 40332 51008 71000
  333 4/007 55308=
10739 45463 82402 11055 21082 39910 40318 51007
  333 4/006 55300 20190 30166 40872 88/11=
10743 NIL=
####018000109####
SNVD15 KWNB 150800 RRF
BBXX
42364 15081 99291 70881 46/// /0803 10200 20172 40159 90745 22200
00227=
####018001551####
SNDL49 EDZW 150800
AAXX 15081
10756 45460 72503 11069 21092 39717 40325 53007
  333 4/007 55300 20168 30168 81/11 87/23 87/30=
10761 42470 73002 11057 21090 39778 40315 52008 875//
  333 55300 20185 87616=
10765 NIL=
10771 NIL=
10777 45468 82703 11070 21096 39634 40317 51010
  333 4/006 55300 88/14=
10782 47457 41001 11086 21091 39673 40313 51012 71000
  333 4/010 55303 20277 30216 84/13 84/73=
10796 47461 82402 11077 21096 39524 40303 53009 72270
  333 4/040 55300 84/10 88/17=
10803 47361 73501 11060 21064 30014 40322 52009 72030
  333 4//// 55302 20176 30146 87/07=
10818 45960 32202 11081 21089 39114 48513 53007
  333 4/023 55308 20313 30125 83/76=
10827 NIL=
10837 NIL=
10838 46959 02501 11047 21067 39599 40316 53009
  333 55310=
10850 45461 82703 11064 21090 39680 40319 51010
  333 4/003 55300 88/12=
10853 NIL=
10856 NIL=
10857 NIL=
10860 NIL=
10863 47463 82903 11056 21081 39706 40313 51011 72270
  333 4/004 55300 20142 30135 88/10=
10865 42360 82502 11058 21079 39651 40316 52013 885//
  333 55300 81709 88614=
10872 45474 72803 11045 21082 39862 40310 53013
  333 4/001 55300 87/10 87/24=
10875 47460 82501 11057 21076 39792 40315 51011 72470
  333 55300 20182 30182 84/19 88/27=
10945 47/42 /1201 11095 21101 39474 40330 53010 72030
  333 4/009 55305 8////=
10954 NIL=
10963 45465 42201 11089 21096 39420 40330 53010
  333 4/030 55300 20085 30084 84/13=
10982 45468 82803 11055 21083 39620 40317 53011
  333 4/007 55300 20115 30115 81/12 88/18=
####018000083####
SMSE01 LFVW 150600 RRA
AAXX 1506/
95997 46/// ///// 10045 39898 49902 5////=
####018000089####
SMPS40 AMMC 150600 RRI
AAXX 15064
91756 46/// /0602 10286 40106 22200 00295=


####018000123####
SNRE20 FMEE 150800
AAXX 15084
61980 22565 31019 10310 20246 40133 82832
  333 59016 60005 82823 90710 91128 92437=
####018000073####
SNAA11 LFVW 150700
AAXX 15074
89253 46/// /2022 11039 4//// 5////=
####018000322####
SNVD22 KWNB 150800 RRD
BBXX
46214 15081 99379 71235 46/// ///// 1//// 90739 22200 00109 10809
20809 324// 41102 70047=
46069 15081 99336 71202 46/// /1707 10117 40182 57003 90750 22200
00126 11306 20602 332// 41306 70030 333 91208 555 11069 22072
30719 41609 60749 168064 166061 166058 169058 164058 166058=
####018000241####
SNHK22 VHHH 150800
AAXX 15081
45032 36/// /0904 10215 20196 30102 40119 54000=
45035 36/// /1406 10263 20208 30066 40107 54000=
45039 36/// /0704 10211 20198 30105 40120 57001=
45044 36/// /1006 10221 20209 30028 40120 57001=

####018000109####
SNDL47 EDZW 150800 RRA
AAXX 15081
10502 42965 42002 11031 21051 30129 40303 58001 80001
  333 84072=
####018000139####
SNDL44 EDZW 150800 CCA
AAXX 15081
10129 42765 82406 10004 21008 30235 40249 57011 8157/
  333 55300 20074 30074 81650 83358 87460=
####018000139####
SNDL40 EDZW 150800 CCA
AAXX 15081
10129 42765 82406 10004 21008 30235 40249 57011 8157/
  333 55300 20074 30074 81650 83358 87460=
####018000139####
SNDL22 EDZW 150800 RRA
AAXX 15081
10430 41550 80301 11068 21074 30089 40294 55005 71022 8653/
  333 55300 20116 30116 86620 87359=
####018000257####
SNDL49 EDZW 150800 RRA
AAXX 15081
10771 42570 72804 11061 21093 39779 40314 52010 875//
  333 87620=
10853 42580 72603 11053 21092 39824 40318 52011 875//
  333 87620=
10856 41457 82202 11073 21080 39610 40324 51012 71022 885//
  333 88610=
####018000100####
SNKI01 AMMC 150800
AAXX 15084
96995 176// 71908 10266 20233 39772 40065 56017 60021 7//44=

####018000115####
SMMC02 GMMC 150600 RRC
AAXX 15064
60185 32960 /1011 10113 20107 40126 5//// 8////
  333 20112 30007 8////=
####018000093####
SNRE15 FMEE 150800
AAXX 15084
61997 26/// /1708 10053 20023 40095
  333 59036 60005=
####018000126####
SNRE20 FMEE 150800
AAXX 15084
61980 22565 31019 10310 20246 40133 82832
  333 59016 60005 82823 90710 91128 92437=

####018000113####
SNHE40 EGRR 150800
AAXX 15084
61901 462// /1210 10202 20188 39638 40139 52013 90750 333 84/04 555
7/095=
####018000401####
SNAA14 EGRR 150700 RRA
AAXX 15074
89013 46/// /0813 11267 21298 37566 49630 52001 90700=
89108 46/// /0512 11379 36851 4//// 57002 90650=
89314 46/// /0910 11199 38157 4//// 52005 90650=
89327 46/// /0000 11046 39633 49915 5//// 90650=
89768 46/// /3408 11181 38809 49871 5//// 90650=
89769 46/// ///02 11106 39862 49917 5//// 90650=
89879 46/// /0000 11036 3//// 4//// 5//// 90650=
####018001345####
SNVD17 KWNB 150800 RRB
BBXX
46001 15081 99563 71480 46/// /1807 10031 40164 58017 90750 22200
00035 11507 20403 300// 41506 70035 333 91209 555 11079 22083
30650 41810 60749 181074 175071 175074 176073 174072 176077=
46082 15081 99597 71434 46/// /1205 10026 40197 56007 90750 22200
00051 11505 20401 300// 41505 70024 333 91206 555 11048 22050
30732 41306 60749 118045 127046 129044 124045 132042 131033 81305
90732=
46081 15081 99608 71483 46/// ///04 10017 40182 56012 90750 22200
1//00 70000 333 91205 555 11038 22040=
46002 15081 99426 71305 46/// /0317 10076 49999 57012 90750 22200
00102 10809 20808 300// 41303 70044 333 91220 555 11177 22188
30716 40420 60749 031163 029159 032155 035165 032155 031154=
46035 15081 99571 71778 46/// /0116 11068 40013 52011 90750 22200
00017 11109 20707 300// 41106 70047 333 91218 555 11158 22167
30700 40121 60749 006159 009163 014159 013166 009166 006166 80118
90711=
46061 15081 99602 71468 46/// /0909 10007 40185 56012 90750 22200
00033 10902 20602 300// 40902 70012 333 91210 555 11094 22099
30736 40911 60749 093090 094092 096091 096089 097089 099086=
46035 15081 99571 71778 46/// /0116 11068 40013 90750 22200 00017
11109 20707 300// 41106 70047 333 91218 555 11158 22167 30700
40121 60749 006159 009163 014159 013166 009166 006166 80118 90711=
####018000193####
SNVD19 KWNB 150800
BBXX
46073 15081 99549 71720 46/// /0211 10015 49827 53026 90750 22200
00024 333 91214 555 11111 22118 30748 40214 60749 019112 021110
022106 019096 022100 023095=
####018001422####
SNVD15 KWNB 150800 RRG
BBXX
42036 15081 99285 70845 46/// /2606 10201 20190 40163 55003 90750
22200 00195 10601 20601 321// 40701 70006 333 91207 555 11064
22070 30742 42707 60749 263060 253055 249045 249044 250040 243044=
41035 15081 99345 70773 46/// /3105 10102 20094 40129 53005 90750
22200 00096 10801 20401 3//// 40801 70005 333 91206 555 11053
22059 30657 42808 60749 309050 297044 301047 283049 288050 284049=
44011 15081 99411 70666 46/// /3111 10027 21020 40051 53010 90750
22200 00052 10807 20705 300// 40805 70036 333 91213 555 11117
22123 30658 43214 60749 312108 315105 315108 319107 316109 318105=
42007 15081 99301 70888 46/// ///// 10160 20139 40153 55003 90750
22200 00168 10401 70007=
41040 15081 99144 70538 46/// /0709 10253 20214 40128 56008 90750
22200 00259 10805 20504 300// 40803 70026 333 91211 555 11100
22106 30652 40714 60749 066094 063093 067093 068090 070083 068092
80712 90653=
42001 15081 99259 70897 46/// /1504 10240 40137 58009 90750 22200
00247 10501 20401 3//// 40501 70007 333 91204 555 11036 22037
30743 41404 60749 150036 151036 158030 164034 170034 171031=
41010 15081 99289 70785 46/// /3507 10219 20191 40136 57003 90750
22200 00226 10502 20502 300// 40901 70012 333 91208 555 11070
22074=
41009 15081 99285 70802 46/// /2905 10203 20176 40149 57005 90750
22200 00211 10301 20301 300// 40901 70006 333 91206 555 11056
22058=
