SMLA01 VLIV 090000
AAXX 09001
48921 31940 00000 10145 20136 38584 48080 5//// 710//
 333 20102 59001=
48924 31/06 90000 10145 20145 39524 40165 5//// 743//
 333 20130 58009=
48925 31/02 90000 10142 20134 39435 40174 5//// 747//
 333 20130 58005=
48926 31340 40403 10176 20159 39682 40159 5//// 710// 82650
 333 20170 58003=
48927 31430 80000 10148 20139 39175 48631 5//// 710// 888//
 333 20145 58009=
48928 NIL=
48930 31/01 90000 10170 20162 39812 40171 52013 74744
 333 20160 58005=
48935 31430 80000 10135 20131 38970 48457 52010 71044 8487/
 333 20108 58006=
48938 31/03 90401 10162 20159 39817 40160 52027 74544
 333 20162 58002=
48940 31630 13001 10192 20155 39954 40154 52014 71044 81500
 333 20190 59002=
48941 NIL=
48944 NIL=
48945 31640 30000 10175 20160 39980 40164 5//// 710// 81530
 333 20174 59001=
48946 31530 31601 10162 20148 39980 40161 52011 710// 81801
 333 20152 59002=
48947 31520 30000 10160 20155 39992 40163 52004 71044
 333 20160 58021=
48948 31960 00902 10160 20159 39951 40171 52012 71044
 333 20160 58003=
48952 NIL=
48953 31950 00000 10145 20127 39957 40128 5//// 710//
 333 20135 59005=
48955 31958 03602 10180 20136 30015 40135 52012 71044
 333 20180 59005=
48956 NIL=
48957 NIL=


